<?xml version="1.0" encoding="UTF-8"?>
<gpx
  version="1.1"
  creator="Runkeeper - http://www.runkeeper.com"
  xmlns:xsi="http://www.w3.org/2001/XMLSchema-instance"
  xmlns="http://www.topografix.com/GPX/1/1"
  xsi:schemaLocation="http://www.topografix.com/GPX/1/1 http://www.topografix.com/GPX/1/1/gpx.xsd"
  xmlns:gpxtpx="http://www.garmin.com/xmlschemas/TrackPointExtension/v1">
<trk>
  <name><![CDATA[Walking 8/29/26]]></name>
  <time>2026-08-29T00:00:00Z</time>
<trkseg>
<trkpt lat="37.804030000" lon="-121.974106000"><ele>140.7</ele><time>2026-08-29T00:00:00Z</time></trkpt>
<trkpt lat="37.803947000" lon="-121.974075000"><ele>141.0</ele><time>2026-08-29T00:00:00Z</time></trkpt>
<trkpt lat="37.803864000" lon="-121.974070000"><ele>141.4</ele><time>2026-08-29T00:00:00Z</time></trkpt>
<trkpt lat="37.803802000" lon="-121.973990000"><ele>141.7</ele><time>2026-08-29T00:00:00Z</time></trkpt>
<trkpt lat="37.803734000" lon="-121.973920000"><ele>142.0</ele><time>2026-08-29T00:00:00Z</time></trkpt>
<trkpt lat="37.803703000" lon="-121.973820000"><ele>142.3</ele><time>2026-08-29T00:00:00Z</time></trkpt>
<trkpt lat="37.803710000" lon="-121.973720000"><ele>142.7</ele><time>2026-08-29T00:00:00Z</time></trkpt>
<trkpt lat="37.803707000" lon="-121.973600000"><ele>143.2</ele><time>2026-08-29T00:00:00Z</time></trkpt>
<trkpt lat="37.803710000" lon="-121.973495000"><ele>143.5</ele><time>2026-08-29T00:00:00Z</time></trkpt>
<trkpt lat="37.803696000" lon="-121.973380000"><ele>143.7</ele><time>2026-08-29T00:00:00Z</time></trkpt>
<trkpt lat="37.803684000" lon="-121.973280000"><ele>143.9</ele><time>2026-08-29T00:00:00Z</time></trkpt>
<trkpt lat="37.803630000" lon="-121.973200000"><ele>144.0</ele><time>2026-08-29T00:00:00Z</time></trkpt>
<trkpt lat="37.803547000" lon="-121.973230000"><ele>144.0</ele><time>2026-08-29T00:00:00Z</time></trkpt>
<trkpt lat="37.803467000" lon="-121.973274000"><ele>143.8</ele><time>2026-08-29T00:00:00Z</time></trkpt>
<trkpt lat="37.803380000" lon="-121.973320000"><ele>143.6</ele><time>2026-08-29T00:00:00Z</time></trkpt>
<trkpt lat="37.803300000" lon="-121.973366000"><ele>143.4</ele><time>2026-08-29T00:00:00Z</time></trkpt>
<trkpt lat="37.803226000" lon="-121.973420000"><ele>143.1</ele><time>2026-08-29T00:00:00Z</time></trkpt>
<trkpt lat="37.803154000" lon="-121.973495000"><ele>142.8</ele><time>2026-08-29T00:00:00Z</time></trkpt>
<trkpt lat="37.803100000" lon="-121.973590000"><ele>142.5</ele><time>2026-08-29T00:00:00Z</time></trkpt>
<trkpt lat="37.803060000" lon="-121.973680000"><ele>142.3</ele><time>2026-08-29T00:00:00Z</time></trkpt>
<trkpt lat="37.803020000" lon="-121.973780000"><ele>142.2</ele><time>2026-08-29T00:00:00Z</time></trkpt>
<trkpt lat="37.803000000" lon="-121.973890000"><ele>142.1</ele><time>2026-08-29T00:00:00Z</time></trkpt>
<trkpt lat="37.802994000" lon="-121.974010000"><ele>142.0</ele><time>2026-08-29T00:00:00Z</time></trkpt>
<trkpt lat="37.802980000" lon="-121.974110000"><ele>141.9</ele><time>2026-08-29T00:00:00Z</time></trkpt>
<trkpt lat="37.802944000" lon="-121.974014000"><ele>141.9</ele><time>2026-08-29T00:00:00Z</time></trkpt>
<trkpt lat="37.802956000" lon="-121.973900000"><ele>142.0</ele><time>2026-08-29T00:00:00Z</time></trkpt>
<trkpt lat="37.802980000" lon="-121.973790000"><ele>142.1</ele><time>2026-08-29T00:00:00Z</time></trkpt>
<trkpt lat="37.803005000" lon="-121.973694000"><ele>142.2</ele><time>2026-08-29T00:00:00Z</time></trkpt>
<trkpt lat="37.803040000" lon="-121.973595000"><ele>142.4</ele><time>2026-08-29T00:00:00Z</time></trkpt>
<trkpt lat="37.803085000" lon="-121.973500000"><ele>142.6</ele><time>2026-08-29T00:00:00Z</time></trkpt>
<trkpt lat="37.803140000" lon="-121.973430000"><ele>142.9</ele><time>2026-08-29T00:00:00Z</time></trkpt>
<trkpt lat="37.803215000" lon="-121.973366000"><ele>143.2</ele><time>2026-08-29T00:00:00Z</time></trkpt>
<trkpt lat="37.803295000" lon="-121.973330000"><ele>143.5</ele><time>2026-08-29T00:00:00Z</time></trkpt>
<trkpt lat="37.803370000" lon="-121.973290000"><ele>143.7</ele><time>2026-08-29T00:00:00Z</time></trkpt>
<trkpt lat="37.803448000" lon="-121.973240000"><ele>144.0</ele><time>2026-08-29T00:00:00Z</time></trkpt>
<trkpt lat="37.803524000" lon="-121.973180000"><ele>144.3</ele><time>2026-08-29T00:00:00Z</time></trkpt>
<trkpt lat="37.803590000" lon="-121.973114000"><ele>144.5</ele><time>2026-08-29T00:00:00Z</time></trkpt>
<trkpt lat="37.803585000" lon="-121.973010000"><ele>144.5</ele><time>2026-08-29T00:00:00Z</time></trkpt>
<trkpt lat="37.803528000" lon="-121.972920000"><ele>144.6</ele><time>2026-08-29T00:00:00Z</time></trkpt>
<trkpt lat="37.803482000" lon="-121.972830000"><ele>144.5</ele><time>2026-08-29T00:00:00Z</time></trkpt>
<trkpt lat="37.803417000" lon="-121.972755000"><ele>144.5</ele><time>2026-08-29T00:00:00Z</time></trkpt>
<trkpt lat="37.803352000" lon="-121.972690000"><ele>144.3</ele><time>2026-08-29T00:00:00Z</time></trkpt>
<trkpt lat="37.803290000" lon="-121.972620000"><ele>144.1</ele><time>2026-08-29T00:00:00Z</time></trkpt>
<trkpt lat="37.803210000" lon="-121.972580000"><ele>143.9</ele><time>2026-08-29T00:00:00Z</time></trkpt>
<trkpt lat="37.803140000" lon="-121.972520000"><ele>143.7</ele><time>2026-08-29T00:00:00Z</time></trkpt>
<trkpt lat="37.803060000" lon="-121.972480000"><ele>143.5</ele><time>2026-08-29T00:00:00Z</time></trkpt>
<trkpt lat="37.802967000" lon="-121.972470000"><ele>143.2</ele><time>2026-08-29T00:00:00Z</time></trkpt>
<trkpt lat="37.802876000" lon="-121.972450000"><ele>142.9</ele><time>2026-08-29T00:00:00Z</time></trkpt>
<trkpt lat="37.802795000" lon="-121.972450000"><ele>142.7</ele><time>2026-08-29T00:00:00Z</time></trkpt>
<trkpt lat="37.802710000" lon="-121.972480000"><ele>142.5</ele><time>2026-08-29T00:00:00Z</time></trkpt>
<trkpt lat="37.802628000" lon="-121.972466000"><ele>142.3</ele><time>2026-08-29T00:00:00Z</time></trkpt>
<trkpt lat="37.802547000" lon="-121.972466000"><ele>142.2</ele><time>2026-08-29T00:00:00Z</time></trkpt>
<trkpt lat="37.802460000" lon="-121.972450000"><ele>142.1</ele><time>2026-08-29T00:00:00Z</time></trkpt>
<trkpt lat="37.802370000" lon="-121.972440000"><ele>142.0</ele><time>2026-08-29T00:00:00Z</time></trkpt>
<trkpt lat="37.802288000" lon="-121.972440000"><ele>141.9</ele><time>2026-08-29T00:00:00Z</time></trkpt>
<trkpt lat="37.802223000" lon="-121.972374000"><ele>141.9</ele><time>2026-08-29T00:00:00Z</time></trkpt>
<trkpt lat="37.802284000" lon="-121.972300000"><ele>142.0</ele><time>2026-08-29T00:00:00Z</time></trkpt>
<trkpt lat="37.802383000" lon="-121.972310000"><ele>142.1</ele><time>2026-08-29T00:00:00Z</time></trkpt>
<trkpt lat="37.802475000" lon="-121.972320000"><ele>142.2</ele><time>2026-08-29T00:00:00Z</time></trkpt>
<trkpt lat="37.802560000" lon="-121.972350000"><ele>142.4</ele><time>2026-08-29T00:00:00Z</time></trkpt>
<trkpt lat="37.802643000" lon="-121.972350000"><ele>142.6</ele><time>2026-08-29T00:00:00Z</time></trkpt>
<trkpt lat="37.802727000" lon="-121.972340000"><ele>142.9</ele><time>2026-08-29T00:00:00Z</time></trkpt>
<trkpt lat="37.802814000" lon="-121.972340000"><ele>143.1</ele><time>2026-08-29T00:00:00Z</time></trkpt>
<trkpt lat="37.802895000" lon="-121.972340000"><ele>143.3</ele><time>2026-08-29T00:00:00Z</time></trkpt>
<trkpt lat="37.802982000" lon="-121.972360000"><ele>143.5</ele><time>2026-08-29T00:00:00Z</time></trkpt>
<trkpt lat="37.803066000" lon="-121.972380000"><ele>143.8</ele><time>2026-08-29T00:00:00Z</time></trkpt>
<trkpt lat="37.803150000" lon="-121.972410000"><ele>144.1</ele><time>2026-08-29T00:00:00Z</time></trkpt>
<trkpt lat="37.803234000" lon="-121.972460000"><ele>144.4</ele><time>2026-08-29T00:00:00Z</time></trkpt>
<trkpt lat="37.803318000" lon="-121.972470000"><ele>144.7</ele><time>2026-08-29T00:00:00Z</time></trkpt>
<trkpt lat="37.803375000" lon="-121.972400000"><ele>145.2</ele><time>2026-08-29T00:00:00Z</time></trkpt>
<trkpt lat="37.803425000" lon="-121.972310000"><ele>145.6</ele><time>2026-08-29T00:00:00Z</time></trkpt>
<trkpt lat="37.803493000" lon="-121.972230000"><ele>146.1</ele><time>2026-08-29T00:00:00Z</time></trkpt>
<trkpt lat="37.803560000" lon="-121.972150000"><ele>146.6</ele><time>2026-08-29T00:00:00Z</time></trkpt>
<trkpt lat="37.803620000" lon="-121.972080000"><ele>147.3</ele><time>2026-08-29T00:00:00Z</time></trkpt>
<trkpt lat="37.803688000" lon="-121.972010000"><ele>148.0</ele><time>2026-08-29T00:00:00Z</time></trkpt>
<trkpt lat="37.803753000" lon="-121.971924000"><ele>148.7</ele><time>2026-08-29T00:00:00Z</time></trkpt>
<trkpt lat="37.803764000" lon="-121.971820000"><ele>149.5</ele><time>2026-08-29T00:00:00Z</time></trkpt>
<trkpt lat="37.803710000" lon="-121.971725000"><ele>150.3</ele><time>2026-08-29T00:00:00Z</time></trkpt>
<trkpt lat="37.803650000" lon="-121.971634000"><ele>151.1</ele><time>2026-08-29T00:00:00Z</time></trkpt>
<trkpt lat="37.803604000" lon="-121.971540000"><ele>151.8</ele><time>2026-08-29T00:00:00Z</time></trkpt>
<trkpt lat="37.803547000" lon="-121.971466000"><ele>152.5</ele><time>2026-08-29T00:00:00Z</time></trkpt>
<trkpt lat="37.803467000" lon="-121.971405000"><ele>152.9</ele><time>2026-08-29T00:00:00Z</time></trkpt>
<trkpt lat="37.803390000" lon="-121.971344000"><ele>153.3</ele><time>2026-08-29T00:00:00Z</time></trkpt>
<trkpt lat="37.803310000" lon="-121.971280000"><ele>153.5</ele><time>2026-08-29T00:00:00Z</time></trkpt>
<trkpt lat="37.803394000" lon="-121.971275000"><ele>153.5</ele><time>2026-08-29T00:00:00Z</time></trkpt>
<trkpt lat="37.803470000" lon="-121.971306000"><ele>153.3</ele><time>2026-08-29T00:00:00Z</time></trkpt>
<trkpt lat="37.803535000" lon="-121.971380000"><ele>153.0</ele><time>2026-08-29T00:00:00Z</time></trkpt>
<trkpt lat="37.803577000" lon="-121.971470000"><ele>152.6</ele><time>2026-08-29T00:00:00Z</time></trkpt>
<trkpt lat="37.803635000" lon="-121.971560000"><ele>152.4</ele><time>2026-08-29T00:00:00Z</time></trkpt>
<trkpt lat="37.803696000" lon="-121.971634000"><ele>152.1</ele><time>2026-08-29T00:00:00Z</time></trkpt>
<trkpt lat="37.803753000" lon="-121.971720000"><ele>151.9</ele><time>2026-08-29T00:00:00Z</time></trkpt>
<trkpt lat="37.803814000" lon="-121.971800000"><ele>151.8</ele><time>2026-08-29T00:00:00Z</time></trkpt>
<trkpt lat="37.803910000" lon="-121.971794000"><ele>151.9</ele><time>2026-08-29T00:00:00Z</time></trkpt>
<trkpt lat="37.803970000" lon="-121.971725000"><ele>152.2</ele><time>2026-08-29T00:00:00Z</time></trkpt>
<trkpt lat="37.804043000" lon="-121.971650000"><ele>152.5</ele><time>2026-08-29T00:00:00Z</time></trkpt>
<trkpt lat="37.804108000" lon="-121.971570000"><ele>153.1</ele><time>2026-08-29T00:00:00Z</time></trkpt>
<trkpt lat="37.804176000" lon="-121.971504000"><ele>153.7</ele><time>2026-08-29T00:00:00Z</time></trkpt>
<trkpt lat="37.804240000" lon="-121.971430000"><ele>154.5</ele><time>2026-08-29T00:00:00Z</time></trkpt>
<trkpt lat="37.804306000" lon="-121.971360000"><ele>155.2</ele><time>2026-08-29T00:00:00Z</time></trkpt>
<trkpt lat="37.804356000" lon="-121.971275000"><ele>155.8</ele><time>2026-08-29T00:00:00Z</time></trkpt>
<trkpt lat="37.804420000" lon="-121.971214000"><ele>156.5</ele><time>2026-08-29T00:00:00Z</time></trkpt>
<trkpt lat="37.804485000" lon="-121.971140000"><ele>157.0</ele><time>2026-08-29T00:00:00Z</time></trkpt>
<trkpt lat="37.804500000" lon="-121.971040000"><ele>157.5</ele><time>2026-08-29T00:00:00Z</time></trkpt>
<trkpt lat="37.804432000" lon="-121.970960000"><ele>158.0</ele><time>2026-08-29T00:00:00Z</time></trkpt>
<trkpt lat="37.804375000" lon="-121.970880000"><ele>158.5</ele><time>2026-08-29T00:00:00Z</time></trkpt>
<trkpt lat="37.804317000" lon="-121.970795000"><ele>159.0</ele><time>2026-08-29T00:00:00Z</time></trkpt>
<trkpt lat="37.804250000" lon="-121.970730000"><ele>159.5</ele><time>2026-08-29T00:00:00Z</time></trkpt>
<trkpt lat="37.804180000" lon="-121.970665000"><ele>160.2</ele><time>2026-08-29T00:00:00Z</time></trkpt>
<trkpt lat="37.804096000" lon="-121.970610000"><ele>160.7</ele><time>2026-08-29T00:00:00Z</time></trkpt>
<trkpt lat="37.804012000" lon="-121.970566000"><ele>161.4</ele><time>2026-08-29T00:00:00Z</time></trkpt>
<trkpt lat="37.803936000" lon="-121.970530000"><ele>162.1</ele><time>2026-08-29T00:00:00Z</time></trkpt>
<trkpt lat="37.803864000" lon="-121.970474000"><ele>162.8</ele><time>2026-08-29T00:00:00Z</time></trkpt>
<trkpt lat="37.803780000" lon="-121.970430000"><ele>163.6</ele><time>2026-08-29T00:00:00Z</time></trkpt>
<trkpt lat="37.803710000" lon="-121.970375000"><ele>164.4</ele><time>2026-08-29T00:00:00Z</time></trkpt>
<trkpt lat="37.803650000" lon="-121.970310000"><ele>165.2</ele><time>2026-08-29T00:00:00Z</time></trkpt>
<trkpt lat="37.803593000" lon="-121.970220000"><ele>165.9</ele><time>2026-08-29T00:00:00Z</time></trkpt>
<trkpt lat="37.803535000" lon="-121.970140000"><ele>166.5</ele><time>2026-08-29T00:00:00Z</time></trkpt>
<trkpt lat="37.803490000" lon="-121.970050000"><ele>167.1</ele><time>2026-08-29T00:00:00Z</time></trkpt>
<trkpt lat="37.803450000" lon="-121.969955000"><ele>167.5</ele><time>2026-08-29T00:00:00Z</time></trkpt>
<trkpt lat="37.803383000" lon="-121.969894000"><ele>168.0</ele><time>2026-08-29T00:00:00Z</time></trkpt>
<trkpt lat="37.803290000" lon="-121.969900000"><ele>168.4</ele><time>2026-08-29T00:00:00Z</time></trkpt>
<trkpt lat="37.803210000" lon="-121.969950000"><ele>168.7</ele><time>2026-08-29T00:00:00Z</time></trkpt>
<trkpt lat="37.803123000" lon="-121.969940000"><ele>169.1</ele><time>2026-08-29T00:00:00Z</time></trkpt>
<trkpt lat="37.803185000" lon="-121.969860000"><ele>169.4</ele><time>2026-08-29T00:00:00Z</time></trkpt>
<trkpt lat="37.803270000" lon="-121.969810000"><ele>169.8</ele><time>2026-08-29T00:00:00Z</time></trkpt>
<trkpt lat="37.803320000" lon="-121.969730000"><ele>170.3</ele><time>2026-08-29T00:00:00Z</time></trkpt>
<trkpt lat="37.803314000" lon="-121.969620000"><ele>170.8</ele><time>2026-08-29T00:00:00Z</time></trkpt>
<trkpt lat="37.803303000" lon="-121.969510000"><ele>171.5</ele><time>2026-08-29T00:00:00Z</time></trkpt>
<trkpt lat="37.803307000" lon="-121.969400000"><ele>172.2</ele><time>2026-08-29T00:00:00Z</time></trkpt>
<trkpt lat="37.803318000" lon="-121.969284000"><ele>173.0</ele><time>2026-08-29T00:00:00Z</time></trkpt>
<trkpt lat="37.803337000" lon="-121.969170000"><ele>173.9</ele><time>2026-08-29T00:00:00Z</time></trkpt>
<trkpt lat="37.803356000" lon="-121.969060000"><ele>174.7</ele><time>2026-08-29T00:00:00Z</time></trkpt>
<trkpt lat="37.803370000" lon="-121.968950000"><ele>175.4</ele><time>2026-08-29T00:00:00Z</time></trkpt>
<trkpt lat="37.803402000" lon="-121.968840000"><ele>175.8</ele><time>2026-08-29T00:00:00Z</time></trkpt>
<trkpt lat="37.803450000" lon="-121.968750000"><ele>176.2</ele><time>2026-08-29T00:00:00Z</time></trkpt>
<trkpt lat="37.803474000" lon="-121.968660000"><ele>176.3</ele><time>2026-08-29T00:00:00Z</time></trkpt>
<trkpt lat="37.803455000" lon="-121.968765000"><ele>176.2</ele><time>2026-08-29T00:00:00Z</time></trkpt>
<trkpt lat="37.803432000" lon="-121.968864000"><ele>175.9</ele><time>2026-08-29T00:00:00Z</time></trkpt>
<trkpt lat="37.803417000" lon="-121.968970000"><ele>175.5</ele><time>2026-08-29T00:00:00Z</time></trkpt>
<trkpt lat="37.803394000" lon="-121.969080000"><ele>174.8</ele><time>2026-08-29T00:00:00Z</time></trkpt>
<trkpt lat="37.803380000" lon="-121.969180000"><ele>174.0</ele><time>2026-08-29T00:00:00Z</time></trkpt>
<trkpt lat="37.803368000" lon="-121.969290000"><ele>173.1</ele><time>2026-08-29T00:00:00Z</time></trkpt>
<trkpt lat="37.803360000" lon="-121.969406000"><ele>172.2</ele><time>2026-08-29T00:00:00Z</time></trkpt>
<trkpt lat="37.803387000" lon="-121.969505000"><ele>171.4</ele><time>2026-08-29T00:00:00Z</time></trkpt>
<trkpt lat="37.803394000" lon="-121.969610000"><ele>170.5</ele><time>2026-08-29T00:00:00Z</time></trkpt>
<trkpt lat="37.803410000" lon="-121.969720000"><ele>169.7</ele><time>2026-08-29T00:00:00Z</time></trkpt>
<trkpt lat="37.803444000" lon="-121.969826000"><ele>168.9</ele><time>2026-08-29T00:00:00Z</time></trkpt>
<trkpt lat="37.803482000" lon="-121.969925000"><ele>168.1</ele><time>2026-08-29T00:00:00Z</time></trkpt>
<trkpt lat="37.803524000" lon="-121.970024000"><ele>167.3</ele><time>2026-08-29T00:00:00Z</time></trkpt>
<trkpt lat="37.803574000" lon="-121.970110000"><ele>166.5</ele><time>2026-08-29T00:00:00Z</time></trkpt>
<trkpt lat="37.803640000" lon="-121.970170000"><ele>165.9</ele><time>2026-08-29T00:00:00Z</time></trkpt>
<trkpt lat="37.803696000" lon="-121.970260000"><ele>165.4</ele><time>2026-08-29T00:00:00Z</time></trkpt>
<trkpt lat="37.803770000" lon="-121.970340000"><ele>164.9</ele><time>2026-08-29T00:00:00Z</time></trkpt>
<trkpt lat="37.803844000" lon="-121.970406000"><ele>164.5</ele><time>2026-08-29T00:00:00Z</time></trkpt>
<trkpt lat="37.803920000" lon="-121.970440000"><ele>164.3</ele><time>2026-08-29T00:00:00Z</time></trkpt>
<trkpt lat="37.803993000" lon="-121.970380000"><ele>164.3</ele><time>2026-08-29T00:00:00Z</time></trkpt>
<trkpt lat="37.804040000" lon="-121.970276000"><ele>164.5</ele><time>2026-08-29T00:00:00Z</time></trkpt>
<trkpt lat="37.804085000" lon="-121.970184000"><ele>164.9</ele><time>2026-08-29T00:00:00Z</time></trkpt>
<trkpt lat="37.804123000" lon="-121.970080000"><ele>165.5</ele><time>2026-08-29T00:00:00Z</time></trkpt>
<trkpt lat="37.804184000" lon="-121.969990000"><ele>166.4</ele><time>2026-08-29T00:00:00Z</time></trkpt>
<trkpt lat="37.804240000" lon="-121.969900000"><ele>167.4</ele><time>2026-08-29T00:00:00Z</time></trkpt>
<trkpt lat="37.804287000" lon="-121.969820000"><ele>168.5</ele><time>2026-08-29T00:00:00Z</time></trkpt>
<trkpt lat="37.804333000" lon="-121.969720000"><ele>169.7</ele><time>2026-08-29T00:00:00Z</time></trkpt>
<trkpt lat="37.804375000" lon="-121.969610000"><ele>171.1</ele><time>2026-08-29T00:00:00Z</time></trkpt>
<trkpt lat="37.804417000" lon="-121.969510000"><ele>172.5</ele><time>2026-08-29T00:00:00Z</time></trkpt>
<trkpt lat="37.804447000" lon="-121.969400000"><ele>174.1</ele><time>2026-08-29T00:00:00Z</time></trkpt>
<trkpt lat="37.804470000" lon="-121.969284000"><ele>175.5</ele><time>2026-08-29T00:00:00Z</time></trkpt>
<trkpt lat="37.804512000" lon="-121.969185000"><ele>176.8</ele><time>2026-08-29T00:00:00Z</time></trkpt>
<trkpt lat="37.804540000" lon="-121.969080000"><ele>178.0</ele><time>2026-08-29T00:00:00Z</time></trkpt>
<trkpt lat="37.804573000" lon="-121.968980000"><ele>179.2</ele><time>2026-08-29T00:00:00Z</time></trkpt>
<trkpt lat="37.804596000" lon="-121.968880000"><ele>180.2</ele><time>2026-08-29T00:00:00Z</time></trkpt>
<trkpt lat="37.804630000" lon="-121.968780000"><ele>181.0</ele><time>2026-08-29T00:00:00Z</time></trkpt>
<trkpt lat="37.804665000" lon="-121.968680000"><ele>181.6</ele><time>2026-08-29T00:00:00Z</time></trkpt>
<trkpt lat="37.804690000" lon="-121.968575000"><ele>182.1</ele><time>2026-08-29T00:00:00Z</time></trkpt>
<trkpt lat="37.804695000" lon="-121.968460000"><ele>182.2</ele><time>2026-08-29T00:00:00Z</time></trkpt>
<trkpt lat="37.804720000" lon="-121.968570000"><ele>182.1</ele><time>2026-08-29T00:00:00Z</time></trkpt>
<trkpt lat="37.804695000" lon="-121.968670000"><ele>181.6</ele><time>2026-08-29T00:00:00Z</time></trkpt>
<trkpt lat="37.804657000" lon="-121.968780000"><ele>181.1</ele><time>2026-08-29T00:00:00Z</time></trkpt>
<trkpt lat="37.804646000" lon="-121.968890000"><ele>180.3</ele><time>2026-08-29T00:00:00Z</time></trkpt>
<trkpt lat="37.804623000" lon="-121.968994000"><ele>179.3</ele><time>2026-08-29T00:00:00Z</time></trkpt>
<trkpt lat="37.804580000" lon="-121.969086000"><ele>178.1</ele><time>2026-08-29T00:00:00Z</time></trkpt>
<trkpt lat="37.804543000" lon="-121.969200000"><ele>176.9</ele><time>2026-08-29T00:00:00Z</time></trkpt>
<trkpt lat="37.804510000" lon="-121.969290000"><ele>175.5</ele><time>2026-08-29T00:00:00Z</time></trkpt>
<trkpt lat="37.804474000" lon="-121.969406000"><ele>174.2</ele><time>2026-08-29T00:00:00Z</time></trkpt>
<trkpt lat="37.804440000" lon="-121.969510000"><ele>172.6</ele><time>2026-08-29T00:00:00Z</time></trkpt>
<trkpt lat="37.804405000" lon="-121.969630000"><ele>171.2</ele><time>2026-08-29T00:00:00Z</time></trkpt>
<trkpt lat="37.804363000" lon="-121.969730000"><ele>169.7</ele><time>2026-08-29T00:00:00Z</time></trkpt>
<trkpt lat="37.804325000" lon="-121.969830000"><ele>168.4</ele><time>2026-08-29T00:00:00Z</time></trkpt>
<trkpt lat="37.804270000" lon="-121.969925000"><ele>167.1</ele><time>2026-08-29T00:00:00Z</time></trkpt>
<trkpt lat="37.804222000" lon="-121.970024000"><ele>165.9</ele><time>2026-08-29T00:00:00Z</time></trkpt>
<trkpt lat="37.804176000" lon="-121.970120000"><ele>164.8</ele><time>2026-08-29T00:00:00Z</time></trkpt>
<trkpt lat="37.804134000" lon="-121.970215000"><ele>163.8</ele><time>2026-08-29T00:00:00Z</time></trkpt>
<trkpt lat="37.804092000" lon="-121.970314000"><ele>162.8</ele><time>2026-08-29T00:00:00Z</time></trkpt>
<trkpt lat="37.804090000" lon="-121.970420000"><ele>161.9</ele><time>2026-08-29T00:00:00Z</time></trkpt>
<trkpt lat="37.804127000" lon="-121.970520000"><ele>161.1</ele><time>2026-08-29T00:00:00Z</time></trkpt>
<trkpt lat="37.804207000" lon="-121.970566000"><ele>160.5</ele><time>2026-08-29T00:00:00Z</time></trkpt>
<trkpt lat="37.804283000" lon="-121.970620000"><ele>159.9</ele><time>2026-08-29T00:00:00Z</time></trkpt>
<trkpt lat="37.804350000" lon="-121.970695000"><ele>159.5</ele><time>2026-08-29T00:00:00Z</time></trkpt>
<trkpt lat="37.804413000" lon="-121.970780000"><ele>159.1</ele><time>2026-08-29T00:00:00Z</time></trkpt>
<trkpt lat="37.804493000" lon="-121.970795000"><ele>158.7</ele><time>2026-08-29T00:00:00Z</time></trkpt>
<trkpt lat="37.804523000" lon="-121.970890000"><ele>158.4</ele><time>2026-08-29T00:00:00Z</time></trkpt>
<trkpt lat="37.804565000" lon="-121.970980000"><ele>158.1</ele><time>2026-08-29T00:00:00Z</time></trkpt>
<trkpt lat="37.804623000" lon="-121.971070000"><ele>157.7</ele><time>2026-08-29T00:00:00Z</time></trkpt>
<trkpt lat="37.804630000" lon="-121.971176000"><ele>157.4</ele><time>2026-08-29T00:00:00Z</time></trkpt>
<trkpt lat="37.804558000" lon="-121.971250000"><ele>157.0</ele><time>2026-08-29T00:00:00Z</time></trkpt>
<trkpt lat="37.804490000" lon="-121.971320000"><ele>156.5</ele><time>2026-08-29T00:00:00Z</time></trkpt>
<trkpt lat="37.804420000" lon="-121.971390000"><ele>156.0</ele><time>2026-08-29T00:00:00Z</time></trkpt>
<trkpt lat="37.804380000" lon="-121.971480000"><ele>155.4</ele><time>2026-08-29T00:00:00Z</time></trkpt>
<trkpt lat="37.804300000" lon="-121.971535000"><ele>154.6</ele><time>2026-08-29T00:00:00Z</time></trkpt>
<trkpt lat="37.804230000" lon="-121.971600000"><ele>153.8</ele><time>2026-08-29T00:00:00Z</time></trkpt>
<trkpt lat="37.804157000" lon="-121.971660000"><ele>152.9</ele><time>2026-08-29T00:00:00Z</time></trkpt>
<trkpt lat="37.804080000" lon="-121.971730000"><ele>152.1</ele><time>2026-08-29T00:00:00Z</time></trkpt>
<trkpt lat="37.804016000" lon="-121.971800000"><ele>151.2</ele><time>2026-08-29T00:00:00Z</time></trkpt>
<trkpt lat="37.803950000" lon="-121.971870000"><ele>150.3</ele><time>2026-08-29T00:00:00Z</time></trkpt>
<trkpt lat="37.803886000" lon="-121.971940000"><ele>149.5</ele><time>2026-08-29T00:00:00Z</time></trkpt>
<trkpt lat="37.803833000" lon="-121.972015000"><ele>148.6</ele><time>2026-08-29T00:00:00Z</time></trkpt>
<trkpt lat="37.803772000" lon="-121.972090000"><ele>147.9</ele><time>2026-08-29T00:00:00Z</time></trkpt>
<trkpt lat="37.803703000" lon="-121.972160000"><ele>147.3</ele><time>2026-08-29T00:00:00Z</time></trkpt>
<trkpt lat="37.803630000" lon="-121.972210000"><ele>146.7</ele><time>2026-08-29T00:00:00Z</time></trkpt>
<trkpt lat="37.803570000" lon="-121.972280000"><ele>146.4</ele><time>2026-08-29T00:00:00Z</time></trkpt>
<trkpt lat="37.803528000" lon="-121.972374000"><ele>146.1</ele><time>2026-08-29T00:00:00Z</time></trkpt>
<trkpt lat="37.803467000" lon="-121.972466000"><ele>145.9</ele><time>2026-08-29T00:00:00Z</time></trkpt>
<trkpt lat="37.803420000" lon="-121.972560000"><ele>145.7</ele><time>2026-08-29T00:00:00Z</time></trkpt>
<trkpt lat="37.803474000" lon="-121.972650000"><ele>145.6</ele><time>2026-08-29T00:00:00Z</time></trkpt>
<trkpt lat="37.803550000" lon="-121.972710000"><ele>145.7</ele><time>2026-08-29T00:00:00Z</time></trkpt>
<trkpt lat="37.803600000" lon="-121.972800000"><ele>145.9</ele><time>2026-08-29T00:00:00Z</time></trkpt>
<trkpt lat="37.803654000" lon="-121.972885000"><ele>146.3</ele><time>2026-08-29T00:00:00Z</time></trkpt>
<trkpt lat="37.803696000" lon="-121.972980000"><ele>146.6</ele><time>2026-08-29T00:00:00Z</time></trkpt>
<trkpt lat="37.803770000" lon="-121.973045000"><ele>146.9</ele><time>2026-08-29T00:00:00Z</time></trkpt>
<trkpt lat="37.803850000" lon="-121.973000000"><ele>147.1</ele><time>2026-08-29T00:00:00Z</time></trkpt>
<trkpt lat="37.803930000" lon="-121.972940000"><ele>147.1</ele><time>2026-08-29T00:00:00Z</time></trkpt>
<trkpt lat="37.804010000" lon="-121.972880000"><ele>147.1</ele><time>2026-08-29T00:00:00Z</time></trkpt>
<trkpt lat="37.804000000" lon="-121.972984000"><ele>147.0</ele><time>2026-08-29T00:00:00Z</time></trkpt>
<trkpt lat="37.803925000" lon="-121.973045000"><ele>146.8</ele><time>2026-08-29T00:00:00Z</time></trkpt>
<trkpt lat="37.803850000" lon="-121.973090000"><ele>146.5</ele><time>2026-08-29T00:00:00Z</time></trkpt>
<trkpt lat="37.803780000" lon="-121.973150000"><ele>146.2</ele><time>2026-08-29T00:00:00Z</time></trkpt>
<trkpt lat="37.803776000" lon="-121.973260000"><ele>145.6</ele><time>2026-08-29T00:00:00Z</time></trkpt>
<trkpt lat="37.803806000" lon="-121.973366000"><ele>144.9</ele><time>2026-08-29T00:00:00Z</time></trkpt>
<trkpt lat="37.803818000" lon="-121.973490000"><ele>144.1</ele><time>2026-08-29T00:00:00Z</time></trkpt>
<trkpt lat="37.803825000" lon="-121.973595000"><ele>143.4</ele><time>2026-08-29T00:00:00Z</time></trkpt>
<trkpt lat="37.803825000" lon="-121.973700000"><ele>142.7</ele><time>2026-08-29T00:00:00Z</time></trkpt>
<trkpt lat="37.803820000" lon="-121.973810000"><ele>142.4</ele><time>2026-08-29T00:00:00Z</time></trkpt>
<trkpt lat="37.803818000" lon="-121.973930000"><ele>142.0</ele><time>2026-08-29T00:00:00Z</time></trkpt>
<trkpt lat="37.803830000" lon="-121.974045000"><ele>141.6</ele><time>2026-08-29T00:00:00Z</time></trkpt>
<trkpt lat="37.803910000" lon="-121.974075000"><ele>141.3</ele><time>2026-08-29T00:00:00Z</time></trkpt>
<trkpt lat="37.803960000" lon="-121.974070000"><ele>141.0</ele><time>2026-08-29T00:00:00Z</time></trkpt>
</trkseg>
</trk>
</gpx>
