<?xml version="1.0" encoding="UTF-8"?>
<gpx
  version="1.1"
  creator="Runkeeper - http://www.runkeeper.com"
  xmlns:xsi="http://www.w3.org/2001/XMLSchema-instance"
  xmlns="http://www.topografix.com/GPX/1/1"
  xsi:schemaLocation="http://www.topografix.com/GPX/1/1 http://www.topografix.com/GPX/1/1/gpx.xsd"
  xmlns:gpxtpx="http://www.garmin.com/xmlschemas/TrackPointExtension/v1">
<trk>
  <name><![CDATA[Walking 8/5/26]]></name>
  <time>2026-08-05T00:00:00Z</time>
<trkseg>
<trkpt lat="37.835224000" lon="-121.989070000"><ele>139.0</ele><time>2026-08-05T00:00:00Z</time></trkpt>
<trkpt lat="37.835194000" lon="-121.988960000"><ele>138.7</ele><time>2026-08-05T00:00:00Z</time></trkpt>
<trkpt lat="37.835200000" lon="-121.988846000"><ele>138.5</ele><time>2026-08-05T00:00:00Z</time></trkpt>
<trkpt lat="37.835240000" lon="-121.988754000"><ele>138.4</ele><time>2026-08-05T00:00:00Z</time></trkpt>
<trkpt lat="37.835280000" lon="-121.988650000"><ele>138.3</ele><time>2026-08-05T00:00:00Z</time></trkpt>
<trkpt lat="37.835297000" lon="-121.988540000"><ele>138.2</ele><time>2026-08-05T00:00:00Z</time></trkpt>
<trkpt lat="37.835220000" lon="-121.988480000"><ele>137.7</ele><time>2026-08-05T00:00:00Z</time></trkpt>
<trkpt lat="37.835140000" lon="-121.988440000"><ele>137.4</ele><time>2026-08-05T00:00:00Z</time></trkpt>
<trkpt lat="37.835052000" lon="-121.988430000"><ele>137.2</ele><time>2026-08-05T00:00:00Z</time></trkpt>
<trkpt lat="37.834976000" lon="-121.988380000"><ele>137.0</ele><time>2026-08-05T00:00:00Z</time></trkpt>
<trkpt lat="37.834890000" lon="-121.988350000"><ele>136.9</ele><time>2026-08-05T00:00:00Z</time></trkpt>
<trkpt lat="37.834805000" lon="-121.988304000"><ele>136.8</ele><time>2026-08-05T00:00:00Z</time></trkpt>
<trkpt lat="37.834730000" lon="-121.988266000"><ele>136.8</ele><time>2026-08-05T00:00:00Z</time></trkpt>
<trkpt lat="37.834644000" lon="-121.988230000"><ele>136.8</ele><time>2026-08-05T00:00:00Z</time></trkpt>
<trkpt lat="37.834564000" lon="-121.988174000"><ele>136.7</ele><time>2026-08-05T00:00:00Z</time></trkpt>
<trkpt lat="37.834488000" lon="-121.988130000"><ele>136.7</ele><time>2026-08-05T00:00:00Z</time></trkpt>
<trkpt lat="37.834410000" lon="-121.988170000"><ele>136.8</ele><time>2026-08-05T00:00:00Z</time></trkpt>
<trkpt lat="37.834377000" lon="-121.988270000"><ele>136.9</ele><time>2026-08-05T00:00:00Z</time></trkpt>
<trkpt lat="37.834354000" lon="-121.988380000"><ele>137.1</ele><time>2026-08-05T00:00:00Z</time></trkpt>
<trkpt lat="37.834320000" lon="-121.988490000"><ele>137.3</ele><time>2026-08-05T00:00:00Z</time></trkpt>
<trkpt lat="37.834286000" lon="-121.988590000"><ele>137.6</ele><time>2026-08-05T00:00:00Z</time></trkpt>
<trkpt lat="37.834250000" lon="-121.988690000"><ele>138.0</ele><time>2026-08-05T00:00:00Z</time></trkpt>
<trkpt lat="37.834217000" lon="-121.988810000"><ele>138.4</ele><time>2026-08-05T00:00:00Z</time></trkpt>
<trkpt lat="37.834183000" lon="-121.988914000"><ele>138.6</ele><time>2026-08-05T00:00:00Z</time></trkpt>
<trkpt lat="37.834150000" lon="-121.989006000"><ele>138.9</ele><time>2026-08-05T00:00:00Z</time></trkpt>
<trkpt lat="37.834114000" lon="-121.989105000"><ele>139.2</ele><time>2026-08-05T00:00:00Z</time></trkpt>
<trkpt lat="37.834080000" lon="-121.989220000"><ele>139.5</ele><time>2026-08-05T00:00:00Z</time></trkpt>
<trkpt lat="37.834040000" lon="-121.989330000"><ele>139.6</ele><time>2026-08-05T00:00:00Z</time></trkpt>
<trkpt lat="37.834010000" lon="-121.989420000"><ele>139.9</ele><time>2026-08-05T00:00:00Z</time></trkpt>
<trkpt lat="37.833977000" lon="-121.989520000"><ele>140.1</ele><time>2026-08-05T00:00:00Z</time></trkpt>
<trkpt lat="37.833940000" lon="-121.989620000"><ele>140.3</ele><time>2026-08-05T00:00:00Z</time></trkpt>
<trkpt lat="37.833908000" lon="-121.989716000"><ele>140.4</ele><time>2026-08-05T00:00:00Z</time></trkpt>
<trkpt lat="37.833870000" lon="-121.989815000"><ele>140.4</ele><time>2026-08-05T00:00:00Z</time></trkpt>
<trkpt lat="37.833830000" lon="-121.989914000"><ele>140.4</ele><time>2026-08-05T00:00:00Z</time></trkpt>
<trkpt lat="37.833813000" lon="-121.990010000"><ele>140.4</ele><time>2026-08-05T00:00:00Z</time></trkpt>
<trkpt lat="37.833767000" lon="-121.990110000"><ele>140.3</ele><time>2026-08-05T00:00:00Z</time></trkpt>
<trkpt lat="37.833714000" lon="-121.990210000"><ele>140.2</ele><time>2026-08-05T00:00:00Z</time></trkpt>
<trkpt lat="37.833656000" lon="-121.990300000"><ele>140.1</ele><time>2026-08-05T00:00:00Z</time></trkpt>
<trkpt lat="37.833603000" lon="-121.990400000"><ele>139.9</ele><time>2026-08-05T00:00:00Z</time></trkpt>
<trkpt lat="37.833550000" lon="-121.990490000"><ele>139.6</ele><time>2026-08-05T00:00:00Z</time></trkpt>
<trkpt lat="37.833480000" lon="-121.990580000"><ele>139.3</ele><time>2026-08-05T00:00:00Z</time></trkpt>
<trkpt lat="37.833412000" lon="-121.990640000"><ele>138.9</ele><time>2026-08-05T00:00:00Z</time></trkpt>
<trkpt lat="37.833340000" lon="-121.990710000"><ele>138.5</ele><time>2026-08-05T00:00:00Z</time></trkpt>
<trkpt lat="37.833260000" lon="-121.990760000"><ele>138.2</ele><time>2026-08-05T00:00:00Z</time></trkpt>
<trkpt lat="37.833176000" lon="-121.990814000"><ele>137.8</ele><time>2026-08-05T00:00:00Z</time></trkpt>
<trkpt lat="37.833090000" lon="-121.990870000"><ele>137.5</ele><time>2026-08-05T00:00:00Z</time></trkpt>
<trkpt lat="37.833010000" lon="-121.990910000"><ele>137.2</ele><time>2026-08-05T00:00:00Z</time></trkpt>
<trkpt lat="37.832930000" lon="-121.990950000"><ele>136.8</ele><time>2026-08-05T00:00:00Z</time></trkpt>
<trkpt lat="37.832844000" lon="-121.990990000"><ele>136.5</ele><time>2026-08-05T00:00:00Z</time></trkpt>
<trkpt lat="37.832794000" lon="-121.991070000"><ele>136.2</ele><time>2026-08-05T00:00:00Z</time></trkpt>
<trkpt lat="37.832737000" lon="-121.991150000"><ele>135.9</ele><time>2026-08-05T00:00:00Z</time></trkpt>
<trkpt lat="37.832775000" lon="-121.991250000"><ele>135.7</ele><time>2026-08-05T00:00:00Z</time></trkpt>
<trkpt lat="37.832798000" lon="-121.991360000"><ele>135.5</ele><time>2026-08-05T00:00:00Z</time></trkpt>
<trkpt lat="37.832844000" lon="-121.991450000"><ele>135.4</ele><time>2026-08-05T00:00:00Z</time></trkpt>
<trkpt lat="37.832863000" lon="-121.991554000"><ele>135.2</ele><time>2026-08-05T00:00:00Z</time></trkpt>
<trkpt lat="37.832855000" lon="-121.991670000"><ele>134.9</ele><time>2026-08-05T00:00:00Z</time></trkpt>
<trkpt lat="37.832882000" lon="-121.991770000"><ele>134.6</ele><time>2026-08-05T00:00:00Z</time></trkpt>
<trkpt lat="37.832910000" lon="-121.991875000"><ele>134.3</ele><time>2026-08-05T00:00:00Z</time></trkpt>
<trkpt lat="37.832893000" lon="-121.991980000"><ele>134.0</ele><time>2026-08-05T00:00:00Z</time></trkpt>
<trkpt lat="37.832886000" lon="-121.992100000"><ele>133.6</ele><time>2026-08-05T00:00:00Z</time></trkpt>
<trkpt lat="37.832874000" lon="-121.992210000"><ele>133.3</ele><time>2026-08-05T00:00:00Z</time></trkpt>
<trkpt lat="37.832836000" lon="-121.992310000"><ele>132.8</ele><time>2026-08-05T00:00:00Z</time></trkpt>
<trkpt lat="37.832848000" lon="-121.992424000"><ele>132.4</ele><time>2026-08-05T00:00:00Z</time></trkpt>
<trkpt lat="37.832844000" lon="-121.992530000"><ele>131.9</ele><time>2026-08-05T00:00:00Z</time></trkpt>
<trkpt lat="37.832836000" lon="-121.992645000"><ele>131.5</ele><time>2026-08-05T00:00:00Z</time></trkpt>
<trkpt lat="37.832820000" lon="-121.992744000"><ele>131.1</ele><time>2026-08-05T00:00:00Z</time></trkpt>
<trkpt lat="37.832798000" lon="-121.992840000"><ele>130.8</ele><time>2026-08-05T00:00:00Z</time></trkpt>
<trkpt lat="37.832770000" lon="-121.992960000"><ele>130.5</ele><time>2026-08-05T00:00:00Z</time></trkpt>
<trkpt lat="37.832750000" lon="-121.993070000"><ele>130.5</ele><time>2026-08-05T00:00:00Z</time></trkpt>
<trkpt lat="37.832720000" lon="-121.993170000"><ele>130.5</ele><time>2026-08-05T00:00:00Z</time></trkpt>
<trkpt lat="37.832690000" lon="-121.993270000"><ele>130.7</ele><time>2026-08-05T00:00:00Z</time></trkpt>
<trkpt lat="37.832714000" lon="-121.993380000"><ele>131.0</ele><time>2026-08-05T00:00:00Z</time></trkpt>
<trkpt lat="37.832800000" lon="-121.993416000"><ele>131.5</ele><time>2026-08-05T00:00:00Z</time></trkpt>
<trkpt lat="37.832880000" lon="-121.993454000"><ele>132.0</ele><time>2026-08-05T00:00:00Z</time></trkpt>
<trkpt lat="37.832962000" lon="-121.993490000"><ele>132.6</ele><time>2026-08-05T00:00:00Z</time></trkpt>
<trkpt lat="37.833050000" lon="-121.993540000"><ele>133.4</ele><time>2026-08-05T00:00:00Z</time></trkpt>
<trkpt lat="37.833120000" lon="-121.993590000"><ele>134.3</ele><time>2026-08-05T00:00:00Z</time></trkpt>
<trkpt lat="37.833190000" lon="-121.993640000"><ele>135.2</ele><time>2026-08-05T00:00:00Z</time></trkpt>
<trkpt lat="37.833267000" lon="-121.993690000"><ele>136.1</ele><time>2026-08-05T00:00:00Z</time></trkpt>
<trkpt lat="37.833350000" lon="-121.993700000"><ele>136.9</ele><time>2026-08-05T00:00:00Z</time></trkpt>
<trkpt lat="37.833420000" lon="-121.993620000"><ele>137.6</ele><time>2026-08-05T00:00:00Z</time></trkpt>
<trkpt lat="37.833500000" lon="-121.993600000"><ele>138.3</ele><time>2026-08-05T00:00:00Z</time></trkpt>
<trkpt lat="37.833565000" lon="-121.993515000"><ele>138.8</ele><time>2026-08-05T00:00:00Z</time></trkpt>
<trkpt lat="37.833622000" lon="-121.993430000"><ele>139.3</ele><time>2026-08-05T00:00:00Z</time></trkpt>
<trkpt lat="37.833683000" lon="-121.993355000"><ele>139.7</ele><time>2026-08-05T00:00:00Z</time></trkpt>
<trkpt lat="37.833744000" lon="-121.993270000"><ele>140.1</ele><time>2026-08-05T00:00:00Z</time></trkpt>
<trkpt lat="37.833797000" lon="-121.993190000"><ele>140.4</ele><time>2026-08-05T00:00:00Z</time></trkpt>
<trkpt lat="37.833850000" lon="-121.993100000"><ele>140.5</ele><time>2026-08-05T00:00:00Z</time></trkpt>
<trkpt lat="37.833908000" lon="-121.993010000"><ele>140.8</ele><time>2026-08-05T00:00:00Z</time></trkpt>
<trkpt lat="37.833965000" lon="-121.992935000"><ele>141.1</ele><time>2026-08-05T00:00:00Z</time></trkpt>
<trkpt lat="37.834020000" lon="-121.992850000"><ele>141.5</ele><time>2026-08-05T00:00:00Z</time></trkpt>
<trkpt lat="37.834076000" lon="-121.992780000"><ele>141.8</ele><time>2026-08-05T00:00:00Z</time></trkpt>
<trkpt lat="37.834133000" lon="-121.992700000"><ele>142.2</ele><time>2026-08-05T00:00:00Z</time></trkpt>
<trkpt lat="37.834183000" lon="-121.992615000"><ele>142.6</ele><time>2026-08-05T00:00:00Z</time></trkpt>
<trkpt lat="37.834232000" lon="-121.992520000"><ele>143.1</ele><time>2026-08-05T00:00:00Z</time></trkpt>
<trkpt lat="37.834263000" lon="-121.992424000"><ele>143.5</ele><time>2026-08-05T00:00:00Z</time></trkpt>
<trkpt lat="37.834282000" lon="-121.992320000"><ele>143.8</ele><time>2026-08-05T00:00:00Z</time></trkpt>
<trkpt lat="37.834347000" lon="-121.992240000"><ele>144.2</ele><time>2026-08-05T00:00:00Z</time></trkpt>
<trkpt lat="37.834343000" lon="-121.992134000"><ele>144.5</ele><time>2026-08-05T00:00:00Z</time></trkpt>
<trkpt lat="37.834423000" lon="-121.992180000"><ele>144.8</ele><time>2026-08-05T00:00:00Z</time></trkpt>
<trkpt lat="37.834488000" lon="-121.992240000"><ele>145.2</ele><time>2026-08-05T00:00:00Z</time></trkpt>
<trkpt lat="37.834553000" lon="-121.992300000"><ele>145.5</ele><time>2026-08-05T00:00:00Z</time></trkpt>
<trkpt lat="37.834625000" lon="-121.992355000"><ele>146.0</ele><time>2026-08-05T00:00:00Z</time></trkpt>
<trkpt lat="37.834705000" lon="-121.992420000"><ele>146.5</ele><time>2026-08-05T00:00:00Z</time></trkpt>
<trkpt lat="37.834790000" lon="-121.992470000"><ele>147.0</ele><time>2026-08-05T00:00:00Z</time></trkpt>
<trkpt lat="37.834870000" lon="-121.992510000"><ele>147.6</ele><time>2026-08-05T00:00:00Z</time></trkpt>
<trkpt lat="37.834950000" lon="-121.992550000"><ele>148.4</ele><time>2026-08-05T00:00:00Z</time></trkpt>
<trkpt lat="37.835026000" lon="-121.992590000"><ele>149.2</ele><time>2026-08-05T00:00:00Z</time></trkpt>
<trkpt lat="37.835100000" lon="-121.992650000"><ele>150.0</ele><time>2026-08-05T00:00:00Z</time></trkpt>
<trkpt lat="37.835170000" lon="-121.992720000"><ele>150.8</ele><time>2026-08-05T00:00:00Z</time></trkpt>
<trkpt lat="37.835236000" lon="-121.992805000"><ele>151.7</ele><time>2026-08-05T00:00:00Z</time></trkpt>
<trkpt lat="37.835304000" lon="-121.992880000"><ele>152.5</ele><time>2026-08-05T00:00:00Z</time></trkpt>
<trkpt lat="37.835380000" lon="-121.992950000"><ele>153.3</ele><time>2026-08-05T00:00:00Z</time></trkpt>
<trkpt lat="37.835450000" lon="-121.993020000"><ele>154.0</ele><time>2026-08-05T00:00:00Z</time></trkpt>
<trkpt lat="37.835518000" lon="-121.993100000"><ele>154.7</ele><time>2026-08-05T00:00:00Z</time></trkpt>
<trkpt lat="37.835583000" lon="-121.993164000"><ele>155.3</ele><time>2026-08-05T00:00:00Z</time></trkpt>
<trkpt lat="37.835644000" lon="-121.993230000"><ele>155.6</ele><time>2026-08-05T00:00:00Z</time></trkpt>
<trkpt lat="37.835705000" lon="-121.993310000"><ele>155.9</ele><time>2026-08-05T00:00:00Z</time></trkpt>
<trkpt lat="37.835766000" lon="-121.993380000"><ele>156.0</ele><time>2026-08-05T00:00:00Z</time></trkpt>
<trkpt lat="37.835850000" lon="-121.993370000"><ele>156.1</ele><time>2026-08-05T00:00:00Z</time></trkpt>
<trkpt lat="37.835780000" lon="-121.993310000"><ele>156.0</ele><time>2026-08-05T00:00:00Z</time></trkpt>
<trkpt lat="37.835716000" lon="-121.993240000"><ele>155.7</ele><time>2026-08-05T00:00:00Z</time></trkpt>
<trkpt lat="37.835644000" lon="-121.993164000"><ele>155.4</ele><time>2026-08-05T00:00:00Z</time></trkpt>
<trkpt lat="37.835575000" lon="-121.993095000"><ele>154.9</ele><time>2026-08-05T00:00:00Z</time></trkpt>
<trkpt lat="37.835506000" lon="-121.993030000"><ele>154.4</ele><time>2026-08-05T00:00:00Z</time></trkpt>
<trkpt lat="37.835438000" lon="-121.992950000"><ele>153.5</ele><time>2026-08-05T00:00:00Z</time></trkpt>
<trkpt lat="37.835373000" lon="-121.992880000"><ele>152.7</ele><time>2026-08-05T00:00:00Z</time></trkpt>
<trkpt lat="37.835304000" lon="-121.992805000"><ele>151.9</ele><time>2026-08-05T00:00:00Z</time></trkpt>
<trkpt lat="37.835236000" lon="-121.992720000"><ele>151.1</ele><time>2026-08-05T00:00:00Z</time></trkpt>
<trkpt lat="37.835170000" lon="-121.992645000"><ele>150.3</ele><time>2026-08-05T00:00:00Z</time></trkpt>
<trkpt lat="37.835094000" lon="-121.992580000"><ele>149.5</ele><time>2026-08-05T00:00:00Z</time></trkpt>
<trkpt lat="37.835020000" lon="-121.992510000"><ele>148.6</ele><time>2026-08-05T00:00:00Z</time></trkpt>
<trkpt lat="37.834930000" lon="-121.992460000"><ele>147.9</ele><time>2026-08-05T00:00:00Z</time></trkpt>
<trkpt lat="37.834850000" lon="-121.992424000"><ele>147.3</ele><time>2026-08-05T00:00:00Z</time></trkpt>
<trkpt lat="37.834763000" lon="-121.992386000"><ele>146.7</ele><time>2026-08-05T00:00:00Z</time></trkpt>
<trkpt lat="37.834680000" lon="-121.992350000"><ele>146.3</ele><time>2026-08-05T00:00:00Z</time></trkpt>
<trkpt lat="37.834590000" lon="-121.992320000"><ele>146.0</ele><time>2026-08-05T00:00:00Z</time></trkpt>
<trkpt lat="37.834507000" lon="-121.992270000"><ele>146.0</ele><time>2026-08-05T00:00:00Z</time></trkpt>
<trkpt lat="37.834420000" lon="-121.992230000"><ele>146.2</ele><time>2026-08-05T00:00:00Z</time></trkpt>
<trkpt lat="37.834350000" lon="-121.992165000"><ele>146.5</ele><time>2026-08-05T00:00:00Z</time></trkpt>
<trkpt lat="37.834354000" lon="-121.992040000"><ele>146.9</ele><time>2026-08-05T00:00:00Z</time></trkpt>
<trkpt lat="37.834373000" lon="-121.991930000"><ele>147.4</ele><time>2026-08-05T00:00:00Z</time></trkpt>
<trkpt lat="37.834393000" lon="-121.991820000"><ele>147.8</ele><time>2026-08-05T00:00:00Z</time></trkpt>
<trkpt lat="37.834385000" lon="-121.991714000"><ele>148.2</ele><time>2026-08-05T00:00:00Z</time></trkpt>
<trkpt lat="37.834377000" lon="-121.991610000"><ele>148.5</ele><time>2026-08-05T00:00:00Z</time></trkpt>
<trkpt lat="37.834373000" lon="-121.991490000"><ele>148.7</ele><time>2026-08-05T00:00:00Z</time></trkpt>
<trkpt lat="37.834377000" lon="-121.991380000"><ele>148.9</ele><time>2026-08-05T00:00:00Z</time></trkpt>
<trkpt lat="37.834390000" lon="-121.991264000"><ele>149.1</ele><time>2026-08-05T00:00:00Z</time></trkpt>
<trkpt lat="37.834430000" lon="-121.991160000"><ele>149.0</ele><time>2026-08-05T00:00:00Z</time></trkpt>
<trkpt lat="37.834476000" lon="-121.991066000"><ele>148.8</ele><time>2026-08-05T00:00:00Z</time></trkpt>
<trkpt lat="37.834526000" lon="-121.990974000"><ele>148.5</ele><time>2026-08-05T00:00:00Z</time></trkpt>
<trkpt lat="37.834576000" lon="-121.990880000"><ele>148.1</ele><time>2026-08-05T00:00:00Z</time></trkpt>
<trkpt lat="37.834633000" lon="-121.990790000"><ele>147.6</ele><time>2026-08-05T00:00:00Z</time></trkpt>
<trkpt lat="37.834667000" lon="-121.990680000"><ele>147.3</ele><time>2026-08-05T00:00:00Z</time></trkpt>
<trkpt lat="37.834700000" lon="-121.990560000"><ele>147.0</ele><time>2026-08-05T00:00:00Z</time></trkpt>
<trkpt lat="37.834743000" lon="-121.990460000"><ele>146.8</ele><time>2026-08-05T00:00:00Z</time></trkpt>
<trkpt lat="37.834785000" lon="-121.990360000"><ele>146.6</ele><time>2026-08-05T00:00:00Z</time></trkpt>
<trkpt lat="37.834824000" lon="-121.990250000"><ele>146.4</ele><time>2026-08-05T00:00:00Z</time></trkpt>
<trkpt lat="37.834850000" lon="-121.990135000"><ele>146.1</ele><time>2026-08-05T00:00:00Z</time></trkpt>
<trkpt lat="37.834880000" lon="-121.990036000"><ele>145.8</ele><time>2026-08-05T00:00:00Z</time></trkpt>
<trkpt lat="37.834910000" lon="-121.989930000"><ele>145.5</ele><time>2026-08-05T00:00:00Z</time></trkpt>
<trkpt lat="37.834946000" lon="-121.989840000"><ele>145.2</ele><time>2026-08-05T00:00:00Z</time></trkpt>
<trkpt lat="37.834980000" lon="-121.989730000"><ele>144.9</ele><time>2026-08-05T00:00:00Z</time></trkpt>
<trkpt lat="37.835010000" lon="-121.989620000"><ele>144.5</ele><time>2026-08-05T00:00:00Z</time></trkpt>
<trkpt lat="37.835045000" lon="-121.989510000"><ele>144.2</ele><time>2026-08-05T00:00:00Z</time></trkpt>
<trkpt lat="37.835083000" lon="-121.989395000"><ele>144.0</ele><time>2026-08-05T00:00:00Z</time></trkpt>
<trkpt lat="37.835114000" lon="-121.989296000"><ele>143.8</ele><time>2026-08-05T00:00:00Z</time></trkpt>
<trkpt lat="37.835150000" lon="-121.989200000"><ele>143.5</ele><time>2026-08-05T00:00:00Z</time></trkpt>
<trkpt lat="37.835180000" lon="-121.989100000"><ele>143.3</ele><time>2026-08-05T00:00:00Z</time></trkpt>
<trkpt lat="37.835217000" lon="-121.989070000"><ele>143.0</ele><time>2026-08-05T00:00:00Z</time></trkpt>
</trkseg>
</trk>
</gpx>
