<?xml version="1.0" encoding="UTF-8"?>
<gpx
  version="1.1"
  creator="Runkeeper - http://www.runkeeper.com"
  xmlns:xsi="http://www.w3.org/2001/XMLSchema-instance"
  xmlns="http://www.topografix.com/GPX/1/1"
  xsi:schemaLocation="http://www.topografix.com/GPX/1/1 http://www.topografix.com/GPX/1/1/gpx.xsd"
  xmlns:gpxtpx="http://www.garmin.com/xmlschemas/TrackPointExtension/v1">
<trk>
  <name><![CDATA[Walking 8/11/26]]></name>
  <time>2026-08-11T00:00:00Z</time>
<trkseg>
<trkpt lat="37.815754000" lon="-121.968475000"><ele>130.3</ele><time>2026-08-11T00:00:00Z</time></trkpt>
<trkpt lat="37.815773000" lon="-121.968580000"><ele>130.4</ele><time>2026-08-11T00:00:00Z</time></trkpt>
<trkpt lat="37.815730000" lon="-121.968670000"><ele>130.5</ele><time>2026-08-11T00:00:00Z</time></trkpt>
<trkpt lat="37.815670000" lon="-121.968750000"><ele>130.6</ele><time>2026-08-11T00:00:00Z</time></trkpt>
<trkpt lat="37.815598000" lon="-121.968700000"><ele>130.6</ele><time>2026-08-11T00:00:00Z</time></trkpt>
<trkpt lat="37.815520000" lon="-121.968636000"><ele>130.6</ele><time>2026-08-11T00:00:00Z</time></trkpt>
<trkpt lat="37.815450000" lon="-121.968580000"><ele>130.6</ele><time>2026-08-11T00:00:00Z</time></trkpt>
<trkpt lat="37.815384000" lon="-121.968500000"><ele>130.7</ele><time>2026-08-11T00:00:00Z</time></trkpt>
<trkpt lat="37.815327000" lon="-121.968414000"><ele>130.8</ele><time>2026-08-11T00:00:00Z</time></trkpt>
<trkpt lat="37.815334000" lon="-121.968310000"><ele>130.9</ele><time>2026-08-11T00:00:00Z</time></trkpt>
<trkpt lat="37.815310000" lon="-121.968210000"><ele>131.0</ele><time>2026-08-11T00:00:00Z</time></trkpt>
<trkpt lat="37.815323000" lon="-121.968100000"><ele>131.0</ele><time>2026-08-11T00:00:00Z</time></trkpt>
<trkpt lat="37.815342000" lon="-121.968000000"><ele>131.0</ele><time>2026-08-11T00:00:00Z</time></trkpt>
<trkpt lat="37.815388000" lon="-121.967910000"><ele>131.0</ele><time>2026-08-11T00:00:00Z</time></trkpt>
<trkpt lat="37.815414000" lon="-121.967810000"><ele>131.0</ele><time>2026-08-11T00:00:00Z</time></trkpt>
<trkpt lat="37.815434000" lon="-121.967710000"><ele>131.0</ele><time>2026-08-11T00:00:00Z</time></trkpt>
<trkpt lat="37.815420000" lon="-121.967600000"><ele>131.0</ele><time>2026-08-11T00:00:00Z</time></trkpt>
<trkpt lat="37.815410000" lon="-121.967500000"><ele>131.1</ele><time>2026-08-11T00:00:00Z</time></trkpt>
<trkpt lat="37.815420000" lon="-121.967390000"><ele>131.2</ele><time>2026-08-11T00:00:00Z</time></trkpt>
<trkpt lat="37.815410000" lon="-121.967285000"><ele>131.3</ele><time>2026-08-11T00:00:00Z</time></trkpt>
<trkpt lat="37.815380000" lon="-121.967180000"><ele>131.3</ele><time>2026-08-11T00:00:00Z</time></trkpt>
<trkpt lat="37.815334000" lon="-121.967070000"><ele>131.4</ele><time>2026-08-11T00:00:00Z</time></trkpt>
<trkpt lat="37.815292000" lon="-121.966980000"><ele>131.5</ele><time>2026-08-11T00:00:00Z</time></trkpt>
<trkpt lat="37.815250000" lon="-121.966870000"><ele>131.5</ele><time>2026-08-11T00:00:00Z</time></trkpt>
<trkpt lat="37.815216000" lon="-121.966770000"><ele>131.6</ele><time>2026-08-11T00:00:00Z</time></trkpt>
<trkpt lat="37.815186000" lon="-121.966670000"><ele>131.7</ele><time>2026-08-11T00:00:00Z</time></trkpt>
<trkpt lat="37.815186000" lon="-121.966550000"><ele>131.8</ele><time>2026-08-11T00:00:00Z</time></trkpt>
<trkpt lat="37.815174000" lon="-121.966440000"><ele>131.9</ele><time>2026-08-11T00:00:00Z</time></trkpt>
<trkpt lat="37.815132000" lon="-121.966340000"><ele>132.0</ele><time>2026-08-11T00:00:00Z</time></trkpt>
<trkpt lat="37.815067000" lon="-121.966260000"><ele>132.1</ele><time>2026-08-11T00:00:00Z</time></trkpt>
<trkpt lat="37.814987000" lon="-121.966230000"><ele>132.2</ele><time>2026-08-11T00:00:00Z</time></trkpt>
<trkpt lat="37.814907000" lon="-121.966225000"><ele>132.4</ele><time>2026-08-11T00:00:00Z</time></trkpt>
<trkpt lat="37.814823000" lon="-121.966194000"><ele>132.5</ele><time>2026-08-11T00:00:00Z</time></trkpt>
<trkpt lat="37.814743000" lon="-121.966125000"><ele>132.5</ele><time>2026-08-11T00:00:00Z</time></trkpt>
<trkpt lat="37.814686000" lon="-121.966040000"><ele>132.6</ele><time>2026-08-11T00:00:00Z</time></trkpt>
<trkpt lat="37.814644000" lon="-121.965950000"><ele>132.7</ele><time>2026-08-11T00:00:00Z</time></trkpt>
<trkpt lat="37.814617000" lon="-121.965840000"><ele>132.9</ele><time>2026-08-11T00:00:00Z</time></trkpt>
<trkpt lat="37.814600000" lon="-121.965740000"><ele>133.1</ele><time>2026-08-11T00:00:00Z</time></trkpt>
<trkpt lat="37.814575000" lon="-121.965640000"><ele>133.3</ele><time>2026-08-11T00:00:00Z</time></trkpt>
<trkpt lat="37.814537000" lon="-121.965530000"><ele>133.4</ele><time>2026-08-11T00:00:00Z</time></trkpt>
<trkpt lat="37.814514000" lon="-121.965420000"><ele>133.5</ele><time>2026-08-11T00:00:00Z</time></trkpt>
<trkpt lat="37.814495000" lon="-121.965320000"><ele>133.6</ele><time>2026-08-11T00:00:00Z</time></trkpt>
<trkpt lat="37.814470000" lon="-121.965200000"><ele>133.8</ele><time>2026-08-11T00:00:00Z</time></trkpt>
<trkpt lat="37.814457000" lon="-121.965100000"><ele>134.0</ele><time>2026-08-11T00:00:00Z</time></trkpt>
<trkpt lat="37.814460000" lon="-121.965000000"><ele>134.2</ele><time>2026-08-11T00:00:00Z</time></trkpt>
<trkpt lat="37.814470000" lon="-121.964880000"><ele>134.4</ele><time>2026-08-11T00:00:00Z</time></trkpt>
<trkpt lat="37.814465000" lon="-121.964760000"><ele>134.5</ele><time>2026-08-11T00:00:00Z</time></trkpt>
<trkpt lat="37.814445000" lon="-121.964650000"><ele>134.6</ele><time>2026-08-11T00:00:00Z</time></trkpt>
<trkpt lat="37.814430000" lon="-121.964550000"><ele>134.7</ele><time>2026-08-11T00:00:00Z</time></trkpt>
<trkpt lat="37.814407000" lon="-121.964430000"><ele>134.8</ele><time>2026-08-11T00:00:00Z</time></trkpt>
<trkpt lat="37.814392000" lon="-121.964320000"><ele>134.9</ele><time>2026-08-11T00:00:00Z</time></trkpt>
<trkpt lat="37.814440000" lon="-121.964230000"><ele>135.0</ele><time>2026-08-11T00:00:00Z</time></trkpt>
<trkpt lat="37.814526000" lon="-121.964195000"><ele>135.0</ele><time>2026-08-11T00:00:00Z</time></trkpt>
<trkpt lat="37.814613000" lon="-121.964134000"><ele>135.0</ele><time>2026-08-11T00:00:00Z</time></trkpt>
<trkpt lat="37.814697000" lon="-121.964060000"><ele>135.0</ele><time>2026-08-11T00:00:00Z</time></trkpt>
<trkpt lat="37.814724000" lon="-121.963950000"><ele>135.0</ele><time>2026-08-11T00:00:00Z</time></trkpt>
<trkpt lat="37.814700000" lon="-121.963840000"><ele>135.0</ele><time>2026-08-11T00:00:00Z</time></trkpt>
<trkpt lat="37.814670000" lon="-121.963730000"><ele>135.0</ele><time>2026-08-11T00:00:00Z</time></trkpt>
<trkpt lat="37.814640000" lon="-121.963630000"><ele>135.0</ele><time>2026-08-11T00:00:00Z</time></trkpt>
<trkpt lat="37.814620000" lon="-121.963524000"><ele>135.0</ele><time>2026-08-11T00:00:00Z</time></trkpt>
<trkpt lat="37.814620000" lon="-121.963410000"><ele>135.0</ele><time>2026-08-11T00:00:00Z</time></trkpt>
<trkpt lat="37.814570000" lon="-121.963320000"><ele>135.0</ele><time>2026-08-11T00:00:00Z</time></trkpt>
<trkpt lat="37.814495000" lon="-121.963270000"><ele>135.0</ele><time>2026-08-11T00:00:00Z</time></trkpt>
<trkpt lat="37.814430000" lon="-121.963210000"><ele>135.0</ele><time>2026-08-11T00:00:00Z</time></trkpt>
<trkpt lat="37.814377000" lon="-121.963135000"><ele>135.0</ele><time>2026-08-11T00:00:00Z</time></trkpt>
<trkpt lat="37.814354000" lon="-121.963030000"><ele>135.1</ele><time>2026-08-11T00:00:00Z</time></trkpt>
<trkpt lat="37.814335000" lon="-121.962920000"><ele>135.2</ele><time>2026-08-11T00:00:00Z</time></trkpt>
<trkpt lat="37.814323000" lon="-121.962814000"><ele>135.3</ele><time>2026-08-11T00:00:00Z</time></trkpt>
<trkpt lat="37.814290000" lon="-121.962715000"><ele>135.4</ele><time>2026-08-11T00:00:00Z</time></trkpt>
<trkpt lat="37.814236000" lon="-121.962630000"><ele>135.5</ele><time>2026-08-11T00:00:00Z</time></trkpt>
<trkpt lat="37.814194000" lon="-121.962540000"><ele>135.7</ele><time>2026-08-11T00:00:00Z</time></trkpt>
<trkpt lat="37.814140000" lon="-121.962456000"><ele>135.9</ele><time>2026-08-11T00:00:00Z</time></trkpt>
<trkpt lat="37.814106000" lon="-121.962364000"><ele>136.1</ele><time>2026-08-11T00:00:00Z</time></trkpt>
<trkpt lat="37.814106000" lon="-121.962250000"><ele>136.3</ele><time>2026-08-11T00:00:00Z</time></trkpt>
<trkpt lat="37.814160000" lon="-121.962166000"><ele>136.5</ele><time>2026-08-11T00:00:00Z</time></trkpt>
<trkpt lat="37.814102000" lon="-121.962070000"><ele>136.6</ele><time>2026-08-11T00:00:00Z</time></trkpt>
<trkpt lat="37.814050000" lon="-121.961975000"><ele>136.7</ele><time>2026-08-11T00:00:00Z</time></trkpt>
<trkpt lat="37.814007000" lon="-121.961890000"><ele>136.8</ele><time>2026-08-11T00:00:00Z</time></trkpt>
<trkpt lat="37.813957000" lon="-121.961800000"><ele>136.9</ele><time>2026-08-11T00:00:00Z</time></trkpt>
<trkpt lat="37.813904000" lon="-121.961716000"><ele>137.0</ele><time>2026-08-11T00:00:00Z</time></trkpt>
<trkpt lat="37.813840000" lon="-121.961650000"><ele>137.0</ele><time>2026-08-11T00:00:00Z</time></trkpt>
<trkpt lat="37.813793000" lon="-121.961555000"><ele>137.0</ele><time>2026-08-11T00:00:00Z</time></trkpt>
<trkpt lat="37.813866000" lon="-121.961600000"><ele>137.0</ele><time>2026-08-11T00:00:00Z</time></trkpt>
<trkpt lat="37.813920000" lon="-121.961685000"><ele>137.0</ele><time>2026-08-11T00:00:00Z</time></trkpt>
<trkpt lat="37.813972000" lon="-121.961780000"><ele>137.0</ele><time>2026-08-11T00:00:00Z</time></trkpt>
<trkpt lat="37.814010000" lon="-121.961890000"><ele>137.0</ele><time>2026-08-11T00:00:00Z</time></trkpt>
<trkpt lat="37.814064000" lon="-121.961990000"><ele>136.9</ele><time>2026-08-11T00:00:00Z</time></trkpt>
<trkpt lat="37.814114000" lon="-121.962090000"><ele>136.8</ele><time>2026-08-11T00:00:00Z</time></trkpt>
<trkpt lat="37.814175000" lon="-121.962166000"><ele>136.7</ele><time>2026-08-11T00:00:00Z</time></trkpt>
<trkpt lat="37.814240000" lon="-121.962250000"><ele>136.6</ele><time>2026-08-11T00:00:00Z</time></trkpt>
<trkpt lat="37.814297000" lon="-121.962330000"><ele>136.5</ele><time>2026-08-11T00:00:00Z</time></trkpt>
<trkpt lat="37.814346000" lon="-121.962430000"><ele>136.5</ele><time>2026-08-11T00:00:00Z</time></trkpt>
<trkpt lat="37.814407000" lon="-121.962524000"><ele>136.4</ele><time>2026-08-11T00:00:00Z</time></trkpt>
<trkpt lat="37.814460000" lon="-121.962620000"><ele>136.3</ele><time>2026-08-11T00:00:00Z</time></trkpt>
<trkpt lat="37.814518000" lon="-121.962720000"><ele>136.1</ele><time>2026-08-11T00:00:00Z</time></trkpt>
<trkpt lat="37.814580000" lon="-121.962810000"><ele>135.9</ele><time>2026-08-11T00:00:00Z</time></trkpt>
<trkpt lat="37.814632000" lon="-121.962890000"><ele>135.7</ele><time>2026-08-11T00:00:00Z</time></trkpt>
<trkpt lat="37.814690000" lon="-121.962970000"><ele>135.6</ele><time>2026-08-11T00:00:00Z</time></trkpt>
<trkpt lat="37.814750000" lon="-121.963050000"><ele>135.5</ele><time>2026-08-11T00:00:00Z</time></trkpt>
<trkpt lat="37.814800000" lon="-121.963150000"><ele>135.5</ele><time>2026-08-11T00:00:00Z</time></trkpt>
<trkpt lat="37.814846000" lon="-121.963250000"><ele>135.4</ele><time>2026-08-11T00:00:00Z</time></trkpt>
<trkpt lat="37.814907000" lon="-121.963340000"><ele>135.3</ele><time>2026-08-11T00:00:00Z</time></trkpt>
<trkpt lat="37.814970000" lon="-121.963410000"><ele>135.1</ele><time>2026-08-11T00:00:00Z</time></trkpt>
<trkpt lat="37.815020000" lon="-121.963490000"><ele>134.9</ele><time>2026-08-11T00:00:00Z</time></trkpt>
<trkpt lat="37.815052000" lon="-121.963600000"><ele>134.8</ele><time>2026-08-11T00:00:00Z</time></trkpt>
<trkpt lat="37.815100000" lon="-121.963700000"><ele>134.8</ele><time>2026-08-11T00:00:00Z</time></trkpt>
<trkpt lat="37.815155000" lon="-121.963780000"><ele>134.8</ele><time>2026-08-11T00:00:00Z</time></trkpt>
<trkpt lat="37.815220000" lon="-121.963860000"><ele>134.7</ele><time>2026-08-11T00:00:00Z</time></trkpt>
<trkpt lat="37.815254000" lon="-121.963974000"><ele>134.6</ele><time>2026-08-11T00:00:00Z</time></trkpt>
<trkpt lat="37.815290000" lon="-121.964090000"><ele>134.5</ele><time>2026-08-11T00:00:00Z</time></trkpt>
<trkpt lat="37.815334000" lon="-121.964190000"><ele>134.5</ele><time>2026-08-11T00:00:00Z</time></trkpt>
<trkpt lat="37.815376000" lon="-121.964280000"><ele>134.4</ele><time>2026-08-11T00:00:00Z</time></trkpt>
<trkpt lat="37.815422000" lon="-121.964360000"><ele>134.3</ele><time>2026-08-11T00:00:00Z</time></trkpt>
<trkpt lat="37.815464000" lon="-121.964460000"><ele>134.3</ele><time>2026-08-11T00:00:00Z</time></trkpt>
<trkpt lat="37.815490000" lon="-121.964570000"><ele>134.3</ele><time>2026-08-11T00:00:00Z</time></trkpt>
<trkpt lat="37.815530000" lon="-121.964680000"><ele>134.2</ele><time>2026-08-11T00:00:00Z</time></trkpt>
<trkpt lat="37.815556000" lon="-121.964780000"><ele>134.1</ele><time>2026-08-11T00:00:00Z</time></trkpt>
<trkpt lat="37.815586000" lon="-121.964880000"><ele>134.0</ele><time>2026-08-11T00:00:00Z</time></trkpt>
<trkpt lat="37.815620000" lon="-121.964970000"><ele>133.9</ele><time>2026-08-11T00:00:00Z</time></trkpt>
<trkpt lat="37.815655000" lon="-121.965070000"><ele>133.8</ele><time>2026-08-11T00:00:00Z</time></trkpt>
<trkpt lat="37.815678000" lon="-121.965170000"><ele>133.7</ele><time>2026-08-11T00:00:00Z</time></trkpt>
<trkpt lat="37.815697000" lon="-121.965290000"><ele>133.6</ele><time>2026-08-11T00:00:00Z</time></trkpt>
<trkpt lat="37.815716000" lon="-121.965385000"><ele>133.5</ele><time>2026-08-11T00:00:00Z</time></trkpt>
<trkpt lat="37.815750000" lon="-121.965500000"><ele>133.5</ele><time>2026-08-11T00:00:00Z</time></trkpt>
<trkpt lat="37.815784000" lon="-121.965614000"><ele>133.4</ele><time>2026-08-11T00:00:00Z</time></trkpt>
<trkpt lat="37.815823000" lon="-121.965720000"><ele>133.3</ele><time>2026-08-11T00:00:00Z</time></trkpt>
<trkpt lat="37.815853000" lon="-121.965820000"><ele>133.2</ele><time>2026-08-11T00:00:00Z</time></trkpt>
<trkpt lat="37.815884000" lon="-121.965930000"><ele>133.0</ele><time>2026-08-11T00:00:00Z</time></trkpt>
<trkpt lat="37.815890000" lon="-121.966034000"><ele>132.8</ele><time>2026-08-11T00:00:00Z</time></trkpt>
<trkpt lat="37.815890000" lon="-121.966140000"><ele>132.7</ele><time>2026-08-11T00:00:00Z</time></trkpt>
<trkpt lat="37.815907000" lon="-121.966250000"><ele>132.6</ele><time>2026-08-11T00:00:00Z</time></trkpt>
<trkpt lat="37.815933000" lon="-121.966350000"><ele>132.5</ele><time>2026-08-11T00:00:00Z</time></trkpt>
<trkpt lat="37.815970000" lon="-121.966446000"><ele>132.5</ele><time>2026-08-11T00:00:00Z</time></trkpt>
<trkpt lat="37.815987000" lon="-121.966545000"><ele>132.4</ele><time>2026-08-11T00:00:00Z</time></trkpt>
<trkpt lat="37.815987000" lon="-121.966670000"><ele>132.3</ele><time>2026-08-11T00:00:00Z</time></trkpt>
<trkpt lat="37.816000000" lon="-121.966790000"><ele>132.2</ele><time>2026-08-11T00:00:00Z</time></trkpt>
<trkpt lat="37.816020000" lon="-121.966900000"><ele>132.1</ele><time>2026-08-11T00:00:00Z</time></trkpt>
<trkpt lat="37.816030000" lon="-121.967026000"><ele>131.9</ele><time>2026-08-11T00:00:00Z</time></trkpt>
<trkpt lat="37.816040000" lon="-121.967125000"><ele>131.8</ele><time>2026-08-11T00:00:00Z</time></trkpt>
<trkpt lat="37.816020000" lon="-121.967230000"><ele>131.7</ele><time>2026-08-11T00:00:00Z</time></trkpt>
<trkpt lat="37.815994000" lon="-121.967330000"><ele>131.6</ele><time>2026-08-11T00:00:00Z</time></trkpt>
<trkpt lat="37.815998000" lon="-121.967445000"><ele>131.5</ele><time>2026-08-11T00:00:00Z</time></trkpt>
<trkpt lat="37.815998000" lon="-121.967570000"><ele>131.5</ele><time>2026-08-11T00:00:00Z</time></trkpt>
<trkpt lat="37.815994000" lon="-121.967670000"><ele>131.4</ele><time>2026-08-11T00:00:00Z</time></trkpt>
<trkpt lat="37.815983000" lon="-121.967790000"><ele>131.3</ele><time>2026-08-11T00:00:00Z</time></trkpt>
<trkpt lat="37.815975000" lon="-121.967896000"><ele>131.2</ele><time>2026-08-11T00:00:00Z</time></trkpt>
<trkpt lat="37.815956000" lon="-121.968010000"><ele>131.0</ele><time>2026-08-11T00:00:00Z</time></trkpt>
<trkpt lat="37.815937000" lon="-121.968120000"><ele>130.8</ele><time>2026-08-11T00:00:00Z</time></trkpt>
<trkpt lat="37.815918000" lon="-121.968220000"><ele>130.7</ele><time>2026-08-11T00:00:00Z</time></trkpt>
<trkpt lat="37.815890000" lon="-121.968340000"><ele>130.7</ele><time>2026-08-11T00:00:00Z</time></trkpt>
<trkpt lat="37.815860000" lon="-121.968445000"><ele>130.7</ele><time>2026-08-11T00:00:00Z</time></trkpt>
<trkpt lat="37.815810000" lon="-121.968540000"><ele>130.6</ele><time>2026-08-11T00:00:00Z</time></trkpt>
<trkpt lat="37.815746000" lon="-121.968600000"><ele>130.6</ele><time>2026-08-11T00:00:00Z</time></trkpt>
<trkpt lat="37.815796000" lon="-121.968630000"><ele>130.5</ele><time>2026-08-11T00:00:00Z</time></trkpt>
</trkseg>
</trk>
</gpx>
