<?xml version="1.0" encoding="UTF-8"?>
<gpx
  version="1.1"
  creator="Runkeeper - http://www.runkeeper.com"
  xmlns:xsi="http://www.w3.org/2001/XMLSchema-instance"
  xmlns="http://www.topografix.com/GPX/1/1"
  xsi:schemaLocation="http://www.topografix.com/GPX/1/1 http://www.topografix.com/GPX/1/1/gpx.xsd"
  xmlns:gpxtpx="http://www.garmin.com/xmlschemas/TrackPointExtension/v1">
<trk>
  <name><![CDATA[Walking 7/29/26]]></name>
  <time>2026-07-30T00:00:00Z</time>
<trkseg>
<trkpt lat="37.801750000" lon="-121.927320000"><ele>178.0</ele><time>2026-07-30T00:00:00Z</time></trkpt>
<trkpt lat="37.801670000" lon="-121.927360000"><ele>178.0</ele><time>2026-07-30T00:00:00Z</time></trkpt>
<trkpt lat="37.801710000" lon="-121.927470000"><ele>178.0</ele><time>2026-07-30T00:00:00Z</time></trkpt>
<trkpt lat="37.801720000" lon="-121.927570000"><ele>178.0</ele><time>2026-07-30T00:00:00Z</time></trkpt>
<trkpt lat="37.801723000" lon="-121.927690000"><ele>178.0</ele><time>2026-07-30T00:00:00Z</time></trkpt>
<trkpt lat="37.801735000" lon="-121.927810000"><ele>177.9</ele><time>2026-07-30T00:00:00Z</time></trkpt>
<trkpt lat="37.801743000" lon="-121.927925000"><ele>177.8</ele><time>2026-07-30T00:00:00Z</time></trkpt>
<trkpt lat="37.801655000" lon="-121.927960000"><ele>177.7</ele><time>2026-07-30T00:00:00Z</time></trkpt>
<trkpt lat="37.801570000" lon="-121.927980000"><ele>177.6</ele><time>2026-07-30T00:00:00Z</time></trkpt>
<trkpt lat="37.801487000" lon="-121.927986000"><ele>177.5</ele><time>2026-07-30T00:00:00Z</time></trkpt>
<trkpt lat="37.801395000" lon="-121.927960000"><ele>177.5</ele><time>2026-07-30T00:00:00Z</time></trkpt>
<trkpt lat="37.801315000" lon="-121.927960000"><ele>177.4</ele><time>2026-07-30T00:00:00Z</time></trkpt>
<trkpt lat="37.801224000" lon="-121.927970000"><ele>177.3</ele><time>2026-07-30T00:00:00Z</time></trkpt>
<trkpt lat="37.801136000" lon="-121.927960000"><ele>177.2</ele><time>2026-07-30T00:00:00Z</time></trkpt>
<trkpt lat="37.801050000" lon="-121.927956000"><ele>177.1</ele><time>2026-07-30T00:00:00Z</time></trkpt>
<trkpt lat="37.800964000" lon="-121.927940000"><ele>177.0</ele><time>2026-07-30T00:00:00Z</time></trkpt>
<trkpt lat="37.800873000" lon="-121.927930000"><ele>177.0</ele><time>2026-07-30T00:00:00Z</time></trkpt>
<trkpt lat="37.800780000" lon="-121.927925000"><ele>177.0</ele><time>2026-07-30T00:00:00Z</time></trkpt>
<trkpt lat="37.800697000" lon="-121.927900000"><ele>177.0</ele><time>2026-07-30T00:00:00Z</time></trkpt>
<trkpt lat="37.800606000" lon="-121.927900000"><ele>177.0</ele><time>2026-07-30T00:00:00Z</time></trkpt>
<trkpt lat="37.800510000" lon="-121.927895000"><ele>177.0</ele><time>2026-07-30T00:00:00Z</time></trkpt>
<trkpt lat="37.800420000" lon="-121.927890000"><ele>177.0</ele><time>2026-07-30T00:00:00Z</time></trkpt>
<trkpt lat="37.800335000" lon="-121.927895000"><ele>177.0</ele><time>2026-07-30T00:00:00Z</time></trkpt>
<trkpt lat="37.800243000" lon="-121.927900000"><ele>177.0</ele><time>2026-07-30T00:00:00Z</time></trkpt>
<trkpt lat="37.800327000" lon="-121.927860000"><ele>177.0</ele><time>2026-07-30T00:00:00Z</time></trkpt>
<trkpt lat="37.800415000" lon="-121.927864000"><ele>177.0</ele><time>2026-07-30T00:00:00Z</time></trkpt>
<trkpt lat="37.800507000" lon="-121.927870000"><ele>177.0</ele><time>2026-07-30T00:00:00Z</time></trkpt>
<trkpt lat="37.800600000" lon="-121.927870000"><ele>177.0</ele><time>2026-07-30T00:00:00Z</time></trkpt>
<trkpt lat="37.800686000" lon="-121.927880000"><ele>177.0</ele><time>2026-07-30T00:00:00Z</time></trkpt>
<trkpt lat="37.800766000" lon="-121.927900000"><ele>177.0</ele><time>2026-07-30T00:00:00Z</time></trkpt>
<trkpt lat="37.800850000" lon="-121.927910000"><ele>177.0</ele><time>2026-07-30T00:00:00Z</time></trkpt>
<trkpt lat="37.800930000" lon="-121.927910000"><ele>177.0</ele><time>2026-07-30T00:00:00Z</time></trkpt>
<trkpt lat="37.801014000" lon="-121.927920000"><ele>177.1</ele><time>2026-07-30T00:00:00Z</time></trkpt>
<trkpt lat="37.801100000" lon="-121.927930000"><ele>177.2</ele><time>2026-07-30T00:00:00Z</time></trkpt>
<trkpt lat="37.801193000" lon="-121.927925000"><ele>177.3</ele><time>2026-07-30T00:00:00Z</time></trkpt>
<trkpt lat="37.801285000" lon="-121.927930000"><ele>177.4</ele><time>2026-07-30T00:00:00Z</time></trkpt>
<trkpt lat="37.801365000" lon="-121.927940000"><ele>177.5</ele><time>2026-07-30T00:00:00Z</time></trkpt>
<trkpt lat="37.801456000" lon="-121.927956000"><ele>177.5</ele><time>2026-07-30T00:00:00Z</time></trkpt>
<trkpt lat="37.801540000" lon="-121.927970000"><ele>177.6</ele><time>2026-07-30T00:00:00Z</time></trkpt>
<trkpt lat="37.801570000" lon="-121.928080000"><ele>177.7</ele><time>2026-07-30T00:00:00Z</time></trkpt>
<trkpt lat="37.801643000" lon="-121.928140000"><ele>177.8</ele><time>2026-07-30T00:00:00Z</time></trkpt>
<trkpt lat="37.801700000" lon="-121.928215000"><ele>177.9</ele><time>2026-07-30T00:00:00Z</time></trkpt>
<trkpt lat="37.801723000" lon="-121.928320000"><ele>177.9</ele><time>2026-07-30T00:00:00Z</time></trkpt>
<trkpt lat="37.801746000" lon="-121.928430000"><ele>177.8</ele><time>2026-07-30T00:00:00Z</time></trkpt>
<trkpt lat="37.801746000" lon="-121.928535000"><ele>177.7</ele><time>2026-07-30T00:00:00Z</time></trkpt>
<trkpt lat="37.801750000" lon="-121.928650000"><ele>177.6</ele><time>2026-07-30T00:00:00Z</time></trkpt>
<trkpt lat="37.801730000" lon="-121.928764000"><ele>177.5</ele><time>2026-07-30T00:00:00Z</time></trkpt>
<trkpt lat="37.801730000" lon="-121.928870000"><ele>177.5</ele><time>2026-07-30T00:00:00Z</time></trkpt>
<trkpt lat="37.801716000" lon="-121.928980000"><ele>177.4</ele><time>2026-07-30T00:00:00Z</time></trkpt>
<trkpt lat="37.801700000" lon="-121.929090000"><ele>177.3</ele><time>2026-07-30T00:00:00Z</time></trkpt>
<trkpt lat="37.801662000" lon="-121.929184000"><ele>177.2</ele><time>2026-07-30T00:00:00Z</time></trkpt>
<trkpt lat="37.801632000" lon="-121.929276000"><ele>177.1</ele><time>2026-07-30T00:00:00Z</time></trkpt>
<trkpt lat="37.801580000" lon="-121.929375000"><ele>176.9</ele><time>2026-07-30T00:00:00Z</time></trkpt>
<trkpt lat="37.801517000" lon="-121.929460000"><ele>176.8</ele><time>2026-07-30T00:00:00Z</time></trkpt>
<trkpt lat="37.801445000" lon="-121.929535000"><ele>176.8</ele><time>2026-07-30T00:00:00Z</time></trkpt>
<trkpt lat="37.801384000" lon="-121.929620000"><ele>176.8</ele><time>2026-07-30T00:00:00Z</time></trkpt>
<trkpt lat="37.801323000" lon="-121.929700000"><ele>176.8</ele><time>2026-07-30T00:00:00Z</time></trkpt>
<trkpt lat="37.801235000" lon="-121.929710000"><ele>176.8</ele><time>2026-07-30T00:00:00Z</time></trkpt>
<trkpt lat="37.801167000" lon="-121.929640000"><ele>176.8</ele><time>2026-07-30T00:00:00Z</time></trkpt>
<trkpt lat="37.801105000" lon="-121.929560000"><ele>176.8</ele><time>2026-07-30T00:00:00Z</time></trkpt>
<trkpt lat="37.801052000" lon="-121.929474000"><ele>176.7</ele><time>2026-07-30T00:00:00Z</time></trkpt>
<trkpt lat="37.801020000" lon="-121.929360000"><ele>176.6</ele><time>2026-07-30T00:00:00Z</time></trkpt>
<trkpt lat="37.801000000" lon="-121.929250000"><ele>176.5</ele><time>2026-07-30T00:00:00Z</time></trkpt>
<trkpt lat="37.800976000" lon="-121.929140000"><ele>176.5</ele><time>2026-07-30T00:00:00Z</time></trkpt>
<trkpt lat="37.800960000" lon="-121.929016000"><ele>176.6</ele><time>2026-07-30T00:00:00Z</time></trkpt>
<trkpt lat="37.800930000" lon="-121.928910000"><ele>176.5</ele><time>2026-07-30T00:00:00Z</time></trkpt>
<trkpt lat="37.800910000" lon="-121.928800000"><ele>176.5</ele><time>2026-07-30T00:00:00Z</time></trkpt>
<trkpt lat="37.800896000" lon="-121.928680000"><ele>176.4</ele><time>2026-07-30T00:00:00Z</time></trkpt>
<trkpt lat="37.800890000" lon="-121.928566000"><ele>176.3</ele><time>2026-07-30T00:00:00Z</time></trkpt>
<trkpt lat="37.800910000" lon="-121.928444000"><ele>176.3</ele><time>2026-07-30T00:00:00Z</time></trkpt>
<trkpt lat="37.800846000" lon="-121.928510000"><ele>176.3</ele><time>2026-07-30T00:00:00Z</time></trkpt>
<trkpt lat="37.800880000" lon="-121.928630000"><ele>176.4</ele><time>2026-07-30T00:00:00Z</time></trkpt>
<trkpt lat="37.800870000" lon="-121.928734000"><ele>176.5</ele><time>2026-07-30T00:00:00Z</time></trkpt>
<trkpt lat="37.800920000" lon="-121.928830000"><ele>176.5</ele><time>2026-07-30T00:00:00Z</time></trkpt>
<trkpt lat="37.800957000" lon="-121.928925000"><ele>176.6</ele><time>2026-07-30T00:00:00Z</time></trkpt>
<trkpt lat="37.800976000" lon="-121.929040000"><ele>176.6</ele><time>2026-07-30T00:00:00Z</time></trkpt>
<trkpt lat="37.800983000" lon="-121.929146000"><ele>176.6</ele><time>2026-07-30T00:00:00Z</time></trkpt>
<trkpt lat="37.801003000" lon="-121.929250000"><ele>176.6</ele><time>2026-07-30T00:00:00Z</time></trkpt>
<trkpt lat="37.801020000" lon="-121.929360000"><ele>176.6</ele><time>2026-07-30T00:00:00Z</time></trkpt>
<trkpt lat="37.801056000" lon="-121.929460000"><ele>176.6</ele><time>2026-07-30T00:00:00Z</time></trkpt>
<trkpt lat="37.801110000" lon="-121.929550000"><ele>176.5</ele><time>2026-07-30T00:00:00Z</time></trkpt>
<trkpt lat="37.801167000" lon="-121.929634000"><ele>176.5</ele><time>2026-07-30T00:00:00Z</time></trkpt>
<trkpt lat="37.801220000" lon="-121.929726000"><ele>176.4</ele><time>2026-07-30T00:00:00Z</time></trkpt>
<trkpt lat="37.801240000" lon="-121.929840000"><ele>176.3</ele><time>2026-07-30T00:00:00Z</time></trkpt>
<trkpt lat="37.801224000" lon="-121.929950000"><ele>176.2</ele><time>2026-07-30T00:00:00Z</time></trkpt>
<trkpt lat="37.801197000" lon="-121.930050000"><ele>176.1</ele><time>2026-07-30T00:00:00Z</time></trkpt>
<trkpt lat="37.801197000" lon="-121.930170000"><ele>176.1</ele><time>2026-07-30T00:00:00Z</time></trkpt>
<trkpt lat="37.801205000" lon="-121.930275000"><ele>176.2</ele><time>2026-07-30T00:00:00Z</time></trkpt>
<trkpt lat="37.801224000" lon="-121.930390000"><ele>176.3</ele><time>2026-07-30T00:00:00Z</time></trkpt>
<trkpt lat="37.801258000" lon="-121.930500000"><ele>176.4</ele><time>2026-07-30T00:00:00Z</time></trkpt>
<trkpt lat="37.801296000" lon="-121.930595000"><ele>176.4</ele><time>2026-07-30T00:00:00Z</time></trkpt>
<trkpt lat="37.801304000" lon="-121.930700000"><ele>176.4</ele><time>2026-07-30T00:00:00Z</time></trkpt>
<trkpt lat="37.801300000" lon="-121.930820000"><ele>176.4</ele><time>2026-07-30T00:00:00Z</time></trkpt>
<trkpt lat="37.801258000" lon="-121.930916000"><ele>176.4</ele><time>2026-07-30T00:00:00Z</time></trkpt>
<trkpt lat="37.801224000" lon="-121.931030000"><ele>176.4</ele><time>2026-07-30T00:00:00Z</time></trkpt>
<trkpt lat="37.801178000" lon="-121.931120000"><ele>176.4</ele><time>2026-07-30T00:00:00Z</time></trkpt>
<trkpt lat="37.801113000" lon="-121.931200000"><ele>176.5</ele><time>2026-07-30T00:00:00Z</time></trkpt>
<trkpt lat="37.801033000" lon="-121.931250000"><ele>176.5</ele><time>2026-07-30T00:00:00Z</time></trkpt>
<trkpt lat="37.800957000" lon="-121.931290000"><ele>176.4</ele><time>2026-07-30T00:00:00Z</time></trkpt>
<trkpt lat="37.800960000" lon="-121.931404000"><ele>176.3</ele><time>2026-07-30T00:00:00Z</time></trkpt>
<trkpt lat="37.800995000" lon="-121.931510000"><ele>176.2</ele><time>2026-07-30T00:00:00Z</time></trkpt>
<trkpt lat="37.801014000" lon="-121.931620000"><ele>176.2</ele><time>2026-07-30T00:00:00Z</time></trkpt>
<trkpt lat="37.801040000" lon="-121.931720000"><ele>176.1</ele><time>2026-07-30T00:00:00Z</time></trkpt>
<trkpt lat="37.801060000" lon="-121.931820000"><ele>176.0</ele><time>2026-07-30T00:00:00Z</time></trkpt>
<trkpt lat="37.801070000" lon="-121.931920000"><ele>175.8</ele><time>2026-07-30T00:00:00Z</time></trkpt>
<trkpt lat="37.801105000" lon="-121.932020000"><ele>175.6</ele><time>2026-07-30T00:00:00Z</time></trkpt>
<trkpt lat="37.801150000" lon="-121.932106000"><ele>175.5</ele><time>2026-07-30T00:00:00Z</time></trkpt>
<trkpt lat="37.801210000" lon="-121.932190000"><ele>175.1</ele><time>2026-07-30T00:00:00Z</time></trkpt>
<trkpt lat="37.801224000" lon="-121.932300000"><ele>174.7</ele><time>2026-07-30T00:00:00Z</time></trkpt>
<trkpt lat="37.801254000" lon="-121.932400000"><ele>174.5</ele><time>2026-07-30T00:00:00Z</time></trkpt>
<trkpt lat="37.801280000" lon="-121.932510000"><ele>174.4</ele><time>2026-07-30T00:00:00Z</time></trkpt>
<trkpt lat="37.801296000" lon="-121.932630000"><ele>174.3</ele><time>2026-07-30T00:00:00Z</time></trkpt>
<trkpt lat="37.801235000" lon="-121.932710000"><ele>174.2</ele><time>2026-07-30T00:00:00Z</time></trkpt>
<trkpt lat="37.801186000" lon="-121.932790000"><ele>174.3</ele><time>2026-07-30T00:00:00Z</time></trkpt>
<trkpt lat="37.801167000" lon="-121.932686000"><ele>174.4</ele><time>2026-07-30T00:00:00Z</time></trkpt>
<trkpt lat="37.801167000" lon="-121.932570000"><ele>174.5</ele><time>2026-07-30T00:00:00Z</time></trkpt>
<trkpt lat="37.801163000" lon="-121.932465000"><ele>174.7</ele><time>2026-07-30T00:00:00Z</time></trkpt>
<trkpt lat="37.801150000" lon="-121.932365000"><ele>174.9</ele><time>2026-07-30T00:00:00Z</time></trkpt>
<trkpt lat="37.801117000" lon="-121.932270000"><ele>175.2</ele><time>2026-07-30T00:00:00Z</time></trkpt>
<trkpt lat="37.801070000" lon="-121.932170000"><ele>175.5</ele><time>2026-07-30T00:00:00Z</time></trkpt>
<trkpt lat="37.801030000" lon="-121.932076000"><ele>175.6</ele><time>2026-07-30T00:00:00Z</time></trkpt>
<trkpt lat="37.801010000" lon="-121.931970000"><ele>175.8</ele><time>2026-07-30T00:00:00Z</time></trkpt>
<trkpt lat="37.800990000" lon="-121.931870000"><ele>175.9</ele><time>2026-07-30T00:00:00Z</time></trkpt>
<trkpt lat="37.800970000" lon="-121.931755000"><ele>176.0</ele><time>2026-07-30T00:00:00Z</time></trkpt>
<trkpt lat="37.800930000" lon="-121.931650000"><ele>176.0</ele><time>2026-07-30T00:00:00Z</time></trkpt>
<trkpt lat="37.800922000" lon="-121.931530000"><ele>176.0</ele><time>2026-07-30T00:00:00Z</time></trkpt>
<trkpt lat="37.800910000" lon="-121.931430000"><ele>176.1</ele><time>2026-07-30T00:00:00Z</time></trkpt>
<trkpt lat="37.800888000" lon="-121.931320000"><ele>176.2</ele><time>2026-07-30T00:00:00Z</time></trkpt>
<trkpt lat="37.800858000" lon="-121.931210000"><ele>176.3</ele><time>2026-07-30T00:00:00Z</time></trkpt>
<trkpt lat="37.800842000" lon="-121.931110000"><ele>176.3</ele><time>2026-07-30T00:00:00Z</time></trkpt>
<trkpt lat="37.800810000" lon="-121.931000000"><ele>176.3</ele><time>2026-07-30T00:00:00Z</time></trkpt>
<trkpt lat="37.800800000" lon="-121.930885000"><ele>176.3</ele><time>2026-07-30T00:00:00Z</time></trkpt>
<trkpt lat="37.800873000" lon="-121.930820000"><ele>176.3</ele><time>2026-07-30T00:00:00Z</time></trkpt>
<trkpt lat="37.800770000" lon="-121.930810000"><ele>176.3</ele><time>2026-07-30T00:00:00Z</time></trkpt>
<trkpt lat="37.800740000" lon="-121.930700000"><ele>176.3</ele><time>2026-07-30T00:00:00Z</time></trkpt>
<trkpt lat="37.800724000" lon="-121.930590000"><ele>176.3</ele><time>2026-07-30T00:00:00Z</time></trkpt>
<trkpt lat="37.800713000" lon="-121.930490000"><ele>176.3</ele><time>2026-07-30T00:00:00Z</time></trkpt>
<trkpt lat="37.800690000" lon="-121.930380000"><ele>176.3</ele><time>2026-07-30T00:00:00Z</time></trkpt>
<trkpt lat="37.800670000" lon="-121.930275000"><ele>176.3</ele><time>2026-07-30T00:00:00Z</time></trkpt>
<trkpt lat="37.800655000" lon="-121.930150000"><ele>176.3</ele><time>2026-07-30T00:00:00Z</time></trkpt>
<trkpt lat="37.800636000" lon="-121.930040000"><ele>176.4</ele><time>2026-07-30T00:00:00Z</time></trkpt>
<trkpt lat="37.800610000" lon="-121.929930000"><ele>176.5</ele><time>2026-07-30T00:00:00Z</time></trkpt>
<trkpt lat="37.800575000" lon="-121.929825000"><ele>176.5</ele><time>2026-07-30T00:00:00Z</time></trkpt>
<trkpt lat="37.800550000" lon="-121.929720000"><ele>176.6</ele><time>2026-07-30T00:00:00Z</time></trkpt>
<trkpt lat="37.800533000" lon="-121.929600000"><ele>176.7</ele><time>2026-07-30T00:00:00Z</time></trkpt>
<trkpt lat="37.800518000" lon="-121.929500000"><ele>176.8</ele><time>2026-07-30T00:00:00Z</time></trkpt>
<trkpt lat="37.800503000" lon="-121.929390000"><ele>176.9</ele><time>2026-07-30T00:00:00Z</time></trkpt>
<trkpt lat="37.800476000" lon="-121.929280000"><ele>177.0</ele><time>2026-07-30T00:00:00Z</time></trkpt>
<trkpt lat="37.800453000" lon="-121.929180000"><ele>177.0</ele><time>2026-07-30T00:00:00Z</time></trkpt>
<trkpt lat="37.800396000" lon="-121.929100000"><ele>177.0</ele><time>2026-07-30T00:00:00Z</time></trkpt>
<trkpt lat="37.800410000" lon="-121.928990000"><ele>177.0</ele><time>2026-07-30T00:00:00Z</time></trkpt>
<trkpt lat="37.800392000" lon="-121.928890000"><ele>177.0</ele><time>2026-07-30T00:00:00Z</time></trkpt>
<trkpt lat="37.800380000" lon="-121.928780000"><ele>177.0</ele><time>2026-07-30T00:00:00Z</time></trkpt>
<trkpt lat="37.800365000" lon="-121.928670000"><ele>177.0</ele><time>2026-07-30T00:00:00Z</time></trkpt>
<trkpt lat="37.800346000" lon="-121.928560000"><ele>177.0</ele><time>2026-07-30T00:00:00Z</time></trkpt>
<trkpt lat="37.800312000" lon="-121.928444000"><ele>177.0</ele><time>2026-07-30T00:00:00Z</time></trkpt>
<trkpt lat="37.800293000" lon="-121.928340000"><ele>177.0</ele><time>2026-07-30T00:00:00Z</time></trkpt>
<trkpt lat="37.800343000" lon="-121.928410000"><ele>177.0</ele><time>2026-07-30T00:00:00Z</time></trkpt>
<trkpt lat="37.800392000" lon="-121.928510000"><ele>177.0</ele><time>2026-07-30T00:00:00Z</time></trkpt>
<trkpt lat="37.800430000" lon="-121.928604000"><ele>177.0</ele><time>2026-07-30T00:00:00Z</time></trkpt>
<trkpt lat="37.800438000" lon="-121.928720000"><ele>177.0</ele><time>2026-07-30T00:00:00Z</time></trkpt>
<trkpt lat="37.800450000" lon="-121.928825000"><ele>177.0</ele><time>2026-07-30T00:00:00Z</time></trkpt>
<trkpt lat="37.800460000" lon="-121.928930000"><ele>177.0</ele><time>2026-07-30T00:00:00Z</time></trkpt>
<trkpt lat="37.800470000" lon="-121.929050000"><ele>177.0</ele><time>2026-07-30T00:00:00Z</time></trkpt>
<trkpt lat="37.800510000" lon="-121.929140000"><ele>177.0</ele><time>2026-07-30T00:00:00Z</time></trkpt>
<trkpt lat="37.800550000" lon="-121.929245000"><ele>177.0</ele><time>2026-07-30T00:00:00Z</time></trkpt>
<trkpt lat="37.800575000" lon="-121.929344000"><ele>177.0</ele><time>2026-07-30T00:00:00Z</time></trkpt>
<trkpt lat="37.800594000" lon="-121.929440000"><ele>176.9</ele><time>2026-07-30T00:00:00Z</time></trkpt>
<trkpt lat="37.800610000" lon="-121.929560000"><ele>176.8</ele><time>2026-07-30T00:00:00Z</time></trkpt>
<trkpt lat="37.800610000" lon="-121.929680000"><ele>176.7</ele><time>2026-07-30T00:00:00Z</time></trkpt>
<trkpt lat="37.800625000" lon="-121.929790000"><ele>176.7</ele><time>2026-07-30T00:00:00Z</time></trkpt>
<trkpt lat="37.800648000" lon="-121.929886000"><ele>176.7</ele><time>2026-07-30T00:00:00Z</time></trkpt>
<trkpt lat="37.800682000" lon="-121.930000000"><ele>176.7</ele><time>2026-07-30T00:00:00Z</time></trkpt>
<trkpt lat="37.800716000" lon="-121.930100000"><ele>176.7</ele><time>2026-07-30T00:00:00Z</time></trkpt>
<trkpt lat="37.800747000" lon="-121.930200000"><ele>176.7</ele><time>2026-07-30T00:00:00Z</time></trkpt>
<trkpt lat="37.800777000" lon="-121.930305000"><ele>176.7</ele><time>2026-07-30T00:00:00Z</time></trkpt>
<trkpt lat="37.800780000" lon="-121.930410000"><ele>176.7</ele><time>2026-07-30T00:00:00Z</time></trkpt>
<trkpt lat="37.800774000" lon="-121.930530000"><ele>176.6</ele><time>2026-07-30T00:00:00Z</time></trkpt>
<trkpt lat="37.800790000" lon="-121.930630000"><ele>176.6</ele><time>2026-07-30T00:00:00Z</time></trkpt>
<trkpt lat="37.800823000" lon="-121.930730000"><ele>176.6</ele><time>2026-07-30T00:00:00Z</time></trkpt>
<trkpt lat="37.800854000" lon="-121.930840000"><ele>176.6</ele><time>2026-07-30T00:00:00Z</time></trkpt>
<trkpt lat="37.800890000" lon="-121.930950000"><ele>176.5</ele><time>2026-07-30T00:00:00Z</time></trkpt>
<trkpt lat="37.800930000" lon="-121.931050000"><ele>176.5</ele><time>2026-07-30T00:00:00Z</time></trkpt>
<trkpt lat="37.800960000" lon="-121.931160000"><ele>176.5</ele><time>2026-07-30T00:00:00Z</time></trkpt>
<trkpt lat="37.801050000" lon="-121.931206000"><ele>176.5</ele><time>2026-07-30T00:00:00Z</time></trkpt>
<trkpt lat="37.801120000" lon="-121.931170000"><ele>176.5</ele><time>2026-07-30T00:00:00Z</time></trkpt>
<trkpt lat="37.801180000" lon="-121.931076000"><ele>176.5</ele><time>2026-07-30T00:00:00Z</time></trkpt>
<trkpt lat="37.801228000" lon="-121.930990000"><ele>176.5</ele><time>2026-07-30T00:00:00Z</time></trkpt>
<trkpt lat="37.801270000" lon="-121.930890000"><ele>176.6</ele><time>2026-07-30T00:00:00Z</time></trkpt>
<trkpt lat="37.801308000" lon="-121.930790000"><ele>176.7</ele><time>2026-07-30T00:00:00Z</time></trkpt>
<trkpt lat="37.801365000" lon="-121.930710000"><ele>176.8</ele><time>2026-07-30T00:00:00Z</time></trkpt>
<trkpt lat="37.801445000" lon="-121.930690000"><ele>176.9</ele><time>2026-07-30T00:00:00Z</time></trkpt>
<trkpt lat="37.801525000" lon="-121.930650000"><ele>177.0</ele><time>2026-07-30T00:00:00Z</time></trkpt>
<trkpt lat="37.801600000" lon="-121.930620000"><ele>177.0</ele><time>2026-07-30T00:00:00Z</time></trkpt>
<trkpt lat="37.801674000" lon="-121.930565000"><ele>177.0</ele><time>2026-07-30T00:00:00Z</time></trkpt>
<trkpt lat="37.801750000" lon="-121.930500000"><ele>177.0</ele><time>2026-07-30T00:00:00Z</time></trkpt>
<trkpt lat="37.801823000" lon="-121.930420000"><ele>177.1</ele><time>2026-07-30T00:00:00Z</time></trkpt>
<trkpt lat="37.801880000" lon="-121.930340000"><ele>177.2</ele><time>2026-07-30T00:00:00Z</time></trkpt>
<trkpt lat="37.801940000" lon="-121.930270000"><ele>177.2</ele><time>2026-07-30T00:00:00Z</time></trkpt>
<trkpt lat="37.802000000" lon="-121.930200000"><ele>177.2</ele><time>2026-07-30T00:00:00Z</time></trkpt>
<trkpt lat="37.802060000" lon="-121.930110000"><ele>177.3</ele><time>2026-07-30T00:00:00Z</time></trkpt>
<trkpt lat="37.802124000" lon="-121.930020000"><ele>177.4</ele><time>2026-07-30T00:00:00Z</time></trkpt>
<trkpt lat="37.802180000" lon="-121.929924000"><ele>177.5</ele><time>2026-07-30T00:00:00Z</time></trkpt>
<trkpt lat="37.802240000" lon="-121.929850000"><ele>177.7</ele><time>2026-07-30T00:00:00Z</time></trkpt>
<trkpt lat="37.802288000" lon="-121.929750000"><ele>177.9</ele><time>2026-07-30T00:00:00Z</time></trkpt>
<trkpt lat="37.802353000" lon="-121.929660000"><ele>178.1</ele><time>2026-07-30T00:00:00Z</time></trkpt>
<trkpt lat="37.802410000" lon="-121.929570000"><ele>178.3</ele><time>2026-07-30T00:00:00Z</time></trkpt>
<trkpt lat="37.802456000" lon="-121.929474000"><ele>178.4</ele><time>2026-07-30T00:00:00Z</time></trkpt>
<trkpt lat="37.802486000" lon="-121.929360000"><ele>178.5</ele><time>2026-07-30T00:00:00Z</time></trkpt>
<trkpt lat="37.802505000" lon="-121.929245000"><ele>178.6</ele><time>2026-07-30T00:00:00Z</time></trkpt>
<trkpt lat="37.802510000" lon="-121.929130000"><ele>178.7</ele><time>2026-07-30T00:00:00Z</time></trkpt>
<trkpt lat="37.802494000" lon="-121.929016000"><ele>178.7</ele><time>2026-07-30T00:00:00Z</time></trkpt>
<trkpt lat="37.802475000" lon="-121.928900000"><ele>178.7</ele><time>2026-07-30T00:00:00Z</time></trkpt>
<trkpt lat="37.802430000" lon="-121.928795000"><ele>178.6</ele><time>2026-07-30T00:00:00Z</time></trkpt>
<trkpt lat="37.802360000" lon="-121.928710000"><ele>178.5</ele><time>2026-07-30T00:00:00Z</time></trkpt>
<trkpt lat="37.802270000" lon="-121.928670000"><ele>178.5</ele><time>2026-07-30T00:00:00Z</time></trkpt>
<trkpt lat="37.802177000" lon="-121.928650000"><ele>178.4</ele><time>2026-07-30T00:00:00Z</time></trkpt>
<trkpt lat="37.802082000" lon="-121.928650000"><ele>178.3</ele><time>2026-07-30T00:00:00Z</time></trkpt>
<trkpt lat="37.802002000" lon="-121.928640000"><ele>178.2</ele><time>2026-07-30T00:00:00Z</time></trkpt>
<trkpt lat="37.801907000" lon="-121.928635000"><ele>178.1</ele><time>2026-07-30T00:00:00Z</time></trkpt>
<trkpt lat="37.801826000" lon="-121.928620000"><ele>178.0</ele><time>2026-07-30T00:00:00Z</time></trkpt>
<trkpt lat="37.801770000" lon="-121.928530000"><ele>178.0</ele><time>2026-07-30T00:00:00Z</time></trkpt>
<trkpt lat="37.801773000" lon="-121.928410000"><ele>178.0</ele><time>2026-07-30T00:00:00Z</time></trkpt>
<trkpt lat="37.801754000" lon="-121.928300000"><ele>178.0</ele><time>2026-07-30T00:00:00Z</time></trkpt>
<trkpt lat="37.801754000" lon="-121.928190000"><ele>178.0</ele><time>2026-07-30T00:00:00Z</time></trkpt>
<trkpt lat="37.801746000" lon="-121.928080000"><ele>178.0</ele><time>2026-07-30T00:00:00Z</time></trkpt>
<trkpt lat="37.801720000" lon="-121.927960000"><ele>178.0</ele><time>2026-07-30T00:00:00Z</time></trkpt>
<trkpt lat="37.801720000" lon="-121.927850000"><ele>178.0</ele><time>2026-07-30T00:00:00Z</time></trkpt>
<trkpt lat="37.801712000" lon="-121.927734000"><ele>178.0</ele><time>2026-07-30T00:00:00Z</time></trkpt>
<trkpt lat="37.801704000" lon="-121.927630000"><ele>178.1</ele><time>2026-07-30T00:00:00Z</time></trkpt>
<trkpt lat="37.801693000" lon="-121.927510000"><ele>178.2</ele><time>2026-07-30T00:00:00Z</time></trkpt>
<trkpt lat="37.801685000" lon="-121.927400000"><ele>178.3</ele><time>2026-07-30T00:00:00Z</time></trkpt>
<trkpt lat="37.801693000" lon="-121.927290000"><ele>178.4</ele><time>2026-07-30T00:00:00Z</time></trkpt>
<trkpt lat="37.801697000" lon="-121.927180000"><ele>178.5</ele><time>2026-07-30T00:00:00Z</time></trkpt>
<trkpt lat="37.801680000" lon="-121.927060000"><ele>178.5</ele><time>2026-07-30T00:00:00Z</time></trkpt>
<trkpt lat="37.801662000" lon="-121.926960000"><ele>178.6</ele><time>2026-07-30T00:00:00Z</time></trkpt>
<trkpt lat="37.801636000" lon="-121.926850000"><ele>178.7</ele><time>2026-07-30T00:00:00Z</time></trkpt>
<trkpt lat="37.801598000" lon="-121.926760000"><ele>178.8</ele><time>2026-07-30T00:00:00Z</time></trkpt>
<trkpt lat="37.801632000" lon="-121.926650000"><ele>178.9</ele><time>2026-07-30T00:00:00Z</time></trkpt>
<trkpt lat="37.801712000" lon="-121.926610000"><ele>179.0</ele><time>2026-07-30T00:00:00Z</time></trkpt>
<trkpt lat="37.801796000" lon="-121.926580000"><ele>179.0</ele><time>2026-07-30T00:00:00Z</time></trkpt>
<trkpt lat="37.801870000" lon="-121.926650000"><ele>179.0</ele><time>2026-07-30T00:00:00Z</time></trkpt>
<trkpt lat="37.801890000" lon="-121.926760000"><ele>179.0</ele><time>2026-07-30T00:00:00Z</time></trkpt>
<trkpt lat="37.801914000" lon="-121.926860000"><ele>179.0</ele><time>2026-07-30T00:00:00Z</time></trkpt>
<trkpt lat="37.801937000" lon="-121.926956000"><ele>179.0</ele><time>2026-07-30T00:00:00Z</time></trkpt>
<trkpt lat="37.801964000" lon="-121.927060000"><ele>179.0</ele><time>2026-07-30T00:00:00Z</time></trkpt>
<trkpt lat="37.801990000" lon="-121.927170000"><ele>179.0</ele><time>2026-07-30T00:00:00Z</time></trkpt>
<trkpt lat="37.802020000" lon="-121.927270000"><ele>179.0</ele><time>2026-07-30T00:00:00Z</time></trkpt>
<trkpt lat="37.802050000" lon="-121.927376000"><ele>179.0</ele><time>2026-07-30T00:00:00Z</time></trkpt>
<trkpt lat="37.802055000" lon="-121.927490000"><ele>179.1</ele><time>2026-07-30T00:00:00Z</time></trkpt>
<trkpt lat="37.802100000" lon="-121.927580000"><ele>179.2</ele><time>2026-07-30T00:00:00Z</time></trkpt>
<trkpt lat="37.802177000" lon="-121.927610000"><ele>179.3</ele><time>2026-07-30T00:00:00Z</time></trkpt>
<trkpt lat="37.802260000" lon="-121.927620000"><ele>179.4</ele><time>2026-07-30T00:00:00Z</time></trkpt>
<trkpt lat="37.802345000" lon="-121.927620000"><ele>179.5</ele><time>2026-07-30T00:00:00Z</time></trkpt>
<trkpt lat="37.802425000" lon="-121.927640000"><ele>179.5</ele><time>2026-07-30T00:00:00Z</time></trkpt>
<trkpt lat="37.802510000" lon="-121.927635000"><ele>179.6</ele><time>2026-07-30T00:00:00Z</time></trkpt>
<trkpt lat="37.802580000" lon="-121.927570000"><ele>179.7</ele><time>2026-07-30T00:00:00Z</time></trkpt>
<trkpt lat="37.802570000" lon="-121.927450000"><ele>179.8</ele><time>2026-07-30T00:00:00Z</time></trkpt>
<trkpt lat="37.802550000" lon="-121.927340000"><ele>179.9</ele><time>2026-07-30T00:00:00Z</time></trkpt>
<trkpt lat="37.802536000" lon="-121.927230000"><ele>180.0</ele><time>2026-07-30T00:00:00Z</time></trkpt>
<trkpt lat="37.802520000" lon="-121.927124000"><ele>180.0</ele><time>2026-07-30T00:00:00Z</time></trkpt>
<trkpt lat="37.802505000" lon="-121.927020000"><ele>180.1</ele><time>2026-07-30T00:00:00Z</time></trkpt>
<trkpt lat="37.802490000" lon="-121.926900000"><ele>180.2</ele><time>2026-07-30T00:00:00Z</time></trkpt>
<trkpt lat="37.802470000" lon="-121.926790000"><ele>180.3</ele><time>2026-07-30T00:00:00Z</time></trkpt>
<trkpt lat="37.802480000" lon="-121.926674000"><ele>180.4</ele><time>2026-07-30T00:00:00Z</time></trkpt>
<trkpt lat="37.802530000" lon="-121.926580000"><ele>180.5</ele><time>2026-07-30T00:00:00Z</time></trkpt>
<trkpt lat="37.802610000" lon="-121.926544000"><ele>180.6</ele><time>2026-07-30T00:00:00Z</time></trkpt>
<trkpt lat="37.802692000" lon="-121.926506000"><ele>180.8</ele><time>2026-07-30T00:00:00Z</time></trkpt>
<trkpt lat="37.802780000" lon="-121.926476000"><ele>181.0</ele><time>2026-07-30T00:00:00Z</time></trkpt>
<trkpt lat="37.802860000" lon="-121.926430000"><ele>181.3</ele><time>2026-07-30T00:00:00Z</time></trkpt>
<trkpt lat="37.802895000" lon="-121.926320000"><ele>181.5</ele><time>2026-07-30T00:00:00Z</time></trkpt>
<trkpt lat="37.802900000" lon="-121.926220000"><ele>181.8</ele><time>2026-07-30T00:00:00Z</time></trkpt>
<trkpt lat="37.802910000" lon="-121.926120000"><ele>182.0</ele><time>2026-07-30T00:00:00Z</time></trkpt>
<trkpt lat="37.802902000" lon="-121.926000000"><ele>182.3</ele><time>2026-07-30T00:00:00Z</time></trkpt>
<trkpt lat="37.802834000" lon="-121.925934000"><ele>182.5</ele><time>2026-07-30T00:00:00Z</time></trkpt>
<trkpt lat="37.802750000" lon="-121.925920000"><ele>182.8</ele><time>2026-07-30T00:00:00Z</time></trkpt>
<trkpt lat="37.802666000" lon="-121.925880000"><ele>183.0</ele><time>2026-07-30T00:00:00Z</time></trkpt>
<trkpt lat="37.802666000" lon="-121.925760000"><ele>183.1</ele><time>2026-07-30T00:00:00Z</time></trkpt>
<trkpt lat="37.802658000" lon="-121.925644000"><ele>183.2</ele><time>2026-07-30T00:00:00Z</time></trkpt>
<trkpt lat="37.802620000" lon="-121.925550000"><ele>183.2</ele><time>2026-07-30T00:00:00Z</time></trkpt>
<trkpt lat="37.802574000" lon="-121.925650000"><ele>183.1</ele><time>2026-07-30T00:00:00Z</time></trkpt>
<trkpt lat="37.802560000" lon="-121.925760000"><ele>183.0</ele><time>2026-07-30T00:00:00Z</time></trkpt>
<trkpt lat="37.802494000" lon="-121.925830000"><ele>182.8</ele><time>2026-07-30T00:00:00Z</time></trkpt>
<trkpt lat="37.802402000" lon="-121.925850000"><ele>182.6</ele><time>2026-07-30T00:00:00Z</time></trkpt>
<trkpt lat="37.802315000" lon="-121.925840000"><ele>182.4</ele><time>2026-07-30T00:00:00Z</time></trkpt>
<trkpt lat="37.802235000" lon="-121.925850000"><ele>182.1</ele><time>2026-07-30T00:00:00Z</time></trkpt>
<trkpt lat="37.802150000" lon="-121.925850000"><ele>181.8</ele><time>2026-07-30T00:00:00Z</time></trkpt>
<trkpt lat="37.802070000" lon="-121.925850000"><ele>181.5</ele><time>2026-07-30T00:00:00Z</time></trkpt>
<trkpt lat="37.801975000" lon="-121.925860000"><ele>181.3</ele><time>2026-07-30T00:00:00Z</time></trkpt>
<trkpt lat="37.801890000" lon="-121.925880000"><ele>181.0</ele><time>2026-07-30T00:00:00Z</time></trkpt>
<trkpt lat="37.801830000" lon="-121.925960000"><ele>180.7</ele><time>2026-07-30T00:00:00Z</time></trkpt>
<trkpt lat="37.801834000" lon="-121.926070000"><ele>180.5</ele><time>2026-07-30T00:00:00Z</time></trkpt>
<trkpt lat="37.801846000" lon="-121.926180000"><ele>180.2</ele><time>2026-07-30T00:00:00Z</time></trkpt>
<trkpt lat="37.801860000" lon="-121.926290000"><ele>180.0</ele><time>2026-07-30T00:00:00Z</time></trkpt>
<trkpt lat="37.801857000" lon="-121.926414000"><ele>179.8</ele><time>2026-07-30T00:00:00Z</time></trkpt>
<trkpt lat="37.801830000" lon="-121.926510000"><ele>179.6</ele><time>2026-07-30T00:00:00Z</time></trkpt>
<trkpt lat="37.801758000" lon="-121.926590000"><ele>179.5</ele><time>2026-07-30T00:00:00Z</time></trkpt>
<trkpt lat="37.801680000" lon="-121.926636000"><ele>179.3</ele><time>2026-07-30T00:00:00Z</time></trkpt>
<trkpt lat="37.801617000" lon="-121.926700000"><ele>179.1</ele><time>2026-07-30T00:00:00Z</time></trkpt>
<trkpt lat="37.801640000" lon="-121.926810000"><ele>178.9</ele><time>2026-07-30T00:00:00Z</time></trkpt>
<trkpt lat="37.801670000" lon="-121.926920000"><ele>178.7</ele><time>2026-07-30T00:00:00Z</time></trkpt>
<trkpt lat="37.801678000" lon="-121.927020000"><ele>178.6</ele><time>2026-07-30T00:00:00Z</time></trkpt>
<trkpt lat="37.801727000" lon="-121.927110000"><ele>178.6</ele><time>2026-07-30T00:00:00Z</time></trkpt>
<trkpt lat="37.801746000" lon="-121.927216000"><ele>178.6</ele><time>2026-07-30T00:00:00Z</time></trkpt>
<trkpt lat="37.801710000" lon="-121.927310000"><ele>178.5</ele><time>2026-07-30T00:00:00Z</time></trkpt>
<trkpt lat="37.801680000" lon="-121.927400000"><ele>178.4</ele><time>2026-07-30T00:00:00Z</time></trkpt>
<trkpt lat="37.801730000" lon="-121.927360000"><ele>178.3</ele><time>2026-07-30T00:00:00Z</time></trkpt>
</trkseg>
</trk>
</gpx>
