<?xml version="1.0" encoding="UTF-8"?>
<gpx
  version="1.1"
  creator="Runkeeper - http://www.runkeeper.com"
  xmlns:xsi="http://www.w3.org/2001/XMLSchema-instance"
  xmlns="http://www.topografix.com/GPX/1/1"
  xsi:schemaLocation="http://www.topografix.com/GPX/1/1 http://www.topografix.com/GPX/1/1/gpx.xsd"
  xmlns:gpxtpx="http://www.garmin.com/xmlschemas/TrackPointExtension/v1">
<trk>
  <name><![CDATA[Walking 9/20/26]]></name>
  <time>2026-09-20T00:00:00Z</time>
<trkseg>
<trkpt lat="37.810917000" lon="-121.996120000"><ele>125.2</ele><time>2026-09-20T00:00:00Z</time></trkpt>
<trkpt lat="37.810950000" lon="-121.996216000"><ele>125.3</ele><time>2026-09-20T00:00:00Z</time></trkpt>
<trkpt lat="37.811028000" lon="-121.996250000"><ele>125.2</ele><time>2026-09-20T00:00:00Z</time></trkpt>
<trkpt lat="37.811108000" lon="-121.996300000"><ele>125.2</ele><time>2026-09-20T00:00:00Z</time></trkpt>
<trkpt lat="37.811172000" lon="-121.996370000"><ele>125.2</ele><time>2026-09-20T00:00:00Z</time></trkpt>
<trkpt lat="37.811195000" lon="-121.996475000"><ele>125.3</ele><time>2026-09-20T00:00:00Z</time></trkpt>
<trkpt lat="37.811226000" lon="-121.996574000"><ele>125.5</ele><time>2026-09-20T00:00:00Z</time></trkpt>
<trkpt lat="37.811295000" lon="-121.996630000"><ele>125.5</ele><time>2026-09-20T00:00:00Z</time></trkpt>
<trkpt lat="37.811370000" lon="-121.996690000"><ele>125.6</ele><time>2026-09-20T00:00:00Z</time></trkpt>
<trkpt lat="37.811390000" lon="-121.996790000"><ele>125.7</ele><time>2026-09-20T00:00:00Z</time></trkpt>
<trkpt lat="37.811460000" lon="-121.996850000"><ele>125.7</ele><time>2026-09-20T00:00:00Z</time></trkpt>
<trkpt lat="37.811520000" lon="-121.996930000"><ele>125.7</ele><time>2026-09-20T00:00:00Z</time></trkpt>
<trkpt lat="37.811584000" lon="-121.997010000"><ele>125.7</ele><time>2026-09-20T00:00:00Z</time></trkpt>
<trkpt lat="37.811650000" lon="-121.997086000"><ele>125.8</ele><time>2026-09-20T00:00:00Z</time></trkpt>
<trkpt lat="37.811726000" lon="-121.997160000"><ele>125.9</ele><time>2026-09-20T00:00:00Z</time></trkpt>
<trkpt lat="37.811787000" lon="-121.997240000"><ele>126.1</ele><time>2026-09-20T00:00:00Z</time></trkpt>
<trkpt lat="37.811860000" lon="-121.997310000"><ele>126.2</ele><time>2026-09-20T00:00:00Z</time></trkpt>
<trkpt lat="37.811920000" lon="-121.997380000"><ele>126.4</ele><time>2026-09-20T00:00:00Z</time></trkpt>
<trkpt lat="37.811974000" lon="-121.997470000"><ele>126.5</ele><time>2026-09-20T00:00:00Z</time></trkpt>
<trkpt lat="37.812023000" lon="-121.997550000"><ele>126.7</ele><time>2026-09-20T00:00:00Z</time></trkpt>
<trkpt lat="37.812060000" lon="-121.997650000"><ele>126.9</ele><time>2026-09-20T00:00:00Z</time></trkpt>
<trkpt lat="37.812090000" lon="-121.997750000"><ele>127.2</ele><time>2026-09-20T00:00:00Z</time></trkpt>
<trkpt lat="37.812103000" lon="-121.997856000"><ele>127.5</ele><time>2026-09-20T00:00:00Z</time></trkpt>
<trkpt lat="37.812110000" lon="-121.997970000"><ele>127.7</ele><time>2026-09-20T00:00:00Z</time></trkpt>
<trkpt lat="37.812096000" lon="-121.998080000"><ele>128.1</ele><time>2026-09-20T00:00:00Z</time></trkpt>
<trkpt lat="37.812073000" lon="-121.998190000"><ele>128.5</ele><time>2026-09-20T00:00:00Z</time></trkpt>
<trkpt lat="37.812060000" lon="-121.998300000"><ele>128.7</ele><time>2026-09-20T00:00:00Z</time></trkpt>
<trkpt lat="37.812040000" lon="-121.998410000"><ele>129.0</ele><time>2026-09-20T00:00:00Z</time></trkpt>
<trkpt lat="37.812016000" lon="-121.998520000"><ele>129.3</ele><time>2026-09-20T00:00:00Z</time></trkpt>
<trkpt lat="37.811996000" lon="-121.998640000"><ele>129.5</ele><time>2026-09-20T00:00:00Z</time></trkpt>
<trkpt lat="37.811980000" lon="-121.998750000"><ele>129.9</ele><time>2026-09-20T00:00:00Z</time></trkpt>
<trkpt lat="37.811947000" lon="-121.998860000"><ele>130.3</ele><time>2026-09-20T00:00:00Z</time></trkpt>
<trkpt lat="37.811928000" lon="-121.998960000"><ele>130.6</ele><time>2026-09-20T00:00:00Z</time></trkpt>
<trkpt lat="37.811910000" lon="-121.999080000"><ele>131.0</ele><time>2026-09-20T00:00:00Z</time></trkpt>
<trkpt lat="37.811893000" lon="-121.999180000"><ele>131.4</ele><time>2026-09-20T00:00:00Z</time></trkpt>
<trkpt lat="37.811874000" lon="-121.999290000"><ele>131.6</ele><time>2026-09-20T00:00:00Z</time></trkpt>
<trkpt lat="37.811855000" lon="-121.999400000"><ele>131.9</ele><time>2026-09-20T00:00:00Z</time></trkpt>
<trkpt lat="37.811832000" lon="-121.999510000"><ele>132.3</ele><time>2026-09-20T00:00:00Z</time></trkpt>
<trkpt lat="37.811802000" lon="-121.999620000"><ele>132.6</ele><time>2026-09-20T00:00:00Z</time></trkpt>
<trkpt lat="37.811720000" lon="-121.999660000"><ele>132.9</ele><time>2026-09-20T00:00:00Z</time></trkpt>
<trkpt lat="37.811638000" lon="-121.999620000"><ele>133.3</ele><time>2026-09-20T00:00:00Z</time></trkpt>
<trkpt lat="37.811558000" lon="-121.999596000"><ele>133.5</ele><time>2026-09-20T00:00:00Z</time></trkpt>
<trkpt lat="37.811474000" lon="-121.999580000"><ele>133.8</ele><time>2026-09-20T00:00:00Z</time></trkpt>
<trkpt lat="37.811390000" lon="-121.999560000"><ele>134.1</ele><time>2026-09-20T00:00:00Z</time></trkpt>
<trkpt lat="37.811306000" lon="-121.999530000"><ele>134.4</ele><time>2026-09-20T00:00:00Z</time></trkpt>
<trkpt lat="37.811214000" lon="-121.999530000"><ele>134.7</ele><time>2026-09-20T00:00:00Z</time></trkpt>
<trkpt lat="37.811130000" lon="-121.999530000"><ele>135.1</ele><time>2026-09-20T00:00:00Z</time></trkpt>
<trkpt lat="37.811040000" lon="-121.999540000"><ele>135.5</ele><time>2026-09-20T00:00:00Z</time></trkpt>
<trkpt lat="37.810944000" lon="-121.999560000"><ele>135.7</ele><time>2026-09-20T00:00:00Z</time></trkpt>
<trkpt lat="37.810860000" lon="-121.999550000"><ele>136.1</ele><time>2026-09-20T00:00:00Z</time></trkpt>
<trkpt lat="37.810780000" lon="-121.999540000"><ele>136.5</ele><time>2026-09-20T00:00:00Z</time></trkpt>
<trkpt lat="37.810688000" lon="-121.999535000"><ele>136.7</ele><time>2026-09-20T00:00:00Z</time></trkpt>
<trkpt lat="37.810593000" lon="-121.999530000"><ele>137.0</ele><time>2026-09-20T00:00:00Z</time></trkpt>
<trkpt lat="37.810513000" lon="-121.999500000"><ele>137.3</ele><time>2026-09-20T00:00:00Z</time></trkpt>
<trkpt lat="37.810436000" lon="-121.999466000"><ele>137.5</ele><time>2026-09-20T00:00:00Z</time></trkpt>
<trkpt lat="37.810360000" lon="-121.999420000"><ele>137.6</ele><time>2026-09-20T00:00:00Z</time></trkpt>
<trkpt lat="37.810280000" lon="-121.999370000"><ele>137.7</ele><time>2026-09-20T00:00:00Z</time></trkpt>
<trkpt lat="37.810200000" lon="-121.999374000"><ele>137.9</ele><time>2026-09-20T00:00:00Z</time></trkpt>
<trkpt lat="37.810112000" lon="-121.999380000"><ele>138.1</ele><time>2026-09-20T00:00:00Z</time></trkpt>
<trkpt lat="37.810024000" lon="-121.999350000"><ele>138.4</ele><time>2026-09-20T00:00:00Z</time></trkpt>
<trkpt lat="37.809937000" lon="-121.999344000"><ele>138.5</ele><time>2026-09-20T00:00:00Z</time></trkpt>
<trkpt lat="37.809880000" lon="-121.999430000"><ele>138.8</ele><time>2026-09-20T00:00:00Z</time></trkpt>
<trkpt lat="37.809864000" lon="-121.999530000"><ele>139.1</ele><time>2026-09-20T00:00:00Z</time></trkpt>
<trkpt lat="37.809837000" lon="-121.999630000"><ele>139.5</ele><time>2026-09-20T00:00:00Z</time></trkpt>
<trkpt lat="37.809803000" lon="-121.999730000"><ele>139.8</ele><time>2026-09-20T00:00:00Z</time></trkpt>
<trkpt lat="37.809765000" lon="-121.999830000"><ele>140.2</ele><time>2026-09-20T00:00:00Z</time></trkpt>
<trkpt lat="37.809727000" lon="-121.999930000"><ele>140.5</ele><time>2026-09-20T00:00:00Z</time></trkpt>
<trkpt lat="37.809673000" lon="-122.000010000"><ele>140.9</ele><time>2026-09-20T00:00:00Z</time></trkpt>
<trkpt lat="37.809620000" lon="-122.000080000"><ele>141.2</ele><time>2026-09-20T00:00:00Z</time></trkpt>
<trkpt lat="37.809563000" lon="-122.000160000"><ele>141.4</ele><time>2026-09-20T00:00:00Z</time></trkpt>
<trkpt lat="37.809517000" lon="-122.000244000"><ele>141.5</ele><time>2026-09-20T00:00:00Z</time></trkpt>
<trkpt lat="37.809586000" lon="-122.000310000"><ele>141.5</ele><time>2026-09-20T00:00:00Z</time></trkpt>
<trkpt lat="37.809612000" lon="-122.000200000"><ele>141.4</ele><time>2026-09-20T00:00:00Z</time></trkpt>
<trkpt lat="37.809643000" lon="-122.000090000"><ele>141.2</ele><time>2026-09-20T00:00:00Z</time></trkpt>
<trkpt lat="37.809673000" lon="-121.999980000"><ele>140.9</ele><time>2026-09-20T00:00:00Z</time></trkpt>
<trkpt lat="37.809708000" lon="-121.999880000"><ele>140.5</ele><time>2026-09-20T00:00:00Z</time></trkpt>
<trkpt lat="37.809740000" lon="-121.999780000"><ele>140.2</ele><time>2026-09-20T00:00:00Z</time></trkpt>
<trkpt lat="37.809770000" lon="-121.999670000"><ele>139.7</ele><time>2026-09-20T00:00:00Z</time></trkpt>
<trkpt lat="37.809784000" lon="-121.999565000"><ele>139.3</ele><time>2026-09-20T00:00:00Z</time></trkpt>
<trkpt lat="37.809810000" lon="-121.999466000"><ele>138.7</ele><time>2026-09-20T00:00:00Z</time></trkpt>
<trkpt lat="37.809834000" lon="-121.999360000"><ele>138.3</ele><time>2026-09-20T00:00:00Z</time></trkpt>
<trkpt lat="37.809850000" lon="-121.999245000"><ele>137.7</ele><time>2026-09-20T00:00:00Z</time></trkpt>
<trkpt lat="37.809880000" lon="-121.999140000"><ele>137.3</ele><time>2026-09-20T00:00:00Z</time></trkpt>
<trkpt lat="37.809930000" lon="-121.999050000"><ele>136.7</ele><time>2026-09-20T00:00:00Z</time></trkpt>
<trkpt lat="37.809967000" lon="-121.998940000"><ele>136.3</ele><time>2026-09-20T00:00:00Z</time></trkpt>
<trkpt lat="37.810005000" lon="-121.998830000"><ele>135.7</ele><time>2026-09-20T00:00:00Z</time></trkpt>
<trkpt lat="37.810024000" lon="-121.998720000"><ele>135.3</ele><time>2026-09-20T00:00:00Z</time></trkpt>
<trkpt lat="37.810040000" lon="-121.998610000"><ele>134.7</ele><time>2026-09-20T00:00:00Z</time></trkpt>
<trkpt lat="37.810055000" lon="-121.998500000"><ele>134.3</ele><time>2026-09-20T00:00:00Z</time></trkpt>
<trkpt lat="37.810066000" lon="-121.998380000"><ele>133.8</ele><time>2026-09-20T00:00:00Z</time></trkpt>
<trkpt lat="37.810100000" lon="-121.998280000"><ele>133.5</ele><time>2026-09-20T00:00:00Z</time></trkpt>
<trkpt lat="37.810127000" lon="-121.998170000"><ele>133.2</ele><time>2026-09-20T00:00:00Z</time></trkpt>
<trkpt lat="37.810150000" lon="-121.998060000"><ele>133.0</ele><time>2026-09-20T00:00:00Z</time></trkpt>
<trkpt lat="37.810230000" lon="-121.998024000"><ele>132.7</ele><time>2026-09-20T00:00:00Z</time></trkpt>
<trkpt lat="37.810314000" lon="-121.998060000"><ele>132.5</ele><time>2026-09-20T00:00:00Z</time></trkpt>
<trkpt lat="37.810394000" lon="-121.998090000"><ele>132.4</ele><time>2026-09-20T00:00:00Z</time></trkpt>
<trkpt lat="37.810460000" lon="-121.998160000"><ele>132.3</ele><time>2026-09-20T00:00:00Z</time></trkpt>
<trkpt lat="37.810540000" lon="-121.998210000"><ele>132.2</ele><time>2026-09-20T00:00:00Z</time></trkpt>
<trkpt lat="37.810627000" lon="-121.998245000"><ele>132.1</ele><time>2026-09-20T00:00:00Z</time></trkpt>
<trkpt lat="37.810707000" lon="-121.998290000"><ele>132.1</ele><time>2026-09-20T00:00:00Z</time></trkpt>
<trkpt lat="37.810795000" lon="-121.998330000"><ele>132.1</ele><time>2026-09-20T00:00:00Z</time></trkpt>
<trkpt lat="37.810886000" lon="-121.998350000"><ele>132.1</ele><time>2026-09-20T00:00:00Z</time></trkpt>
<trkpt lat="37.810974000" lon="-121.998380000"><ele>132.0</ele><time>2026-09-20T00:00:00Z</time></trkpt>
<trkpt lat="37.811058000" lon="-121.998380000"><ele>131.9</ele><time>2026-09-20T00:00:00Z</time></trkpt>
<trkpt lat="37.810974000" lon="-121.998360000"><ele>131.9</ele><time>2026-09-20T00:00:00Z</time></trkpt>
<trkpt lat="37.810894000" lon="-121.998314000"><ele>131.9</ele><time>2026-09-20T00:00:00Z</time></trkpt>
<trkpt lat="37.810810000" lon="-121.998276000"><ele>131.9</ele><time>2026-09-20T00:00:00Z</time></trkpt>
<trkpt lat="37.810726000" lon="-121.998240000"><ele>131.9</ele><time>2026-09-20T00:00:00Z</time></trkpt>
<trkpt lat="37.810642000" lon="-121.998190000"><ele>131.9</ele><time>2026-09-20T00:00:00Z</time></trkpt>
<trkpt lat="37.810562000" lon="-121.998146000"><ele>131.9</ele><time>2026-09-20T00:00:00Z</time></trkpt>
<trkpt lat="37.810480000" lon="-121.998090000"><ele>131.8</ele><time>2026-09-20T00:00:00Z</time></trkpt>
<trkpt lat="37.810400000" lon="-121.998050000"><ele>131.7</ele><time>2026-09-20T00:00:00Z</time></trkpt>
<trkpt lat="37.810310000" lon="-121.998000000"><ele>131.5</ele><time>2026-09-20T00:00:00Z</time></trkpt>
<trkpt lat="37.810230000" lon="-121.997940000"><ele>131.4</ele><time>2026-09-20T00:00:00Z</time></trkpt>
<trkpt lat="37.810173000" lon="-121.997856000"><ele>131.1</ele><time>2026-09-20T00:00:00Z</time></trkpt>
<trkpt lat="37.810180000" lon="-121.997740000"><ele>130.8</ele><time>2026-09-20T00:00:00Z</time></trkpt>
<trkpt lat="37.810190000" lon="-121.997630000"><ele>130.5</ele><time>2026-09-20T00:00:00Z</time></trkpt>
<trkpt lat="37.810196000" lon="-121.997520000"><ele>130.3</ele><time>2026-09-20T00:00:00Z</time></trkpt>
<trkpt lat="37.810207000" lon="-121.997406000"><ele>130.0</ele><time>2026-09-20T00:00:00Z</time></trkpt>
<trkpt lat="37.810210000" lon="-121.997284000"><ele>129.8</ele><time>2026-09-20T00:00:00Z</time></trkpt>
<trkpt lat="37.810204000" lon="-121.997170000"><ele>129.7</ele><time>2026-09-20T00:00:00Z</time></trkpt>
<trkpt lat="37.810220000" lon="-121.997060000"><ele>129.7</ele><time>2026-09-20T00:00:00Z</time></trkpt>
<trkpt lat="37.810238000" lon="-121.997180000"><ele>129.7</ele><time>2026-09-20T00:00:00Z</time></trkpt>
<trkpt lat="37.810223000" lon="-121.997290000"><ele>129.8</ele><time>2026-09-20T00:00:00Z</time></trkpt>
<trkpt lat="37.810207000" lon="-121.997406000"><ele>129.9</ele><time>2026-09-20T00:00:00Z</time></trkpt>
<trkpt lat="37.810177000" lon="-121.997520000"><ele>130.1</ele><time>2026-09-20T00:00:00Z</time></trkpt>
<trkpt lat="37.810143000" lon="-121.997630000"><ele>130.3</ele><time>2026-09-20T00:00:00Z</time></trkpt>
<trkpt lat="37.810123000" lon="-121.997734000"><ele>130.5</ele><time>2026-09-20T00:00:00Z</time></trkpt>
<trkpt lat="37.810055000" lon="-121.997800000"><ele>130.8</ele><time>2026-09-20T00:00:00Z</time></trkpt>
<trkpt lat="37.809970000" lon="-121.997765000"><ele>131.1</ele><time>2026-09-20T00:00:00Z</time></trkpt>
<trkpt lat="37.809890000" lon="-121.997730000"><ele>131.3</ele><time>2026-09-20T00:00:00Z</time></trkpt>
<trkpt lat="37.809810000" lon="-121.997690000"><ele>131.5</ele><time>2026-09-20T00:00:00Z</time></trkpt>
<trkpt lat="37.809720000" lon="-121.997660000"><ele>131.5</ele><time>2026-09-20T00:00:00Z</time></trkpt>
<trkpt lat="37.809624000" lon="-121.997630000"><ele>131.6</ele><time>2026-09-20T00:00:00Z</time></trkpt>
<trkpt lat="37.809536000" lon="-121.997604000"><ele>131.8</ele><time>2026-09-20T00:00:00Z</time></trkpt>
<trkpt lat="37.809444000" lon="-121.997580000"><ele>132.0</ele><time>2026-09-20T00:00:00Z</time></trkpt>
<trkpt lat="37.809360000" lon="-121.997620000"><ele>132.2</ele><time>2026-09-20T00:00:00Z</time></trkpt>
<trkpt lat="37.809288000" lon="-121.997680000"><ele>132.5</ele><time>2026-09-20T00:00:00Z</time></trkpt>
<trkpt lat="37.809254000" lon="-121.997790000"><ele>132.6</ele><time>2026-09-20T00:00:00Z</time></trkpt>
<trkpt lat="37.809240000" lon="-121.997900000"><ele>132.9</ele><time>2026-09-20T00:00:00Z</time></trkpt>
<trkpt lat="37.809220000" lon="-121.998010000"><ele>133.3</ele><time>2026-09-20T00:00:00Z</time></trkpt>
<trkpt lat="37.809204000" lon="-121.998116000"><ele>133.6</ele><time>2026-09-20T00:00:00Z</time></trkpt>
<trkpt lat="37.809185000" lon="-121.998230000"><ele>134.1</ele><time>2026-09-20T00:00:00Z</time></trkpt>
<trkpt lat="37.809162000" lon="-121.998344000"><ele>134.5</ele><time>2026-09-20T00:00:00Z</time></trkpt>
<trkpt lat="37.809143000" lon="-121.998460000"><ele>135.1</ele><time>2026-09-20T00:00:00Z</time></trkpt>
<trkpt lat="37.809124000" lon="-121.998570000"><ele>135.5</ele><time>2026-09-20T00:00:00Z</time></trkpt>
<trkpt lat="37.809105000" lon="-121.998690000"><ele>136.1</ele><time>2026-09-20T00:00:00Z</time></trkpt>
<trkpt lat="37.809093000" lon="-121.998795000"><ele>136.6</ele><time>2026-09-20T00:00:00Z</time></trkpt>
<trkpt lat="37.809074000" lon="-121.998890000"><ele>137.1</ele><time>2026-09-20T00:00:00Z</time></trkpt>
<trkpt lat="37.809050000" lon="-121.999000000"><ele>137.5</ele><time>2026-09-20T00:00:00Z</time></trkpt>
<trkpt lat="37.809025000" lon="-121.999115000"><ele>137.8</ele><time>2026-09-20T00:00:00Z</time></trkpt>
<trkpt lat="37.809010000" lon="-121.999220000"><ele>138.0</ele><time>2026-09-20T00:00:00Z</time></trkpt>
<trkpt lat="37.808987000" lon="-121.999330000"><ele>138.2</ele><time>2026-09-20T00:00:00Z</time></trkpt>
<trkpt lat="37.808964000" lon="-121.999435000"><ele>138.2</ele><time>2026-09-20T00:00:00Z</time></trkpt>
<trkpt lat="37.808914000" lon="-121.999344000"><ele>138.2</ele><time>2026-09-20T00:00:00Z</time></trkpt>
<trkpt lat="37.808950000" lon="-121.999230000"><ele>138.1</ele><time>2026-09-20T00:00:00Z</time></trkpt>
<trkpt lat="37.808970000" lon="-121.999115000"><ele>137.9</ele><time>2026-09-20T00:00:00Z</time></trkpt>
<trkpt lat="37.808975000" lon="-121.999010000"><ele>137.5</ele><time>2026-09-20T00:00:00Z</time></trkpt>
<trkpt lat="37.809006000" lon="-121.998910000"><ele>137.1</ele><time>2026-09-20T00:00:00Z</time></trkpt>
<trkpt lat="37.809030000" lon="-121.998800000"><ele>136.6</ele><time>2026-09-20T00:00:00Z</time></trkpt>
<trkpt lat="37.809040000" lon="-121.998695000"><ele>136.1</ele><time>2026-09-20T00:00:00Z</time></trkpt>
<trkpt lat="37.809060000" lon="-121.998580000"><ele>135.6</ele><time>2026-09-20T00:00:00Z</time></trkpt>
<trkpt lat="37.809082000" lon="-121.998480000"><ele>135.2</ele><time>2026-09-20T00:00:00Z</time></trkpt>
<trkpt lat="37.809100000" lon="-121.998360000"><ele>134.6</ele><time>2026-09-20T00:00:00Z</time></trkpt>
<trkpt lat="37.809116000" lon="-121.998245000"><ele>134.2</ele><time>2026-09-20T00:00:00Z</time></trkpt>
<trkpt lat="37.809130000" lon="-121.998140000"><ele>133.7</ele><time>2026-09-20T00:00:00Z</time></trkpt>
<trkpt lat="37.809155000" lon="-121.998024000"><ele>133.3</ele><time>2026-09-20T00:00:00Z</time></trkpt>
<trkpt lat="37.809174000" lon="-121.997920000"><ele>132.8</ele><time>2026-09-20T00:00:00Z</time></trkpt>
<trkpt lat="37.809196000" lon="-121.997795000"><ele>132.5</ele><time>2026-09-20T00:00:00Z</time></trkpt>
<trkpt lat="37.809204000" lon="-121.997680000"><ele>132.2</ele><time>2026-09-20T00:00:00Z</time></trkpt>
<trkpt lat="37.809135000" lon="-121.997630000"><ele>131.9</ele><time>2026-09-20T00:00:00Z</time></trkpt>
<trkpt lat="37.809055000" lon="-121.997600000"><ele>131.7</ele><time>2026-09-20T00:00:00Z</time></trkpt>
<trkpt lat="37.808975000" lon="-121.997570000"><ele>131.5</ele><time>2026-09-20T00:00:00Z</time></trkpt>
<trkpt lat="37.808900000" lon="-121.997510000"><ele>131.4</ele><time>2026-09-20T00:00:00Z</time></trkpt>
<trkpt lat="37.808815000" lon="-121.997500000"><ele>131.4</ele><time>2026-09-20T00:00:00Z</time></trkpt>
<trkpt lat="37.808740000" lon="-121.997440000"><ele>131.4</ele><time>2026-09-20T00:00:00Z</time></trkpt>
<trkpt lat="37.808690000" lon="-121.997345000"><ele>131.4</ele><time>2026-09-20T00:00:00Z</time></trkpt>
<trkpt lat="37.808610000" lon="-121.997300000"><ele>131.5</ele><time>2026-09-20T00:00:00Z</time></trkpt>
<trkpt lat="37.808537000" lon="-121.997360000"><ele>131.6</ele><time>2026-09-20T00:00:00Z</time></trkpt>
<trkpt lat="37.808460000" lon="-121.997420000"><ele>131.9</ele><time>2026-09-20T00:00:00Z</time></trkpt>
<trkpt lat="37.808420000" lon="-121.997505000"><ele>132.3</ele><time>2026-09-20T00:00:00Z</time></trkpt>
<trkpt lat="37.808388000" lon="-121.997610000"><ele>132.7</ele><time>2026-09-20T00:00:00Z</time></trkpt>
<trkpt lat="37.808365000" lon="-121.997720000"><ele>133.2</ele><time>2026-09-20T00:00:00Z</time></trkpt>
<trkpt lat="37.808342000" lon="-121.997826000"><ele>133.6</ele><time>2026-09-20T00:00:00Z</time></trkpt>
<trkpt lat="37.808323000" lon="-121.997930000"><ele>134.0</ele><time>2026-09-20T00:00:00Z</time></trkpt>
<trkpt lat="37.808304000" lon="-121.998040000"><ele>134.3</ele><time>2026-09-20T00:00:00Z</time></trkpt>
<trkpt lat="37.808290000" lon="-121.998160000"><ele>134.5</ele><time>2026-09-20T00:00:00Z</time></trkpt>
<trkpt lat="37.808273000" lon="-121.998270000"><ele>134.5</ele><time>2026-09-20T00:00:00Z</time></trkpt>
<trkpt lat="37.808224000" lon="-121.998180000"><ele>134.5</ele><time>2026-09-20T00:00:00Z</time></trkpt>
<trkpt lat="37.808240000" lon="-121.998070000"><ele>134.5</ele><time>2026-09-20T00:00:00Z</time></trkpt>
<trkpt lat="37.808266000" lon="-121.997960000"><ele>134.3</ele><time>2026-09-20T00:00:00Z</time></trkpt>
<trkpt lat="37.808277000" lon="-121.997850000"><ele>133.9</ele><time>2026-09-20T00:00:00Z</time></trkpt>
<trkpt lat="37.808296000" lon="-121.997740000"><ele>133.5</ele><time>2026-09-20T00:00:00Z</time></trkpt>
<trkpt lat="37.808327000" lon="-121.997635000"><ele>132.9</ele><time>2026-09-20T00:00:00Z</time></trkpt>
<trkpt lat="37.808346000" lon="-121.997520000"><ele>132.4</ele><time>2026-09-20T00:00:00Z</time></trkpt>
<trkpt lat="37.808390000" lon="-121.997430000"><ele>131.8</ele><time>2026-09-20T00:00:00Z</time></trkpt>
<trkpt lat="37.808460000" lon="-121.997350000"><ele>131.3</ele><time>2026-09-20T00:00:00Z</time></trkpt>
<trkpt lat="37.808533000" lon="-121.997290000"><ele>130.7</ele><time>2026-09-20T00:00:00Z</time></trkpt>
<trkpt lat="37.808598000" lon="-121.997215000"><ele>130.3</ele><time>2026-09-20T00:00:00Z</time></trkpt>
<trkpt lat="37.808617000" lon="-121.997110000"><ele>129.8</ele><time>2026-09-20T00:00:00Z</time></trkpt>
<trkpt lat="37.808624000" lon="-121.997000000"><ele>129.5</ele><time>2026-09-20T00:00:00Z</time></trkpt>
<trkpt lat="37.808620000" lon="-121.996890000"><ele>129.1</ele><time>2026-09-20T00:00:00Z</time></trkpt>
<trkpt lat="37.808617000" lon="-121.996770000"><ele>128.7</ele><time>2026-09-20T00:00:00Z</time></trkpt>
<trkpt lat="37.808628000" lon="-121.996660000"><ele>128.4</ele><time>2026-09-20T00:00:00Z</time></trkpt>
<trkpt lat="37.808643000" lon="-121.996550000"><ele>128.1</ele><time>2026-09-20T00:00:00Z</time></trkpt>
<trkpt lat="37.808655000" lon="-121.996440000"><ele>127.7</ele><time>2026-09-20T00:00:00Z</time></trkpt>
<trkpt lat="37.808674000" lon="-121.996320000"><ele>127.5</ele><time>2026-09-20T00:00:00Z</time></trkpt>
<trkpt lat="37.808693000" lon="-121.996216000"><ele>127.2</ele><time>2026-09-20T00:00:00Z</time></trkpt>
<trkpt lat="37.808720000" lon="-121.996100000"><ele>126.9</ele><time>2026-09-20T00:00:00Z</time></trkpt>
<trkpt lat="37.808750000" lon="-121.996000000"><ele>126.6</ele><time>2026-09-20T00:00:00Z</time></trkpt>
<trkpt lat="37.808758000" lon="-121.995890000"><ele>126.3</ele><time>2026-09-20T00:00:00Z</time></trkpt>
<trkpt lat="37.808777000" lon="-121.995770000"><ele>125.9</ele><time>2026-09-20T00:00:00Z</time></trkpt>
<trkpt lat="37.808800000" lon="-121.995660000"><ele>125.5</ele><time>2026-09-20T00:00:00Z</time></trkpt>
<trkpt lat="37.808826000" lon="-121.995550000"><ele>125.3</ele><time>2026-09-20T00:00:00Z</time></trkpt>
<trkpt lat="37.808846000" lon="-121.995440000"><ele>125.0</ele><time>2026-09-20T00:00:00Z</time></trkpt>
<trkpt lat="37.808872000" lon="-121.995330000"><ele>124.7</ele><time>2026-09-20T00:00:00Z</time></trkpt>
<trkpt lat="37.808890000" lon="-121.995220000"><ele>124.5</ele><time>2026-09-20T00:00:00Z</time></trkpt>
<trkpt lat="37.808910000" lon="-121.995110000"><ele>124.4</ele><time>2026-09-20T00:00:00Z</time></trkpt>
<trkpt lat="37.808933000" lon="-121.995000000"><ele>124.2</ele><time>2026-09-20T00:00:00Z</time></trkpt>
<trkpt lat="37.808952000" lon="-121.994890000"><ele>124.1</ele><time>2026-09-20T00:00:00Z</time></trkpt>
<trkpt lat="37.808970000" lon="-121.994774000"><ele>123.9</ele><time>2026-09-20T00:00:00Z</time></trkpt>
<trkpt lat="37.809013000" lon="-121.994680000"><ele>123.8</ele><time>2026-09-20T00:00:00Z</time></trkpt>
<trkpt lat="37.809100000" lon="-121.994680000"><ele>123.7</ele><time>2026-09-20T00:00:00Z</time></trkpt>
<trkpt lat="37.809190000" lon="-121.994705000"><ele>123.6</ele><time>2026-09-20T00:00:00Z</time></trkpt>
<trkpt lat="37.809277000" lon="-121.994736000"><ele>123.5</ele><time>2026-09-20T00:00:00Z</time></trkpt>
<trkpt lat="37.809360000" lon="-121.994760000"><ele>123.5</ele><time>2026-09-20T00:00:00Z</time></trkpt>
<trkpt lat="37.809444000" lon="-121.994780000"><ele>123.4</ele><time>2026-09-20T00:00:00Z</time></trkpt>
<trkpt lat="37.809530000" lon="-121.994804000"><ele>123.4</ele><time>2026-09-20T00:00:00Z</time></trkpt>
<trkpt lat="37.809616000" lon="-121.994830000"><ele>123.4</ele><time>2026-09-20T00:00:00Z</time></trkpt>
<trkpt lat="37.809692000" lon="-121.994870000"><ele>123.4</ele><time>2026-09-20T00:00:00Z</time></trkpt>
<trkpt lat="37.809708000" lon="-121.994990000"><ele>123.5</ele><time>2026-09-20T00:00:00Z</time></trkpt>
<trkpt lat="37.809666000" lon="-121.995090000"><ele>123.6</ele><time>2026-09-20T00:00:00Z</time></trkpt>
<trkpt lat="37.809670000" lon="-121.995186000"><ele>123.9</ele><time>2026-09-20T00:00:00Z</time></trkpt>
<trkpt lat="37.809650000" lon="-121.995290000"><ele>124.2</ele><time>2026-09-20T00:00:00Z</time></trkpt>
<trkpt lat="37.809630000" lon="-121.995400000"><ele>124.5</ele><time>2026-09-20T00:00:00Z</time></trkpt>
<trkpt lat="37.809610000" lon="-121.995510000"><ele>124.7</ele><time>2026-09-20T00:00:00Z</time></trkpt>
<trkpt lat="37.809593000" lon="-121.995610000"><ele>125.0</ele><time>2026-09-20T00:00:00Z</time></trkpt>
<trkpt lat="37.809570000" lon="-121.995730000"><ele>125.4</ele><time>2026-09-20T00:00:00Z</time></trkpt>
<trkpt lat="37.809555000" lon="-121.995830000"><ele>125.6</ele><time>2026-09-20T00:00:00Z</time></trkpt>
<trkpt lat="37.809530000" lon="-121.995930000"><ele>126.0</ele><time>2026-09-20T00:00:00Z</time></trkpt>
<trkpt lat="37.809517000" lon="-121.996050000"><ele>126.3</ele><time>2026-09-20T00:00:00Z</time></trkpt>
<trkpt lat="37.809500000" lon="-121.996155000"><ele>126.5</ele><time>2026-09-20T00:00:00Z</time></trkpt>
<trkpt lat="37.809498000" lon="-121.996260000"><ele>126.6</ele><time>2026-09-20T00:00:00Z</time></trkpt>
<trkpt lat="37.809486000" lon="-121.996376000"><ele>126.6</ele><time>2026-09-20T00:00:00Z</time></trkpt>
<trkpt lat="37.809475000" lon="-121.996480000"><ele>126.6</ele><time>2026-09-20T00:00:00Z</time></trkpt>
<trkpt lat="37.809494000" lon="-121.996376000"><ele>126.6</ele><time>2026-09-20T00:00:00Z</time></trkpt>
<trkpt lat="37.809530000" lon="-121.996270000"><ele>126.6</ele><time>2026-09-20T00:00:00Z</time></trkpt>
<trkpt lat="37.809550000" lon="-121.996160000"><ele>126.5</ele><time>2026-09-20T00:00:00Z</time></trkpt>
<trkpt lat="37.809570000" lon="-121.996040000"><ele>126.4</ele><time>2026-09-20T00:00:00Z</time></trkpt>
<trkpt lat="37.809590000" lon="-121.995926000"><ele>126.1</ele><time>2026-09-20T00:00:00Z</time></trkpt>
<trkpt lat="37.809610000" lon="-121.995820000"><ele>125.7</ele><time>2026-09-20T00:00:00Z</time></trkpt>
<trkpt lat="37.809624000" lon="-121.995705000"><ele>125.4</ele><time>2026-09-20T00:00:00Z</time></trkpt>
<trkpt lat="37.809647000" lon="-121.995580000"><ele>125.0</ele><time>2026-09-20T00:00:00Z</time></trkpt>
<trkpt lat="37.809673000" lon="-121.995470000"><ele>124.6</ele><time>2026-09-20T00:00:00Z</time></trkpt>
<trkpt lat="37.809690000" lon="-121.995350000"><ele>124.4</ele><time>2026-09-20T00:00:00Z</time></trkpt>
<trkpt lat="37.809704000" lon="-121.995250000"><ele>124.1</ele><time>2026-09-20T00:00:00Z</time></trkpt>
<trkpt lat="37.809727000" lon="-121.995130000"><ele>123.8</ele><time>2026-09-20T00:00:00Z</time></trkpt>
<trkpt lat="37.809757000" lon="-121.995026000"><ele>123.5</ele><time>2026-09-20T00:00:00Z</time></trkpt>
<trkpt lat="37.809790000" lon="-121.994920000"><ele>123.4</ele><time>2026-09-20T00:00:00Z</time></trkpt>
<trkpt lat="37.809880000" lon="-121.994890000"><ele>123.2</ele><time>2026-09-20T00:00:00Z</time></trkpt>
<trkpt lat="37.809960000" lon="-121.994920000"><ele>123.1</ele><time>2026-09-20T00:00:00Z</time></trkpt>
<trkpt lat="37.810047000" lon="-121.994950000"><ele>123.0</ele><time>2026-09-20T00:00:00Z</time></trkpt>
<trkpt lat="37.810140000" lon="-121.994965000"><ele>123.0</ele><time>2026-09-20T00:00:00Z</time></trkpt>
<trkpt lat="37.810223000" lon="-121.994930000"><ele>123.1</ele><time>2026-09-20T00:00:00Z</time></trkpt>
<trkpt lat="37.810307000" lon="-121.994934000"><ele>123.1</ele><time>2026-09-20T00:00:00Z</time></trkpt>
<trkpt lat="37.810383000" lon="-121.995000000"><ele>123.1</ele><time>2026-09-20T00:00:00Z</time></trkpt>
<trkpt lat="37.810455000" lon="-121.995060000"><ele>123.1</ele><time>2026-09-20T00:00:00Z</time></trkpt>
<trkpt lat="37.810524000" lon="-121.995125000"><ele>123.1</ele><time>2026-09-20T00:00:00Z</time></trkpt>
<trkpt lat="37.810600000" lon="-121.995186000"><ele>123.1</ele><time>2026-09-20T00:00:00Z</time></trkpt>
<trkpt lat="37.810680000" lon="-121.995224000"><ele>123.1</ele><time>2026-09-20T00:00:00Z</time></trkpt>
<trkpt lat="37.810764000" lon="-121.995260000"><ele>123.1</ele><time>2026-09-20T00:00:00Z</time></trkpt>
<trkpt lat="37.810850000" lon="-121.995290000"><ele>123.1</ele><time>2026-09-20T00:00:00Z</time></trkpt>
<trkpt lat="37.810940000" lon="-121.995310000"><ele>123.1</ele><time>2026-09-20T00:00:00Z</time></trkpt>
<trkpt lat="37.811020000" lon="-121.995360000"><ele>123.1</ele><time>2026-09-20T00:00:00Z</time></trkpt>
<trkpt lat="37.811104000" lon="-121.995400000"><ele>123.1</ele><time>2026-09-20T00:00:00Z</time></trkpt>
<trkpt lat="37.811184000" lon="-121.995420000"><ele>123.2</ele><time>2026-09-20T00:00:00Z</time></trkpt>
<trkpt lat="37.811220000" lon="-121.995530000"><ele>123.3</ele><time>2026-09-20T00:00:00Z</time></trkpt>
<trkpt lat="37.811195000" lon="-121.995630000"><ele>123.4</ele><time>2026-09-20T00:00:00Z</time></trkpt>
<trkpt lat="37.811170000" lon="-121.995730000"><ele>123.5</ele><time>2026-09-20T00:00:00Z</time></trkpt>
<trkpt lat="37.811150000" lon="-121.995834000"><ele>123.7</ele><time>2026-09-20T00:00:00Z</time></trkpt>
<trkpt lat="37.811150000" lon="-121.995950000"><ele>123.9</ele><time>2026-09-20T00:00:00Z</time></trkpt>
<trkpt lat="37.811160000" lon="-121.996060000"><ele>124.0</ele><time>2026-09-20T00:00:00Z</time></trkpt>
<trkpt lat="37.811157000" lon="-121.996180000"><ele>124.1</ele><time>2026-09-20T00:00:00Z</time></trkpt>
<trkpt lat="37.811085000" lon="-121.996240000"><ele>124.2</ele><time>2026-09-20T00:00:00Z</time></trkpt>
<trkpt lat="37.810990000" lon="-121.996216000"><ele>124.4</ele><time>2026-09-20T00:00:00Z</time></trkpt>
<trkpt lat="37.810910000" lon="-121.996185000"><ele>124.4</ele><time>2026-09-20T00:00:00Z</time></trkpt>
<trkpt lat="37.810925000" lon="-121.996120000"><ele>124.5</ele><time>2026-09-20T00:00:00Z</time></trkpt>
</trkseg>
</trk>
</gpx>
