<?xml version="1.0" encoding="UTF-8"?>
<gpx
  version="1.1"
  creator="Runkeeper - http://www.runkeeper.com"
  xmlns:xsi="http://www.w3.org/2001/XMLSchema-instance"
  xmlns="http://www.topografix.com/GPX/1/1"
  xsi:schemaLocation="http://www.topografix.com/GPX/1/1 http://www.topografix.com/GPX/1/1/gpx.xsd"
  xmlns:gpxtpx="http://www.garmin.com/xmlschemas/TrackPointExtension/v1">
<trk>
  <name><![CDATA[Walking 7/30/26]]></name>
  <time>2026-07-31T00:00:00Z</time>
<trkseg>
<trkpt lat="37.801426000" lon="-121.925870000"><ele>179.7</ele><time>2026-07-31T00:00:00Z</time></trkpt>
<trkpt lat="37.801395000" lon="-121.925964000"><ele>179.6</ele><time>2026-07-31T00:00:00Z</time></trkpt>
<trkpt lat="37.801407000" lon="-121.925865000"><ele>179.5</ele><time>2026-07-31T00:00:00Z</time></trkpt>
<trkpt lat="37.801320000" lon="-121.925870000"><ele>179.4</ele><time>2026-07-31T00:00:00Z</time></trkpt>
<trkpt lat="37.801308000" lon="-121.925970000"><ele>179.4</ele><time>2026-07-31T00:00:00Z</time></trkpt>
<trkpt lat="37.801327000" lon="-121.926080000"><ele>179.4</ele><time>2026-07-31T00:00:00Z</time></trkpt>
<trkpt lat="37.801353000" lon="-121.926190000"><ele>179.3</ele><time>2026-07-31T00:00:00Z</time></trkpt>
<trkpt lat="37.801390000" lon="-121.926300000"><ele>179.2</ele><time>2026-07-31T00:00:00Z</time></trkpt>
<trkpt lat="37.801414000" lon="-121.926410000"><ele>179.1</ele><time>2026-07-31T00:00:00Z</time></trkpt>
<trkpt lat="37.801407000" lon="-121.926510000"><ele>179.0</ele><time>2026-07-31T00:00:00Z</time></trkpt>
<trkpt lat="37.801327000" lon="-121.926570000"><ele>179.0</ele><time>2026-07-31T00:00:00Z</time></trkpt>
<trkpt lat="37.801260000" lon="-121.926640000"><ele>179.0</ele><time>2026-07-31T00:00:00Z</time></trkpt>
<trkpt lat="37.801178000" lon="-121.926650000"><ele>179.0</ele><time>2026-07-31T00:00:00Z</time></trkpt>
<trkpt lat="37.801110000" lon="-121.926580000"><ele>179.0</ele><time>2026-07-31T00:00:00Z</time></trkpt>
<trkpt lat="37.801070000" lon="-121.926490000"><ele>179.0</ele><time>2026-07-31T00:00:00Z</time></trkpt>
<trkpt lat="37.801050000" lon="-121.926384000"><ele>179.1</ele><time>2026-07-31T00:00:00Z</time></trkpt>
<trkpt lat="37.801025000" lon="-121.926270000"><ele>179.2</ele><time>2026-07-31T00:00:00Z</time></trkpt>
<trkpt lat="37.801003000" lon="-121.926155000"><ele>179.3</ele><time>2026-07-31T00:00:00Z</time></trkpt>
<trkpt lat="37.800970000" lon="-121.926050000"><ele>179.4</ele><time>2026-07-31T00:00:00Z</time></trkpt>
<trkpt lat="37.800888000" lon="-121.925995000"><ele>179.5</ele><time>2026-07-31T00:00:00Z</time></trkpt>
<trkpt lat="37.800804000" lon="-121.925995000"><ele>179.5</ele><time>2026-07-31T00:00:00Z</time></trkpt>
<trkpt lat="37.800720000" lon="-121.925990000"><ele>179.6</ele><time>2026-07-31T00:00:00Z</time></trkpt>
<trkpt lat="37.800630000" lon="-121.925980000"><ele>179.7</ele><time>2026-07-31T00:00:00Z</time></trkpt>
<trkpt lat="37.800545000" lon="-121.925970000"><ele>179.8</ele><time>2026-07-31T00:00:00Z</time></trkpt>
<trkpt lat="37.800457000" lon="-121.925970000"><ele>179.8</ele><time>2026-07-31T00:00:00Z</time></trkpt>
<trkpt lat="37.800373000" lon="-121.925960000"><ele>179.8</ele><time>2026-07-31T00:00:00Z</time></trkpt>
<trkpt lat="37.800300000" lon="-121.926025000"><ele>179.7</ele><time>2026-07-31T00:00:00Z</time></trkpt>
<trkpt lat="37.800255000" lon="-121.926120000"><ele>179.6</ele><time>2026-07-31T00:00:00Z</time></trkpt>
<trkpt lat="37.800255000" lon="-121.926220000"><ele>179.5</ele><time>2026-07-31T00:00:00Z</time></trkpt>
<trkpt lat="37.800262000" lon="-121.926340000"><ele>179.5</ele><time>2026-07-31T00:00:00Z</time></trkpt>
<trkpt lat="37.800278000" lon="-121.926450000"><ele>179.4</ele><time>2026-07-31T00:00:00Z</time></trkpt>
<trkpt lat="37.800278000" lon="-121.926560000"><ele>179.3</ele><time>2026-07-31T00:00:00Z</time></trkpt>
<trkpt lat="37.800320000" lon="-121.926650000"><ele>179.2</ele><time>2026-07-31T00:00:00Z</time></trkpt>
<trkpt lat="37.800407000" lon="-121.926680000"><ele>179.1</ele><time>2026-07-31T00:00:00Z</time></trkpt>
<trkpt lat="37.800488000" lon="-121.926680000"><ele>179.0</ele><time>2026-07-31T00:00:00Z</time></trkpt>
<trkpt lat="37.800575000" lon="-121.926680000"><ele>179.0</ele><time>2026-07-31T00:00:00Z</time></trkpt>
<trkpt lat="37.800667000" lon="-121.926680000"><ele>179.0</ele><time>2026-07-31T00:00:00Z</time></trkpt>
<trkpt lat="37.800760000" lon="-121.926700000"><ele>179.0</ele><time>2026-07-31T00:00:00Z</time></trkpt>
<trkpt lat="37.800854000" lon="-121.926690000"><ele>179.0</ele><time>2026-07-31T00:00:00Z</time></trkpt>
<trkpt lat="37.800950000" lon="-121.926674000"><ele>179.0</ele><time>2026-07-31T00:00:00Z</time></trkpt>
<trkpt lat="37.801037000" lon="-121.926650000"><ele>179.0</ele><time>2026-07-31T00:00:00Z</time></trkpt>
<trkpt lat="37.801120000" lon="-121.926610000"><ele>179.0</ele><time>2026-07-31T00:00:00Z</time></trkpt>
<trkpt lat="37.801200000" lon="-121.926575000"><ele>179.0</ele><time>2026-07-31T00:00:00Z</time></trkpt>
<trkpt lat="37.801290000" lon="-121.926550000"><ele>179.0</ele><time>2026-07-31T00:00:00Z</time></trkpt>
<trkpt lat="37.801380000" lon="-121.926520000"><ele>179.0</ele><time>2026-07-31T00:00:00Z</time></trkpt>
<trkpt lat="37.801410000" lon="-121.926420000"><ele>179.1</ele><time>2026-07-31T00:00:00Z</time></trkpt>
<trkpt lat="37.801357000" lon="-121.926330000"><ele>179.2</ele><time>2026-07-31T00:00:00Z</time></trkpt>
<trkpt lat="37.801353000" lon="-121.926220000"><ele>179.3</ele><time>2026-07-31T00:00:00Z</time></trkpt>
<trkpt lat="37.801346000" lon="-121.926125000"><ele>179.4</ele><time>2026-07-31T00:00:00Z</time></trkpt>
<trkpt lat="37.801334000" lon="-121.926020000"><ele>179.5</ele><time>2026-07-31T00:00:00Z</time></trkpt>
<trkpt lat="37.801310000" lon="-121.925900000"><ele>179.5</ele><time>2026-07-31T00:00:00Z</time></trkpt>
<trkpt lat="37.801300000" lon="-121.925804000"><ele>179.6</ele><time>2026-07-31T00:00:00Z</time></trkpt>
<trkpt lat="37.801250000" lon="-121.925710000"><ele>179.7</ele><time>2026-07-31T00:00:00Z</time></trkpt>
<trkpt lat="37.801190000" lon="-121.925644000"><ele>179.8</ele><time>2026-07-31T00:00:00Z</time></trkpt>
<trkpt lat="37.801120000" lon="-121.925575000"><ele>180.0</ele><time>2026-07-31T00:00:00Z</time></trkpt>
<trkpt lat="37.801033000" lon="-121.925606000"><ele>180.2</ele><time>2026-07-31T00:00:00Z</time></trkpt>
<trkpt lat="37.800945000" lon="-121.925606000"><ele>180.3</ele><time>2026-07-31T00:00:00Z</time></trkpt>
<trkpt lat="37.800858000" lon="-121.925570000"><ele>180.4</ele><time>2026-07-31T00:00:00Z</time></trkpt>
<trkpt lat="37.800766000" lon="-121.925550000"><ele>180.5</ele><time>2026-07-31T00:00:00Z</time></trkpt>
<trkpt lat="37.800682000" lon="-121.925550000"><ele>180.5</ele><time>2026-07-31T00:00:00Z</time></trkpt>
<trkpt lat="37.800602000" lon="-121.925545000"><ele>180.7</ele><time>2026-07-31T00:00:00Z</time></trkpt>
<trkpt lat="37.800514000" lon="-121.925530000"><ele>180.9</ele><time>2026-07-31T00:00:00Z</time></trkpt>
<trkpt lat="37.800430000" lon="-121.925520000"><ele>181.2</ele><time>2026-07-31T00:00:00Z</time></trkpt>
<trkpt lat="37.800350000" lon="-121.925510000"><ele>181.5</ele><time>2026-07-31T00:00:00Z</time></trkpt>
<trkpt lat="37.800270000" lon="-121.925490000"><ele>181.8</ele><time>2026-07-31T00:00:00Z</time></trkpt>
<trkpt lat="37.800186000" lon="-121.925470000"><ele>182.1</ele><time>2026-07-31T00:00:00Z</time></trkpt>
<trkpt lat="37.800106000" lon="-121.925410000"><ele>182.4</ele><time>2026-07-31T00:00:00Z</time></trkpt>
<trkpt lat="37.800076000" lon="-121.925300000"><ele>182.6</ele><time>2026-07-31T00:00:00Z</time></trkpt>
<trkpt lat="37.800040000" lon="-121.925200000"><ele>182.9</ele><time>2026-07-31T00:00:00Z</time></trkpt>
<trkpt lat="37.800022000" lon="-121.925095000"><ele>183.3</ele><time>2026-07-31T00:00:00Z</time></trkpt>
<trkpt lat="37.800014000" lon="-121.924970000"><ele>183.6</ele><time>2026-07-31T00:00:00Z</time></trkpt>
<trkpt lat="37.800010000" lon="-121.924860000"><ele>184.0</ele><time>2026-07-31T00:00:00Z</time></trkpt>
<trkpt lat="37.800022000" lon="-121.924750000"><ele>184.4</ele><time>2026-07-31T00:00:00Z</time></trkpt>
<trkpt lat="37.800053000" lon="-121.924644000"><ele>184.7</ele><time>2026-07-31T00:00:00Z</time></trkpt>
<trkpt lat="37.800056000" lon="-121.924530000"><ele>185.1</ele><time>2026-07-31T00:00:00Z</time></trkpt>
<trkpt lat="37.800020000" lon="-121.924430000"><ele>185.5</ele><time>2026-07-31T00:00:00Z</time></trkpt>
<trkpt lat="37.799973000" lon="-121.924330000"><ele>185.7</ele><time>2026-07-31T00:00:00Z</time></trkpt>
<trkpt lat="37.799930000" lon="-121.924240000"><ele>186.0</ele><time>2026-07-31T00:00:00Z</time></trkpt>
<trkpt lat="37.799923000" lon="-121.924120000"><ele>186.2</ele><time>2026-07-31T00:00:00Z</time></trkpt>
<trkpt lat="37.799908000" lon="-121.924000000"><ele>186.4</ele><time>2026-07-31T00:00:00Z</time></trkpt>
<trkpt lat="37.799896000" lon="-121.923890000"><ele>186.4</ele><time>2026-07-31T00:00:00Z</time></trkpt>
<trkpt lat="37.799946000" lon="-121.923970000"><ele>186.4</ele><time>2026-07-31T00:00:00Z</time></trkpt>
<trkpt lat="37.799946000" lon="-121.924090000"><ele>186.2</ele><time>2026-07-31T00:00:00Z</time></trkpt>
<trkpt lat="37.799957000" lon="-121.924200000"><ele>186.0</ele><time>2026-07-31T00:00:00Z</time></trkpt>
<trkpt lat="37.799990000" lon="-121.924300000"><ele>185.7</ele><time>2026-07-31T00:00:00Z</time></trkpt>
<trkpt lat="37.800037000" lon="-121.924400000"><ele>185.5</ele><time>2026-07-31T00:00:00Z</time></trkpt>
<trkpt lat="37.800110000" lon="-121.924450000"><ele>185.1</ele><time>2026-07-31T00:00:00Z</time></trkpt>
<trkpt lat="37.800198000" lon="-121.924490000"><ele>184.7</ele><time>2026-07-31T00:00:00Z</time></trkpt>
<trkpt lat="37.800278000" lon="-121.924545000"><ele>184.4</ele><time>2026-07-31T00:00:00Z</time></trkpt>
<trkpt lat="37.800360000" lon="-121.924560000"><ele>184.1</ele><time>2026-07-31T00:00:00Z</time></trkpt>
<trkpt lat="37.800450000" lon="-121.924576000"><ele>183.9</ele><time>2026-07-31T00:00:00Z</time></trkpt>
<trkpt lat="37.800537000" lon="-121.924576000"><ele>183.8</ele><time>2026-07-31T00:00:00Z</time></trkpt>
<trkpt lat="37.800625000" lon="-121.924580000"><ele>183.8</ele><time>2026-07-31T00:00:00Z</time></trkpt>
<trkpt lat="37.800710000" lon="-121.924576000"><ele>184.0</ele><time>2026-07-31T00:00:00Z</time></trkpt>
<trkpt lat="37.800774000" lon="-121.924500000"><ele>184.2</ele><time>2026-07-31T00:00:00Z</time></trkpt>
<trkpt lat="37.800785000" lon="-121.924380000"><ele>184.5</ele><time>2026-07-31T00:00:00Z</time></trkpt>
<trkpt lat="37.800766000" lon="-121.924280000"><ele>184.8</ele><time>2026-07-31T00:00:00Z</time></trkpt>
<trkpt lat="37.800747000" lon="-121.924170000"><ele>185.2</ele><time>2026-07-31T00:00:00Z</time></trkpt>
<trkpt lat="37.800728000" lon="-121.924060000"><ele>185.5</ele><time>2026-07-31T00:00:00Z</time></trkpt>
<trkpt lat="37.800716000" lon="-121.923960000"><ele>185.8</ele><time>2026-07-31T00:00:00Z</time></trkpt>
<trkpt lat="37.800705000" lon="-121.923836000"><ele>186.1</ele><time>2026-07-31T00:00:00Z</time></trkpt>
<trkpt lat="37.800682000" lon="-121.923720000"><ele>186.2</ele><time>2026-07-31T00:00:00Z</time></trkpt>
<trkpt lat="37.800762000" lon="-121.923750000"><ele>186.3</ele><time>2026-07-31T00:00:00Z</time></trkpt>
<trkpt lat="37.800694000" lon="-121.923810000"><ele>186.2</ele><time>2026-07-31T00:00:00Z</time></trkpt>
<trkpt lat="37.800755000" lon="-121.923890000"><ele>185.9</ele><time>2026-07-31T00:00:00Z</time></trkpt>
<trkpt lat="37.800762000" lon="-121.924010000"><ele>185.6</ele><time>2026-07-31T00:00:00Z</time></trkpt>
<trkpt lat="37.800777000" lon="-121.924126000"><ele>185.3</ele><time>2026-07-31T00:00:00Z</time></trkpt>
<trkpt lat="37.800800000" lon="-121.924230000"><ele>184.8</ele><time>2026-07-31T00:00:00Z</time></trkpt>
<trkpt lat="37.800820000" lon="-121.924330000"><ele>184.4</ele><time>2026-07-31T00:00:00Z</time></trkpt>
<trkpt lat="37.800840000" lon="-121.924440000"><ele>184.0</ele><time>2026-07-31T00:00:00Z</time></trkpt>
<trkpt lat="37.800865000" lon="-121.924550000"><ele>183.7</ele><time>2026-07-31T00:00:00Z</time></trkpt>
<trkpt lat="37.800950000" lon="-121.924600000"><ele>183.5</ele><time>2026-07-31T00:00:00Z</time></trkpt>
<trkpt lat="37.801037000" lon="-121.924614000"><ele>183.3</ele><time>2026-07-31T00:00:00Z</time></trkpt>
<trkpt lat="37.801110000" lon="-121.924680000"><ele>183.0</ele><time>2026-07-31T00:00:00Z</time></trkpt>
<trkpt lat="37.801150000" lon="-121.924774000"><ele>182.8</ele><time>2026-07-31T00:00:00Z</time></trkpt>
<trkpt lat="37.801178000" lon="-121.924890000"><ele>182.6</ele><time>2026-07-31T00:00:00Z</time></trkpt>
<trkpt lat="37.801210000" lon="-121.925000000"><ele>182.5</ele><time>2026-07-31T00:00:00Z</time></trkpt>
<trkpt lat="37.801220000" lon="-121.925100000"><ele>182.3</ele><time>2026-07-31T00:00:00Z</time></trkpt>
<trkpt lat="37.801235000" lon="-121.925220000"><ele>182.1</ele><time>2026-07-31T00:00:00Z</time></trkpt>
<trkpt lat="37.801254000" lon="-121.925320000"><ele>182.0</ele><time>2026-07-31T00:00:00Z</time></trkpt>
<trkpt lat="37.801300000" lon="-121.925415000"><ele>181.9</ele><time>2026-07-31T00:00:00Z</time></trkpt>
<trkpt lat="37.801388000" lon="-121.925450000"><ele>181.8</ele><time>2026-07-31T00:00:00Z</time></trkpt>
<trkpt lat="37.801464000" lon="-121.925490000"><ele>181.7</ele><time>2026-07-31T00:00:00Z</time></trkpt>
<trkpt lat="37.801544000" lon="-121.925470000"><ele>181.6</ele><time>2026-07-31T00:00:00Z</time></trkpt>
<trkpt lat="37.801636000" lon="-121.925470000"><ele>181.7</ele><time>2026-07-31T00:00:00Z</time></trkpt>
<trkpt lat="37.801720000" lon="-121.925460000"><ele>181.9</ele><time>2026-07-31T00:00:00Z</time></trkpt>
<trkpt lat="37.801792000" lon="-121.925410000"><ele>182.3</ele><time>2026-07-31T00:00:00Z</time></trkpt>
<trkpt lat="37.801870000" lon="-121.925370000"><ele>182.6</ele><time>2026-07-31T00:00:00Z</time></trkpt>
<trkpt lat="37.801930000" lon="-121.925285000"><ele>183.1</ele><time>2026-07-31T00:00:00Z</time></trkpt>
<trkpt lat="37.801945000" lon="-121.925160000"><ele>183.6</ele><time>2026-07-31T00:00:00Z</time></trkpt>
<trkpt lat="37.801933000" lon="-121.925060000"><ele>184.2</ele><time>2026-07-31T00:00:00Z</time></trkpt>
<trkpt lat="37.801903000" lon="-121.924960000"><ele>184.7</ele><time>2026-07-31T00:00:00Z</time></trkpt>
<trkpt lat="37.801807000" lon="-121.924940000"><ele>185.4</ele><time>2026-07-31T00:00:00Z</time></trkpt>
<trkpt lat="37.801720000" lon="-121.924920000"><ele>186.0</ele><time>2026-07-31T00:00:00Z</time></trkpt>
<trkpt lat="37.801636000" lon="-121.924870000"><ele>186.7</ele><time>2026-07-31T00:00:00Z</time></trkpt>
<trkpt lat="37.801582000" lon="-121.924780000"><ele>187.5</ele><time>2026-07-31T00:00:00Z</time></trkpt>
<trkpt lat="37.801575000" lon="-121.924680000"><ele>188.1</ele><time>2026-07-31T00:00:00Z</time></trkpt>
<trkpt lat="37.801567000" lon="-121.924560000"><ele>188.7</ele><time>2026-07-31T00:00:00Z</time></trkpt>
<trkpt lat="37.801563000" lon="-121.924440000"><ele>189.4</ele><time>2026-07-31T00:00:00Z</time></trkpt>
<trkpt lat="37.801575000" lon="-121.924324000"><ele>190.0</ele><time>2026-07-31T00:00:00Z</time></trkpt>
<trkpt lat="37.801598000" lon="-121.924220000"><ele>190.5</ele><time>2026-07-31T00:00:00Z</time></trkpt>
<trkpt lat="37.801666000" lon="-121.924150000"><ele>191.0</ele><time>2026-07-31T00:00:00Z</time></trkpt>
<trkpt lat="37.801746000" lon="-121.924140000"><ele>191.4</ele><time>2026-07-31T00:00:00Z</time></trkpt>
<trkpt lat="37.801830000" lon="-121.924130000"><ele>191.6</ele><time>2026-07-31T00:00:00Z</time></trkpt>
<trkpt lat="37.801914000" lon="-121.924130000"><ele>191.9</ele><time>2026-07-31T00:00:00Z</time></trkpt>
<trkpt lat="37.802002000" lon="-121.924130000"><ele>192.1</ele><time>2026-07-31T00:00:00Z</time></trkpt>
<trkpt lat="37.802090000" lon="-121.924126000"><ele>192.2</ele><time>2026-07-31T00:00:00Z</time></trkpt>
<trkpt lat="37.802180000" lon="-121.924120000"><ele>192.2</ele><time>2026-07-31T00:00:00Z</time></trkpt>
<trkpt lat="37.802260000" lon="-121.924126000"><ele>192.1</ele><time>2026-07-31T00:00:00Z</time></trkpt>
<trkpt lat="37.802345000" lon="-121.924130000"><ele>191.9</ele><time>2026-07-31T00:00:00Z</time></trkpt>
<trkpt lat="37.802430000" lon="-121.924160000"><ele>191.6</ele><time>2026-07-31T00:00:00Z</time></trkpt>
<trkpt lat="37.802513000" lon="-121.924200000"><ele>191.4</ele><time>2026-07-31T00:00:00Z</time></trkpt>
<trkpt lat="37.802590000" lon="-121.924270000"><ele>191.1</ele><time>2026-07-31T00:00:00Z</time></trkpt>
<trkpt lat="37.802670000" lon="-121.924330000"><ele>191.0</ele><time>2026-07-31T00:00:00Z</time></trkpt>
<trkpt lat="37.802742000" lon="-121.924400000"><ele>191.0</ele><time>2026-07-31T00:00:00Z</time></trkpt>
<trkpt lat="37.802807000" lon="-121.924470000"><ele>190.9</ele><time>2026-07-31T00:00:00Z</time></trkpt>
<trkpt lat="37.802876000" lon="-121.924540000"><ele>190.7</ele><time>2026-07-31T00:00:00Z</time></trkpt>
<trkpt lat="37.802853000" lon="-121.924420000"><ele>190.5</ele><time>2026-07-31T00:00:00Z</time></trkpt>
<trkpt lat="37.802930000" lon="-121.924360000"><ele>190.4</ele><time>2026-07-31T00:00:00Z</time></trkpt>
<trkpt lat="37.802994000" lon="-121.924286000"><ele>190.2</ele><time>2026-07-31T00:00:00Z</time></trkpt>
<trkpt lat="37.802930000" lon="-121.924350000"><ele>190.1</ele><time>2026-07-31T00:00:00Z</time></trkpt>
<trkpt lat="37.802853000" lon="-121.924400000"><ele>189.9</ele><time>2026-07-31T00:00:00Z</time></trkpt>
<trkpt lat="37.802834000" lon="-121.924500000"><ele>189.7</ele><time>2026-07-31T00:00:00Z</time></trkpt>
<trkpt lat="37.802834000" lon="-121.924614000"><ele>189.5</ele><time>2026-07-31T00:00:00Z</time></trkpt>
<trkpt lat="37.802820000" lon="-121.924730000"><ele>189.2</ele><time>2026-07-31T00:00:00Z</time></trkpt>
<trkpt lat="37.802757000" lon="-121.924810000"><ele>188.6</ele><time>2026-07-31T00:00:00Z</time></trkpt>
<trkpt lat="37.802690000" lon="-121.924870000"><ele>188.1</ele><time>2026-07-31T00:00:00Z</time></trkpt>
<trkpt lat="37.802593000" lon="-121.924900000"><ele>187.6</ele><time>2026-07-31T00:00:00Z</time></trkpt>
<trkpt lat="37.802510000" lon="-121.924904000"><ele>187.2</ele><time>2026-07-31T00:00:00Z</time></trkpt>
<trkpt lat="37.802425000" lon="-121.924910000"><ele>186.7</ele><time>2026-07-31T00:00:00Z</time></trkpt>
<trkpt lat="37.802334000" lon="-121.924920000"><ele>186.2</ele><time>2026-07-31T00:00:00Z</time></trkpt>
<trkpt lat="37.802240000" lon="-121.924920000"><ele>185.6</ele><time>2026-07-31T00:00:00Z</time></trkpt>
<trkpt lat="37.802155000" lon="-121.924910000"><ele>185.2</ele><time>2026-07-31T00:00:00Z</time></trkpt>
<trkpt lat="37.802070000" lon="-121.924950000"><ele>184.8</ele><time>2026-07-31T00:00:00Z</time></trkpt>
<trkpt lat="37.802050000" lon="-121.925050000"><ele>184.5</ele><time>2026-07-31T00:00:00Z</time></trkpt>
<trkpt lat="37.802055000" lon="-121.925160000"><ele>184.2</ele><time>2026-07-31T00:00:00Z</time></trkpt>
<trkpt lat="37.802055000" lon="-121.925280000"><ele>184.1</ele><time>2026-07-31T00:00:00Z</time></trkpt>
<trkpt lat="37.802130000" lon="-121.925320000"><ele>184.1</ele><time>2026-07-31T00:00:00Z</time></trkpt>
<trkpt lat="37.802227000" lon="-121.925330000"><ele>184.1</ele><time>2026-07-31T00:00:00Z</time></trkpt>
<trkpt lat="37.802315000" lon="-121.925360000"><ele>184.1</ele><time>2026-07-31T00:00:00Z</time></trkpt>
<trkpt lat="37.802400000" lon="-121.925370000"><ele>184.2</ele><time>2026-07-31T00:00:00Z</time></trkpt>
<trkpt lat="37.802483000" lon="-121.925350000"><ele>184.4</ele><time>2026-07-31T00:00:00Z</time></trkpt>
<trkpt lat="37.802574000" lon="-121.925360000"><ele>184.5</ele><time>2026-07-31T00:00:00Z</time></trkpt>
<trkpt lat="37.802660000" lon="-121.925354000"><ele>184.7</ele><time>2026-07-31T00:00:00Z</time></trkpt>
<trkpt lat="37.802746000" lon="-121.925330000"><ele>184.8</ele><time>2026-07-31T00:00:00Z</time></trkpt>
<trkpt lat="37.802826000" lon="-121.925340000"><ele>184.9</ele><time>2026-07-31T00:00:00Z</time></trkpt>
<trkpt lat="37.802910000" lon="-121.925350000"><ele>185.0</ele><time>2026-07-31T00:00:00Z</time></trkpt>
<trkpt lat="37.802994000" lon="-121.925380000"><ele>185.0</ele><time>2026-07-31T00:00:00Z</time></trkpt>
<trkpt lat="37.803078000" lon="-121.925390000"><ele>185.1</ele><time>2026-07-31T00:00:00Z</time></trkpt>
<trkpt lat="37.803160000" lon="-121.925410000"><ele>185.2</ele><time>2026-07-31T00:00:00Z</time></trkpt>
<trkpt lat="37.803246000" lon="-121.925420000"><ele>185.3</ele><time>2026-07-31T00:00:00Z</time></trkpt>
<trkpt lat="37.803330000" lon="-121.925440000"><ele>185.5</ele><time>2026-07-31T00:00:00Z</time></trkpt>
<trkpt lat="37.803417000" lon="-121.925385000"><ele>185.6</ele><time>2026-07-31T00:00:00Z</time></trkpt>
<trkpt lat="37.803432000" lon="-121.925280000"><ele>185.7</ele><time>2026-07-31T00:00:00Z</time></trkpt>
<trkpt lat="37.803455000" lon="-121.925180000"><ele>185.8</ele><time>2026-07-31T00:00:00Z</time></trkpt>
<trkpt lat="37.803455000" lon="-121.925060000"><ele>185.8</ele><time>2026-07-31T00:00:00Z</time></trkpt>
<trkpt lat="37.803440000" lon="-121.924940000"><ele>185.8</ele><time>2026-07-31T00:00:00Z</time></trkpt>
<trkpt lat="37.803493000" lon="-121.925030000"><ele>185.7</ele><time>2026-07-31T00:00:00Z</time></trkpt>
<trkpt lat="37.803490000" lon="-121.925150000"><ele>185.6</ele><time>2026-07-31T00:00:00Z</time></trkpt>
<trkpt lat="37.803480000" lon="-121.925260000"><ele>185.5</ele><time>2026-07-31T00:00:00Z</time></trkpt>
<trkpt lat="37.803486000" lon="-121.925370000"><ele>185.4</ele><time>2026-07-31T00:00:00Z</time></trkpt>
<trkpt lat="37.803540000" lon="-121.925460000"><ele>185.2</ele><time>2026-07-31T00:00:00Z</time></trkpt>
<trkpt lat="37.803616000" lon="-121.925490000"><ele>184.9</ele><time>2026-07-31T00:00:00Z</time></trkpt>
<trkpt lat="37.803700000" lon="-121.925510000"><ele>184.6</ele><time>2026-07-31T00:00:00Z</time></trkpt>
<trkpt lat="37.803764000" lon="-121.925430000"><ele>184.5</ele><time>2026-07-31T00:00:00Z</time></trkpt>
<trkpt lat="37.803852000" lon="-121.925446000"><ele>184.3</ele><time>2026-07-31T00:00:00Z</time></trkpt>
<trkpt lat="37.803932000" lon="-121.925476000"><ele>184.2</ele><time>2026-07-31T00:00:00Z</time></trkpt>
<trkpt lat="37.804024000" lon="-121.925470000"><ele>184.1</ele><time>2026-07-31T00:00:00Z</time></trkpt>
<trkpt lat="37.804060000" lon="-121.925560000"><ele>184.1</ele><time>2026-07-31T00:00:00Z</time></trkpt>
<trkpt lat="37.804066000" lon="-121.925674000"><ele>184.0</ele><time>2026-07-31T00:00:00Z</time></trkpt>
<trkpt lat="37.804058000" lon="-121.925790000"><ele>183.8</ele><time>2026-07-31T00:00:00Z</time></trkpt>
<trkpt lat="37.804070000" lon="-121.925896000"><ele>183.7</ele><time>2026-07-31T00:00:00Z</time></trkpt>
<trkpt lat="37.804085000" lon="-121.925995000"><ele>183.6</ele><time>2026-07-31T00:00:00Z</time></trkpt>
<trkpt lat="37.804070000" lon="-121.926094000"><ele>183.5</ele><time>2026-07-31T00:00:00Z</time></trkpt>
<trkpt lat="37.804030000" lon="-121.926190000"><ele>183.3</ele><time>2026-07-31T00:00:00Z</time></trkpt>
<trkpt lat="37.803955000" lon="-121.926254000"><ele>183.1</ele><time>2026-07-31T00:00:00Z</time></trkpt>
<trkpt lat="37.803875000" lon="-121.926285000"><ele>182.9</ele><time>2026-07-31T00:00:00Z</time></trkpt>
<trkpt lat="37.803790000" lon="-121.926300000"><ele>182.7</ele><time>2026-07-31T00:00:00Z</time></trkpt>
<trkpt lat="37.803703000" lon="-121.926315000"><ele>182.5</ele><time>2026-07-31T00:00:00Z</time></trkpt>
<trkpt lat="37.803608000" lon="-121.926330000"><ele>182.4</ele><time>2026-07-31T00:00:00Z</time></trkpt>
<trkpt lat="37.803528000" lon="-121.926340000"><ele>182.3</ele><time>2026-07-31T00:00:00Z</time></trkpt>
<trkpt lat="37.803440000" lon="-121.926315000"><ele>182.3</ele><time>2026-07-31T00:00:00Z</time></trkpt>
<trkpt lat="37.803364000" lon="-121.926280000"><ele>182.3</ele><time>2026-07-31T00:00:00Z</time></trkpt>
<trkpt lat="37.803280000" lon="-121.926230000"><ele>182.4</ele><time>2026-07-31T00:00:00Z</time></trkpt>
<trkpt lat="37.803226000" lon="-121.926140000"><ele>182.5</ele><time>2026-07-31T00:00:00Z</time></trkpt>
<trkpt lat="37.803204000" lon="-121.926030000"><ele>182.8</ele><time>2026-07-31T00:00:00Z</time></trkpt>
<trkpt lat="37.803200000" lon="-121.925930000"><ele>183.1</ele><time>2026-07-31T00:00:00Z</time></trkpt>
<trkpt lat="37.803143000" lon="-121.925840000"><ele>183.4</ele><time>2026-07-31T00:00:00Z</time></trkpt>
<trkpt lat="37.803185000" lon="-121.925735000"><ele>183.6</ele><time>2026-07-31T00:00:00Z</time></trkpt>
<trkpt lat="37.803207000" lon="-121.925620000"><ele>183.9</ele><time>2026-07-31T00:00:00Z</time></trkpt>
<trkpt lat="37.803192000" lon="-121.925514000"><ele>184.2</ele><time>2026-07-31T00:00:00Z</time></trkpt>
<trkpt lat="37.803260000" lon="-121.925446000"><ele>184.5</ele><time>2026-07-31T00:00:00Z</time></trkpt>
<trkpt lat="37.803356000" lon="-121.925430000"><ele>184.5</ele><time>2026-07-31T00:00:00Z</time></trkpt>
<trkpt lat="37.803448000" lon="-121.925440000"><ele>184.6</ele><time>2026-07-31T00:00:00Z</time></trkpt>
<trkpt lat="37.803540000" lon="-121.925446000"><ele>184.6</ele><time>2026-07-31T00:00:00Z</time></trkpt>
<trkpt lat="37.803630000" lon="-121.925446000"><ele>184.7</ele><time>2026-07-31T00:00:00Z</time></trkpt>
<trkpt lat="37.803715000" lon="-121.925470000"><ele>184.7</ele><time>2026-07-31T00:00:00Z</time></trkpt>
<trkpt lat="37.803802000" lon="-121.925480000"><ele>184.7</ele><time>2026-07-31T00:00:00Z</time></trkpt>
<trkpt lat="37.803894000" lon="-121.925490000"><ele>184.8</ele><time>2026-07-31T00:00:00Z</time></trkpt>
<trkpt lat="37.803980000" lon="-121.925480000"><ele>184.9</ele><time>2026-07-31T00:00:00Z</time></trkpt>
<trkpt lat="37.804016000" lon="-121.925380000"><ele>185.0</ele><time>2026-07-31T00:00:00Z</time></trkpt>
<trkpt lat="37.804010000" lon="-121.925270000"><ele>185.0</ele><time>2026-07-31T00:00:00Z</time></trkpt>
<trkpt lat="37.804024000" lon="-121.925160000"><ele>185.0</ele><time>2026-07-31T00:00:00Z</time></trkpt>
<trkpt lat="37.804050000" lon="-121.925064000"><ele>185.1</ele><time>2026-07-31T00:00:00Z</time></trkpt>
<trkpt lat="37.804104000" lon="-121.924970000"><ele>185.1</ele><time>2026-07-31T00:00:00Z</time></trkpt>
<trkpt lat="37.804104000" lon="-121.925080000"><ele>185.1</ele><time>2026-07-31T00:00:00Z</time></trkpt>
<trkpt lat="37.804073000" lon="-121.925186000"><ele>185.0</ele><time>2026-07-31T00:00:00Z</time></trkpt>
<trkpt lat="37.804066000" lon="-121.925285000"><ele>184.9</ele><time>2026-07-31T00:00:00Z</time></trkpt>
<trkpt lat="37.804060000" lon="-121.925390000"><ele>184.8</ele><time>2026-07-31T00:00:00Z</time></trkpt>
<trkpt lat="37.804115000" lon="-121.925470000"><ele>184.7</ele><time>2026-07-31T00:00:00Z</time></trkpt>
<trkpt lat="37.804200000" lon="-121.925470000"><ele>184.6</ele><time>2026-07-31T00:00:00Z</time></trkpt>
<trkpt lat="37.804283000" lon="-121.925476000"><ele>184.5</ele><time>2026-07-31T00:00:00Z</time></trkpt>
<trkpt lat="37.804367000" lon="-121.925476000"><ele>184.5</ele><time>2026-07-31T00:00:00Z</time></trkpt>
<trkpt lat="37.804460000" lon="-121.925476000"><ele>184.5</ele><time>2026-07-31T00:00:00Z</time></trkpt>
<trkpt lat="37.804504000" lon="-121.925385000"><ele>184.5</ele><time>2026-07-31T00:00:00Z</time></trkpt>
<trkpt lat="37.804550000" lon="-121.925290000"><ele>184.6</ele><time>2026-07-31T00:00:00Z</time></trkpt>
<trkpt lat="37.804607000" lon="-121.925210000"><ele>184.8</ele><time>2026-07-31T00:00:00Z</time></trkpt>
<trkpt lat="37.804688000" lon="-121.925150000"><ele>185.1</ele><time>2026-07-31T00:00:00Z</time></trkpt>
<trkpt lat="37.804764000" lon="-121.925100000"><ele>185.5</ele><time>2026-07-31T00:00:00Z</time></trkpt>
<trkpt lat="37.804850000" lon="-121.925070000"><ele>186.0</ele><time>2026-07-31T00:00:00Z</time></trkpt>
<trkpt lat="37.804836000" lon="-121.924960000"><ele>186.6</ele><time>2026-07-31T00:00:00Z</time></trkpt>
<trkpt lat="37.804830000" lon="-121.924850000"><ele>187.5</ele><time>2026-07-31T00:00:00Z</time></trkpt>
<trkpt lat="37.804806000" lon="-121.924750000"><ele>188.5</ele><time>2026-07-31T00:00:00Z</time></trkpt>
<trkpt lat="37.804783000" lon="-121.924644000"><ele>189.5</ele><time>2026-07-31T00:00:00Z</time></trkpt>
<trkpt lat="37.804760000" lon="-121.924540000"><ele>190.5</ele><time>2026-07-31T00:00:00Z</time></trkpt>
<trkpt lat="37.804730000" lon="-121.924430000"><ele>191.5</ele><time>2026-07-31T00:00:00Z</time></trkpt>
<trkpt lat="37.804700000" lon="-121.924330000"><ele>192.5</ele><time>2026-07-31T00:00:00Z</time></trkpt>
<trkpt lat="37.804672000" lon="-121.924230000"><ele>193.4</ele><time>2026-07-31T00:00:00Z</time></trkpt>
<trkpt lat="37.804596000" lon="-121.924194000"><ele>194.2</ele><time>2026-07-31T00:00:00Z</time></trkpt>
<trkpt lat="37.804510000" lon="-121.924180000"><ele>194.9</ele><time>2026-07-31T00:00:00Z</time></trkpt>
<trkpt lat="37.804424000" lon="-121.924170000"><ele>195.5</ele><time>2026-07-31T00:00:00Z</time></trkpt>
<trkpt lat="37.804344000" lon="-121.924170000"><ele>195.8</ele><time>2026-07-31T00:00:00Z</time></trkpt>
<trkpt lat="37.804250000" lon="-121.924180000"><ele>196.0</ele><time>2026-07-31T00:00:00Z</time></trkpt>
<trkpt lat="37.804160000" lon="-121.924170000"><ele>196.1</ele><time>2026-07-31T00:00:00Z</time></trkpt>
<trkpt lat="37.804070000" lon="-121.924164000"><ele>196.2</ele><time>2026-07-31T00:00:00Z</time></trkpt>
<trkpt lat="37.803986000" lon="-121.924160000"><ele>196.4</ele><time>2026-07-31T00:00:00Z</time></trkpt>
<trkpt lat="37.803900000" lon="-121.924164000"><ele>196.6</ele><time>2026-07-31T00:00:00Z</time></trkpt>
<trkpt lat="37.803814000" lon="-121.924140000"><ele>197.0</ele><time>2026-07-31T00:00:00Z</time></trkpt>
<trkpt lat="37.803734000" lon="-121.924100000"><ele>197.4</ele><time>2026-07-31T00:00:00Z</time></trkpt>
<trkpt lat="37.803658000" lon="-121.924060000"><ele>197.8</ele><time>2026-07-31T00:00:00Z</time></trkpt>
<trkpt lat="37.803580000" lon="-121.924000000"><ele>198.2</ele><time>2026-07-31T00:00:00Z</time></trkpt>
<trkpt lat="37.803516000" lon="-121.923950000"><ele>198.5</ele><time>2026-07-31T00:00:00Z</time></trkpt>
<trkpt lat="37.803444000" lon="-121.923890000"><ele>198.8</ele><time>2026-07-31T00:00:00Z</time></trkpt>
<trkpt lat="37.803370000" lon="-121.923840000"><ele>199.0</ele><time>2026-07-31T00:00:00Z</time></trkpt>
<trkpt lat="37.803288000" lon="-121.923810000"><ele>199.0</ele><time>2026-07-31T00:00:00Z</time></trkpt>
<trkpt lat="37.803207000" lon="-121.923850000"><ele>199.0</ele><time>2026-07-31T00:00:00Z</time></trkpt>
<trkpt lat="37.803116000" lon="-121.923850000"><ele>198.8</ele><time>2026-07-31T00:00:00Z</time></trkpt>
<trkpt lat="37.803032000" lon="-121.923860000"><ele>198.5</ele><time>2026-07-31T00:00:00Z</time></trkpt>
<trkpt lat="37.802940000" lon="-121.923830000"><ele>198.0</ele><time>2026-07-31T00:00:00Z</time></trkpt>
<trkpt lat="37.802856000" lon="-121.923810000"><ele>197.5</ele><time>2026-07-31T00:00:00Z</time></trkpt>
<trkpt lat="37.802770000" lon="-121.923800000"><ele>197.0</ele><time>2026-07-31T00:00:00Z</time></trkpt>
<trkpt lat="37.802677000" lon="-121.923790000"><ele>196.5</ele><time>2026-07-31T00:00:00Z</time></trkpt>
<trkpt lat="37.802590000" lon="-121.923750000"><ele>195.9</ele><time>2026-07-31T00:00:00Z</time></trkpt>
<trkpt lat="37.802505000" lon="-121.923720000"><ele>195.5</ele><time>2026-07-31T00:00:00Z</time></trkpt>
<trkpt lat="37.802410000" lon="-121.923720000"><ele>195.1</ele><time>2026-07-31T00:00:00Z</time></trkpt>
<trkpt lat="37.802320000" lon="-121.923710000"><ele>194.7</ele><time>2026-07-31T00:00:00Z</time></trkpt>
<trkpt lat="37.802235000" lon="-121.923710000"><ele>194.4</ele><time>2026-07-31T00:00:00Z</time></trkpt>
<trkpt lat="37.802147000" lon="-121.923740000"><ele>194.1</ele><time>2026-07-31T00:00:00Z</time></trkpt>
<trkpt lat="37.802063000" lon="-121.923740000"><ele>193.8</ele><time>2026-07-31T00:00:00Z</time></trkpt>
<trkpt lat="37.801980000" lon="-121.923750000"><ele>193.5</ele><time>2026-07-31T00:00:00Z</time></trkpt>
<trkpt lat="37.801895000" lon="-121.923770000"><ele>193.2</ele><time>2026-07-31T00:00:00Z</time></trkpt>
<trkpt lat="37.801810000" lon="-121.923770000"><ele>192.8</ele><time>2026-07-31T00:00:00Z</time></trkpt>
<trkpt lat="37.801720000" lon="-121.923760000"><ele>192.5</ele><time>2026-07-31T00:00:00Z</time></trkpt>
<trkpt lat="37.801630000" lon="-121.923750000"><ele>192.0</ele><time>2026-07-31T00:00:00Z</time></trkpt>
<trkpt lat="37.801540000" lon="-121.923740000"><ele>191.5</ele><time>2026-07-31T00:00:00Z</time></trkpt>
<trkpt lat="37.801450000" lon="-121.923720000"><ele>190.9</ele><time>2026-07-31T00:00:00Z</time></trkpt>
<trkpt lat="37.801357000" lon="-121.923710000"><ele>190.5</ele><time>2026-07-31T00:00:00Z</time></trkpt>
<trkpt lat="37.801260000" lon="-121.923700000"><ele>190.0</ele><time>2026-07-31T00:00:00Z</time></trkpt>
<trkpt lat="37.801174000" lon="-121.923710000"><ele>189.5</ele><time>2026-07-31T00:00:00Z</time></trkpt>
<trkpt lat="37.801098000" lon="-121.923770000"><ele>189.1</ele><time>2026-07-31T00:00:00Z</time></trkpt>
<trkpt lat="37.801018000" lon="-121.923730000"><ele>188.5</ele><time>2026-07-31T00:00:00Z</time></trkpt>
<trkpt lat="37.800934000" lon="-121.923730000"><ele>188.1</ele><time>2026-07-31T00:00:00Z</time></trkpt>
<trkpt lat="37.800846000" lon="-121.923720000"><ele>187.5</ele><time>2026-07-31T00:00:00Z</time></trkpt>
<trkpt lat="37.800762000" lon="-121.923730000"><ele>187.0</ele><time>2026-07-31T00:00:00Z</time></trkpt>
<trkpt lat="37.800705000" lon="-121.923810000"><ele>186.5</ele><time>2026-07-31T00:00:00Z</time></trkpt>
<trkpt lat="37.800713000" lon="-121.923930000"><ele>186.1</ele><time>2026-07-31T00:00:00Z</time></trkpt>
<trkpt lat="37.800730000" lon="-121.924050000"><ele>185.6</ele><time>2026-07-31T00:00:00Z</time></trkpt>
<trkpt lat="37.800747000" lon="-121.924164000"><ele>185.2</ele><time>2026-07-31T00:00:00Z</time></trkpt>
<trkpt lat="37.800770000" lon="-121.924260000"><ele>184.7</ele><time>2026-07-31T00:00:00Z</time></trkpt>
<trkpt lat="37.800810000" lon="-121.924360000"><ele>184.3</ele><time>2026-07-31T00:00:00Z</time></trkpt>
<trkpt lat="37.800850000" lon="-121.924460000"><ele>183.9</ele><time>2026-07-31T00:00:00Z</time></trkpt>
<trkpt lat="37.800880000" lon="-121.924560000"><ele>183.6</ele><time>2026-07-31T00:00:00Z</time></trkpt>
<trkpt lat="37.800964000" lon="-121.924610000"><ele>183.4</ele><time>2026-07-31T00:00:00Z</time></trkpt>
<trkpt lat="37.801052000" lon="-121.924630000"><ele>183.2</ele><time>2026-07-31T00:00:00Z</time></trkpt>
<trkpt lat="37.801120000" lon="-121.924690000"><ele>183.0</ele><time>2026-07-31T00:00:00Z</time></trkpt>
<trkpt lat="37.801150000" lon="-121.924800000"><ele>182.8</ele><time>2026-07-31T00:00:00Z</time></trkpt>
<trkpt lat="37.801174000" lon="-121.924910000"><ele>182.6</ele><time>2026-07-31T00:00:00Z</time></trkpt>
<trkpt lat="37.801200000" lon="-121.925020000"><ele>182.4</ele><time>2026-07-31T00:00:00Z</time></trkpt>
<trkpt lat="37.801220000" lon="-121.925130000"><ele>182.1</ele><time>2026-07-31T00:00:00Z</time></trkpt>
<trkpt lat="37.801243000" lon="-121.925250000"><ele>181.8</ele><time>2026-07-31T00:00:00Z</time></trkpt>
<trkpt lat="37.801260000" lon="-121.925350000"><ele>181.5</ele><time>2026-07-31T00:00:00Z</time></trkpt>
<trkpt lat="37.801304000" lon="-121.925450000"><ele>181.3</ele><time>2026-07-31T00:00:00Z</time></trkpt>
<trkpt lat="37.801365000" lon="-121.925540000"><ele>181.1</ele><time>2026-07-31T00:00:00Z</time></trkpt>
<trkpt lat="37.801390000" lon="-121.925650000"><ele>180.9</ele><time>2026-07-31T00:00:00Z</time></trkpt>
<trkpt lat="37.801410000" lon="-121.925766000"><ele>180.6</ele><time>2026-07-31T00:00:00Z</time></trkpt>
<trkpt lat="37.801414000" lon="-121.925870000"><ele>180.4</ele><time>2026-07-31T00:00:00Z</time></trkpt>
<trkpt lat="37.801437000" lon="-121.925880000"><ele>180.2</ele><time>2026-07-31T00:00:00Z</time></trkpt>
</trkseg>
</trk>
</gpx>
