<?xml version="1.0" encoding="UTF-8"?>
<gpx
  version="1.1"
  creator="Runkeeper - http://www.runkeeper.com"
  xmlns:xsi="http://www.w3.org/2001/XMLSchema-instance"
  xmlns="http://www.topografix.com/GPX/1/1"
  xsi:schemaLocation="http://www.topografix.com/GPX/1/1 http://www.topografix.com/GPX/1/1/gpx.xsd"
  xmlns:gpxtpx="http://www.garmin.com/xmlschemas/TrackPointExtension/v1">
<trk>
  <name><![CDATA[Walking 7/28/26]]></name>
  <time>2026-07-28T00:00:00Z</time>
<trkseg>
<trkpt lat="37.802536000" lon="-121.932100000"><ele>175.5</ele><time>2026-07-28T00:00:00Z</time></trkpt>
<trkpt lat="37.802580000" lon="-121.932190000"><ele>175.6</ele><time>2026-07-28T00:00:00Z</time></trkpt>
<trkpt lat="37.802630000" lon="-121.932270000"><ele>175.6</ele><time>2026-07-28T00:00:00Z</time></trkpt>
<trkpt lat="37.802650000" lon="-121.932380000"><ele>175.7</ele><time>2026-07-28T00:00:00Z</time></trkpt>
<trkpt lat="37.802660000" lon="-121.932495000"><ele>175.7</ele><time>2026-07-28T00:00:00Z</time></trkpt>
<trkpt lat="37.802723000" lon="-121.932570000"><ele>175.7</ele><time>2026-07-28T00:00:00Z</time></trkpt>
<trkpt lat="37.802807000" lon="-121.932580000"><ele>175.8</ele><time>2026-07-28T00:00:00Z</time></trkpt>
<trkpt lat="37.802890000" lon="-121.932540000"><ele>175.9</ele><time>2026-07-28T00:00:00Z</time></trkpt>
<trkpt lat="37.802975000" lon="-121.932520000"><ele>176.0</ele><time>2026-07-28T00:00:00Z</time></trkpt>
<trkpt lat="37.803047000" lon="-121.932570000"><ele>176.0</ele><time>2026-07-28T00:00:00Z</time></trkpt>
<trkpt lat="37.803130000" lon="-121.932620000"><ele>176.0</ele><time>2026-07-28T00:00:00Z</time></trkpt>
<trkpt lat="37.803215000" lon="-121.932594000"><ele>176.0</ele><time>2026-07-28T00:00:00Z</time></trkpt>
<trkpt lat="37.803300000" lon="-121.932570000"><ele>176.1</ele><time>2026-07-28T00:00:00Z</time></trkpt>
<trkpt lat="37.803383000" lon="-121.932560000"><ele>176.2</ele><time>2026-07-28T00:00:00Z</time></trkpt>
<trkpt lat="37.803470000" lon="-121.932550000"><ele>176.3</ele><time>2026-07-28T00:00:00Z</time></trkpt>
<trkpt lat="37.803562000" lon="-121.932550000"><ele>176.5</ele><time>2026-07-28T00:00:00Z</time></trkpt>
<trkpt lat="37.803654000" lon="-121.932540000"><ele>176.6</ele><time>2026-07-28T00:00:00Z</time></trkpt>
<trkpt lat="37.803745000" lon="-121.932550000"><ele>176.8</ele><time>2026-07-28T00:00:00Z</time></trkpt>
<trkpt lat="37.803825000" lon="-121.932560000"><ele>177.1</ele><time>2026-07-28T00:00:00Z</time></trkpt>
<trkpt lat="37.803917000" lon="-121.932580000"><ele>177.5</ele><time>2026-07-28T00:00:00Z</time></trkpt>
<trkpt lat="37.804005000" lon="-121.932580000"><ele>177.9</ele><time>2026-07-28T00:00:00Z</time></trkpt>
<trkpt lat="37.804080000" lon="-121.932520000"><ele>178.4</ele><time>2026-07-28T00:00:00Z</time></trkpt>
<trkpt lat="37.804173000" lon="-121.932500000"><ele>178.8</ele><time>2026-07-28T00:00:00Z</time></trkpt>
<trkpt lat="37.804260000" lon="-121.932540000"><ele>179.3</ele><time>2026-07-28T00:00:00Z</time></trkpt>
<trkpt lat="37.804337000" lon="-121.932556000"><ele>179.7</ele><time>2026-07-28T00:00:00Z</time></trkpt>
<trkpt lat="37.804424000" lon="-121.932600000"><ele>180.3</ele><time>2026-07-28T00:00:00Z</time></trkpt>
<trkpt lat="37.804500000" lon="-121.932650000"><ele>180.8</ele><time>2026-07-28T00:00:00Z</time></trkpt>
<trkpt lat="37.804580000" lon="-121.932700000"><ele>181.3</ele><time>2026-07-28T00:00:00Z</time></trkpt>
<trkpt lat="37.804657000" lon="-121.932750000"><ele>181.7</ele><time>2026-07-28T00:00:00Z</time></trkpt>
<trkpt lat="37.804733000" lon="-121.932790000"><ele>182.2</ele><time>2026-07-28T00:00:00Z</time></trkpt>
<trkpt lat="37.804810000" lon="-121.932850000"><ele>182.6</ele><time>2026-07-28T00:00:00Z</time></trkpt>
<trkpt lat="37.804874000" lon="-121.932940000"><ele>183.0</ele><time>2026-07-28T00:00:00Z</time></trkpt>
<trkpt lat="37.804935000" lon="-121.933010000"><ele>183.4</ele><time>2026-07-28T00:00:00Z</time></trkpt>
<trkpt lat="37.805000000" lon="-121.933075000"><ele>183.7</ele><time>2026-07-28T00:00:00Z</time></trkpt>
<trkpt lat="37.805060000" lon="-121.933150000"><ele>184.1</ele><time>2026-07-28T00:00:00Z</time></trkpt>
<trkpt lat="37.805160000" lon="-121.933140000"><ele>184.5</ele><time>2026-07-28T00:00:00Z</time></trkpt>
<trkpt lat="37.805218000" lon="-121.933220000"><ele>184.6</ele><time>2026-07-28T00:00:00Z</time></trkpt>
<trkpt lat="37.805280000" lon="-121.933300000"><ele>184.7</ele><time>2026-07-28T00:00:00Z</time></trkpt>
<trkpt lat="37.805347000" lon="-121.933350000"><ele>184.9</ele><time>2026-07-28T00:00:00Z</time></trkpt>
<trkpt lat="37.805410000" lon="-121.933430000"><ele>185.1</ele><time>2026-07-28T00:00:00Z</time></trkpt>
<trkpt lat="37.805460000" lon="-121.933525000"><ele>185.3</ele><time>2026-07-28T00:00:00Z</time></trkpt>
<trkpt lat="37.805520000" lon="-121.933620000"><ele>185.4</ele><time>2026-07-28T00:00:00Z</time></trkpt>
<trkpt lat="37.805573000" lon="-121.933700000"><ele>185.5</ele><time>2026-07-28T00:00:00Z</time></trkpt>
<trkpt lat="37.805634000" lon="-121.933780000"><ele>185.5</ele><time>2026-07-28T00:00:00Z</time></trkpt>
<trkpt lat="37.805683000" lon="-121.933870000"><ele>185.7</ele><time>2026-07-28T00:00:00Z</time></trkpt>
<trkpt lat="37.805725000" lon="-121.933975000"><ele>185.8</ele><time>2026-07-28T00:00:00Z</time></trkpt>
<trkpt lat="37.805680000" lon="-121.934060000"><ele>185.9</ele><time>2026-07-28T00:00:00Z</time></trkpt>
<trkpt lat="37.805710000" lon="-121.934166000"><ele>186.1</ele><time>2026-07-28T00:00:00Z</time></trkpt>
<trkpt lat="37.805780000" lon="-121.934240000"><ele>186.3</ele><time>2026-07-28T00:00:00Z</time></trkpt>
<trkpt lat="37.805820000" lon="-121.934330000"><ele>186.5</ele><time>2026-07-28T00:00:00Z</time></trkpt>
<trkpt lat="37.805870000" lon="-121.934420000"><ele>186.7</ele><time>2026-07-28T00:00:00Z</time></trkpt>
<trkpt lat="37.805904000" lon="-121.934520000"><ele>186.9</ele><time>2026-07-28T00:00:00Z</time></trkpt>
<trkpt lat="37.805950000" lon="-121.934600000"><ele>187.1</ele><time>2026-07-28T00:00:00Z</time></trkpt>
<trkpt lat="37.806030000" lon="-121.934654000"><ele>187.2</ele><time>2026-07-28T00:00:00Z</time></trkpt>
<trkpt lat="37.806107000" lon="-121.934630000"><ele>187.3</ele><time>2026-07-28T00:00:00Z</time></trkpt>
<trkpt lat="37.806187000" lon="-121.934586000"><ele>187.3</ele><time>2026-07-28T00:00:00Z</time></trkpt>
<trkpt lat="37.806267000" lon="-121.934550000"><ele>187.4</ele><time>2026-07-28T00:00:00Z</time></trkpt>
<trkpt lat="37.806213000" lon="-121.934650000"><ele>187.5</ele><time>2026-07-28T00:00:00Z</time></trkpt>
<trkpt lat="37.806130000" lon="-121.934685000"><ele>187.6</ele><time>2026-07-28T00:00:00Z</time></trkpt>
<trkpt lat="37.806053000" lon="-121.934720000"><ele>187.9</ele><time>2026-07-28T00:00:00Z</time></trkpt>
<trkpt lat="37.805980000" lon="-121.934784000"><ele>188.2</ele><time>2026-07-28T00:00:00Z</time></trkpt>
<trkpt lat="37.805973000" lon="-121.934900000"><ele>188.5</ele><time>2026-07-28T00:00:00Z</time></trkpt>
<trkpt lat="37.805992000" lon="-121.935005000"><ele>188.7</ele><time>2026-07-28T00:00:00Z</time></trkpt>
<trkpt lat="37.806000000" lon="-121.935120000"><ele>189.0</ele><time>2026-07-28T00:00:00Z</time></trkpt>
<trkpt lat="37.805996000" lon="-121.935234000"><ele>189.5</ele><time>2026-07-28T00:00:00Z</time></trkpt>
<trkpt lat="37.805970000" lon="-121.935330000"><ele>189.9</ele><time>2026-07-28T00:00:00Z</time></trkpt>
<trkpt lat="37.805950000" lon="-121.935440000"><ele>190.4</ele><time>2026-07-28T00:00:00Z</time></trkpt>
<trkpt lat="37.805943000" lon="-121.935550000"><ele>190.7</ele><time>2026-07-28T00:00:00Z</time></trkpt>
<trkpt lat="37.805935000" lon="-121.935650000"><ele>191.2</ele><time>2026-07-28T00:00:00Z</time></trkpt>
<trkpt lat="37.805927000" lon="-121.935760000"><ele>191.5</ele><time>2026-07-28T00:00:00Z</time></trkpt>
<trkpt lat="37.805923000" lon="-121.935880000"><ele>191.8</ele><time>2026-07-28T00:00:00Z</time></trkpt>
<trkpt lat="37.805910000" lon="-121.935990000"><ele>192.2</ele><time>2026-07-28T00:00:00Z</time></trkpt>
<trkpt lat="37.805910000" lon="-121.936104000"><ele>192.5</ele><time>2026-07-28T00:00:00Z</time></trkpt>
<trkpt lat="37.805900000" lon="-121.936210000"><ele>192.7</ele><time>2026-07-28T00:00:00Z</time></trkpt>
<trkpt lat="37.805890000" lon="-121.936325000"><ele>193.0</ele><time>2026-07-28T00:00:00Z</time></trkpt>
<trkpt lat="37.805880000" lon="-121.936440000"><ele>193.2</ele><time>2026-07-28T00:00:00Z</time></trkpt>
<trkpt lat="37.805870000" lon="-121.936550000"><ele>193.3</ele><time>2026-07-28T00:00:00Z</time></trkpt>
<trkpt lat="37.805870000" lon="-121.936650000"><ele>193.4</ele><time>2026-07-28T00:00:00Z</time></trkpt>
<trkpt lat="37.805860000" lon="-121.936760000"><ele>193.4</ele><time>2026-07-28T00:00:00Z</time></trkpt>
<trkpt lat="37.805790000" lon="-121.936810000"><ele>193.2</ele><time>2026-07-28T00:00:00Z</time></trkpt>
<trkpt lat="37.805710000" lon="-121.936760000"><ele>192.9</ele><time>2026-07-28T00:00:00Z</time></trkpt>
<trkpt lat="37.805630000" lon="-121.936730000"><ele>192.5</ele><time>2026-07-28T00:00:00Z</time></trkpt>
<trkpt lat="37.805546000" lon="-121.936760000"><ele>192.0</ele><time>2026-07-28T00:00:00Z</time></trkpt>
<trkpt lat="37.805496000" lon="-121.936844000"><ele>191.5</ele><time>2026-07-28T00:00:00Z</time></trkpt>
<trkpt lat="37.805412000" lon="-121.936890000"><ele>190.9</ele><time>2026-07-28T00:00:00Z</time></trkpt>
<trkpt lat="37.805330000" lon="-121.936910000"><ele>190.4</ele><time>2026-07-28T00:00:00Z</time></trkpt>
<trkpt lat="37.805240000" lon="-121.936890000"><ele>189.7</ele><time>2026-07-28T00:00:00Z</time></trkpt>
<trkpt lat="37.805153000" lon="-121.936880000"><ele>189.1</ele><time>2026-07-28T00:00:00Z</time></trkpt>
<trkpt lat="37.805065000" lon="-121.936890000"><ele>188.4</ele><time>2026-07-28T00:00:00Z</time></trkpt>
<trkpt lat="37.804974000" lon="-121.936920000"><ele>187.6</ele><time>2026-07-28T00:00:00Z</time></trkpt>
<trkpt lat="37.804882000" lon="-121.936900000"><ele>186.8</ele><time>2026-07-28T00:00:00Z</time></trkpt>
<trkpt lat="37.804817000" lon="-121.936840000"><ele>186.2</ele><time>2026-07-28T00:00:00Z</time></trkpt>
<trkpt lat="37.804745000" lon="-121.936780000"><ele>185.7</ele><time>2026-07-28T00:00:00Z</time></trkpt>
<trkpt lat="37.804665000" lon="-121.936730000"><ele>185.4</ele><time>2026-07-28T00:00:00Z</time></trkpt>
<trkpt lat="37.804577000" lon="-121.936690000"><ele>185.0</ele><time>2026-07-28T00:00:00Z</time></trkpt>
<trkpt lat="37.804500000" lon="-121.936630000"><ele>184.6</ele><time>2026-07-28T00:00:00Z</time></trkpt>
<trkpt lat="37.804577000" lon="-121.936590000"><ele>184.1</ele><time>2026-07-28T00:00:00Z</time></trkpt>
<trkpt lat="37.804665000" lon="-121.936584000"><ele>183.6</ele><time>2026-07-28T00:00:00Z</time></trkpt>
<trkpt lat="37.804760000" lon="-121.936590000"><ele>183.3</ele><time>2026-07-28T00:00:00Z</time></trkpt>
<trkpt lat="37.804848000" lon="-121.936580000"><ele>183.0</ele><time>2026-07-28T00:00:00Z</time></trkpt>
<trkpt lat="37.804928000" lon="-121.936520000"><ele>182.8</ele><time>2026-07-28T00:00:00Z</time></trkpt>
<trkpt lat="37.804950000" lon="-121.936410000"><ele>182.7</ele><time>2026-07-28T00:00:00Z</time></trkpt>
<trkpt lat="37.804977000" lon="-121.936300000"><ele>182.5</ele><time>2026-07-28T00:00:00Z</time></trkpt>
<trkpt lat="37.805000000" lon="-121.936190000"><ele>182.2</ele><time>2026-07-28T00:00:00Z</time></trkpt>
<trkpt lat="37.805020000" lon="-121.936070000"><ele>181.8</ele><time>2026-07-28T00:00:00Z</time></trkpt>
<trkpt lat="37.805027000" lon="-121.935974000"><ele>181.5</ele><time>2026-07-28T00:00:00Z</time></trkpt>
<trkpt lat="37.805030000" lon="-121.935870000"><ele>181.1</ele><time>2026-07-28T00:00:00Z</time></trkpt>
<trkpt lat="37.805040000" lon="-121.935750000"><ele>180.9</ele><time>2026-07-28T00:00:00Z</time></trkpt>
<trkpt lat="37.805054000" lon="-121.935640000"><ele>180.6</ele><time>2026-07-28T00:00:00Z</time></trkpt>
<trkpt lat="37.805065000" lon="-121.935530000"><ele>180.4</ele><time>2026-07-28T00:00:00Z</time></trkpt>
<trkpt lat="37.805060000" lon="-121.935420000"><ele>180.1</ele><time>2026-07-28T00:00:00Z</time></trkpt>
<trkpt lat="37.805065000" lon="-121.935295000"><ele>179.8</ele><time>2026-07-28T00:00:00Z</time></trkpt>
<trkpt lat="37.805058000" lon="-121.935180000"><ele>179.6</ele><time>2026-07-28T00:00:00Z</time></trkpt>
<trkpt lat="37.805042000" lon="-121.935060000"><ele>179.5</ele><time>2026-07-28T00:00:00Z</time></trkpt>
<trkpt lat="37.805023000" lon="-121.934940000"><ele>179.4</ele><time>2026-07-28T00:00:00Z</time></trkpt>
<trkpt lat="37.804996000" lon="-121.934840000"><ele>179.3</ele><time>2026-07-28T00:00:00Z</time></trkpt>
<trkpt lat="37.804955000" lon="-121.934746000"><ele>179.2</ele><time>2026-07-28T00:00:00Z</time></trkpt>
<trkpt lat="37.804913000" lon="-121.934640000"><ele>179.1</ele><time>2026-07-28T00:00:00Z</time></trkpt>
<trkpt lat="37.804863000" lon="-121.934540000"><ele>178.9</ele><time>2026-07-28T00:00:00Z</time></trkpt>
<trkpt lat="37.804790000" lon="-121.934460000"><ele>178.9</ele><time>2026-07-28T00:00:00Z</time></trkpt>
<trkpt lat="37.804737000" lon="-121.934370000"><ele>178.9</ele><time>2026-07-28T00:00:00Z</time></trkpt>
<trkpt lat="37.804680000" lon="-121.934280000"><ele>178.9</ele><time>2026-07-28T00:00:00Z</time></trkpt>
<trkpt lat="37.804610000" lon="-121.934204000"><ele>178.8</ele><time>2026-07-28T00:00:00Z</time></trkpt>
<trkpt lat="37.804540000" lon="-121.934120000"><ele>178.7</ele><time>2026-07-28T00:00:00Z</time></trkpt>
<trkpt lat="37.804470000" lon="-121.934040000"><ele>178.6</ele><time>2026-07-28T00:00:00Z</time></trkpt>
<trkpt lat="37.804410000" lon="-121.933970000"><ele>178.5</ele><time>2026-07-28T00:00:00Z</time></trkpt>
<trkpt lat="37.804340000" lon="-121.933890000"><ele>178.5</ele><time>2026-07-28T00:00:00Z</time></trkpt>
<trkpt lat="37.804270000" lon="-121.933815000"><ele>178.3</ele><time>2026-07-28T00:00:00Z</time></trkpt>
<trkpt lat="37.804207000" lon="-121.933750000"><ele>178.1</ele><time>2026-07-28T00:00:00Z</time></trkpt>
<trkpt lat="37.804146000" lon="-121.933655000"><ele>178.0</ele><time>2026-07-28T00:00:00Z</time></trkpt>
<trkpt lat="37.804085000" lon="-121.933560000"><ele>177.8</ele><time>2026-07-28T00:00:00Z</time></trkpt>
<trkpt lat="37.804040000" lon="-121.933470000"><ele>177.6</ele><time>2026-07-28T00:00:00Z</time></trkpt>
<trkpt lat="37.803997000" lon="-121.933360000"><ele>177.5</ele><time>2026-07-28T00:00:00Z</time></trkpt>
<trkpt lat="37.803980000" lon="-121.933260000"><ele>177.4</ele><time>2026-07-28T00:00:00Z</time></trkpt>
<trkpt lat="37.803967000" lon="-121.933160000"><ele>177.3</ele><time>2026-07-28T00:00:00Z</time></trkpt>
<trkpt lat="37.803944000" lon="-121.933040000"><ele>177.2</ele><time>2026-07-28T00:00:00Z</time></trkpt>
<trkpt lat="37.803940000" lon="-121.932920000"><ele>177.1</ele><time>2026-07-28T00:00:00Z</time></trkpt>
<trkpt lat="37.803950000" lon="-121.932800000"><ele>177.0</ele><time>2026-07-28T00:00:00Z</time></trkpt>
<trkpt lat="37.803963000" lon="-121.932686000"><ele>176.9</ele><time>2026-07-28T00:00:00Z</time></trkpt>
<trkpt lat="37.803950000" lon="-121.932560000"><ele>176.8</ele><time>2026-07-28T00:00:00Z</time></trkpt>
<trkpt lat="37.803910000" lon="-121.932465000"><ele>176.7</ele><time>2026-07-28T00:00:00Z</time></trkpt>
<trkpt lat="37.803814000" lon="-121.932440000"><ele>176.6</ele><time>2026-07-28T00:00:00Z</time></trkpt>
<trkpt lat="37.803734000" lon="-121.932434000"><ele>176.5</ele><time>2026-07-28T00:00:00Z</time></trkpt>
<trkpt lat="37.803640000" lon="-121.932434000"><ele>176.5</ele><time>2026-07-28T00:00:00Z</time></trkpt>
<trkpt lat="37.803555000" lon="-121.932434000"><ele>176.4</ele><time>2026-07-28T00:00:00Z</time></trkpt>
<trkpt lat="37.803467000" lon="-121.932434000"><ele>176.3</ele><time>2026-07-28T00:00:00Z</time></trkpt>
<trkpt lat="37.803383000" lon="-121.932440000"><ele>176.2</ele><time>2026-07-28T00:00:00Z</time></trkpt>
<trkpt lat="37.803300000" lon="-121.932450000"><ele>176.1</ele><time>2026-07-28T00:00:00Z</time></trkpt>
<trkpt lat="37.803204000" lon="-121.932450000"><ele>176.0</ele><time>2026-07-28T00:00:00Z</time></trkpt>
<trkpt lat="37.803123000" lon="-121.932460000"><ele>176.0</ele><time>2026-07-28T00:00:00Z</time></trkpt>
<trkpt lat="37.803040000" lon="-121.932470000"><ele>175.9</ele><time>2026-07-28T00:00:00Z</time></trkpt>
<trkpt lat="37.802963000" lon="-121.932495000"><ele>175.8</ele><time>2026-07-28T00:00:00Z</time></trkpt>
<trkpt lat="37.802880000" lon="-121.932510000"><ele>175.7</ele><time>2026-07-28T00:00:00Z</time></trkpt>
<trkpt lat="37.802800000" lon="-121.932530000"><ele>175.6</ele><time>2026-07-28T00:00:00Z</time></trkpt>
<trkpt lat="37.802708000" lon="-121.932530000"><ele>175.5</ele><time>2026-07-28T00:00:00Z</time></trkpt>
<trkpt lat="37.802610000" lon="-121.932520000"><ele>175.5</ele><time>2026-07-28T00:00:00Z</time></trkpt>
<trkpt lat="37.802544000" lon="-121.932434000"><ele>175.4</ele><time>2026-07-28T00:00:00Z</time></trkpt>
<trkpt lat="37.802536000" lon="-121.932335000"><ele>175.4</ele><time>2026-07-28T00:00:00Z</time></trkpt>
<trkpt lat="37.802517000" lon="-121.932220000"><ele>175.4</ele><time>2026-07-28T00:00:00Z</time></trkpt>
<trkpt lat="37.802498000" lon="-121.932100000"><ele>175.4</ele><time>2026-07-28T00:00:00Z</time></trkpt>
<trkpt lat="37.802456000" lon="-121.932000000"><ele>175.5</ele><time>2026-07-28T00:00:00Z</time></trkpt>
<trkpt lat="37.802460000" lon="-121.931890000"><ele>175.6</ele><time>2026-07-28T00:00:00Z</time></trkpt>
<trkpt lat="37.802467000" lon="-121.931780000"><ele>175.8</ele><time>2026-07-28T00:00:00Z</time></trkpt>
<trkpt lat="37.802490000" lon="-121.931680000"><ele>176.0</ele><time>2026-07-28T00:00:00Z</time></trkpt>
<trkpt lat="37.802547000" lon="-121.931590000"><ele>176.2</ele><time>2026-07-28T00:00:00Z</time></trkpt>
<trkpt lat="37.802624000" lon="-121.931540000"><ele>176.5</ele><time>2026-07-28T00:00:00Z</time></trkpt>
<trkpt lat="37.802690000" lon="-121.931470000"><ele>176.7</ele><time>2026-07-28T00:00:00Z</time></trkpt>
<trkpt lat="37.802750000" lon="-121.931380000"><ele>177.0</ele><time>2026-07-28T00:00:00Z</time></trkpt>
<trkpt lat="37.802807000" lon="-121.931300000"><ele>177.3</ele><time>2026-07-28T00:00:00Z</time></trkpt>
<trkpt lat="37.802860000" lon="-121.931220000"><ele>177.5</ele><time>2026-07-28T00:00:00Z</time></trkpt>
<trkpt lat="37.802930000" lon="-121.931145000"><ele>177.9</ele><time>2026-07-28T00:00:00Z</time></trkpt>
<trkpt lat="37.803005000" lon="-121.931080000"><ele>178.2</ele><time>2026-07-28T00:00:00Z</time></trkpt>
<trkpt lat="37.803080000" lon="-121.931140000"><ele>178.5</ele><time>2026-07-28T00:00:00Z</time></trkpt>
<trkpt lat="37.803143000" lon="-121.931210000"><ele>178.8</ele><time>2026-07-28T00:00:00Z</time></trkpt>
<trkpt lat="37.803215000" lon="-121.931260000"><ele>179.1</ele><time>2026-07-28T00:00:00Z</time></trkpt>
<trkpt lat="37.803295000" lon="-121.931330000"><ele>179.4</ele><time>2026-07-28T00:00:00Z</time></trkpt>
<trkpt lat="37.803380000" lon="-121.931360000"><ele>179.5</ele><time>2026-07-28T00:00:00Z</time></trkpt>
<trkpt lat="37.803460000" lon="-121.931400000"><ele>179.6</ele><time>2026-07-28T00:00:00Z</time></trkpt>
<trkpt lat="37.803550000" lon="-121.931404000"><ele>179.7</ele><time>2026-07-28T00:00:00Z</time></trkpt>
<trkpt lat="37.803460000" lon="-121.931390000"><ele>179.6</ele><time>2026-07-28T00:00:00Z</time></trkpt>
<trkpt lat="37.803375000" lon="-121.931335000"><ele>179.5</ele><time>2026-07-28T00:00:00Z</time></trkpt>
<trkpt lat="37.803310000" lon="-121.931270000"><ele>179.5</ele><time>2026-07-28T00:00:00Z</time></trkpt>
<trkpt lat="37.803250000" lon="-121.931180000"><ele>179.4</ele><time>2026-07-28T00:00:00Z</time></trkpt>
<trkpt lat="37.803185000" lon="-121.931110000"><ele>179.3</ele><time>2026-07-28T00:00:00Z</time></trkpt>
<trkpt lat="37.803123000" lon="-121.931030000"><ele>179.1</ele><time>2026-07-28T00:00:00Z</time></trkpt>
<trkpt lat="37.803100000" lon="-121.930916000"><ele>179.0</ele><time>2026-07-28T00:00:00Z</time></trkpt>
<trkpt lat="37.803173000" lon="-121.930855000"><ele>178.9</ele><time>2026-07-28T00:00:00Z</time></trkpt>
<trkpt lat="37.803220000" lon="-121.930760000"><ele>178.9</ele><time>2026-07-28T00:00:00Z</time></trkpt>
<trkpt lat="37.803270000" lon="-121.930670000"><ele>179.0</ele><time>2026-07-28T00:00:00Z</time></trkpt>
<trkpt lat="37.803314000" lon="-121.930570000"><ele>179.2</ele><time>2026-07-28T00:00:00Z</time></trkpt>
<trkpt lat="37.803345000" lon="-121.930470000"><ele>179.5</ele><time>2026-07-28T00:00:00Z</time></trkpt>
<trkpt lat="37.803406000" lon="-121.930390000"><ele>179.7</ele><time>2026-07-28T00:00:00Z</time></trkpt>
<trkpt lat="37.803440000" lon="-121.930290000"><ele>179.9</ele><time>2026-07-28T00:00:00Z</time></trkpt>
<trkpt lat="37.803480000" lon="-121.930190000"><ele>180.1</ele><time>2026-07-28T00:00:00Z</time></trkpt>
<trkpt lat="37.803500000" lon="-121.930084000"><ele>180.3</ele><time>2026-07-28T00:00:00Z</time></trkpt>
<trkpt lat="37.803555000" lon="-121.929990000"><ele>180.5</ele><time>2026-07-28T00:00:00Z</time></trkpt>
<trkpt lat="37.803593000" lon="-121.929890000"><ele>180.7</ele><time>2026-07-28T00:00:00Z</time></trkpt>
<trkpt lat="37.803630000" lon="-121.929790000"><ele>181.0</ele><time>2026-07-28T00:00:00Z</time></trkpt>
<trkpt lat="37.803673000" lon="-121.929690000"><ele>181.3</ele><time>2026-07-28T00:00:00Z</time></trkpt>
<trkpt lat="37.803700000" lon="-121.929570000"><ele>181.5</ele><time>2026-07-28T00:00:00Z</time></trkpt>
<trkpt lat="37.803726000" lon="-121.929470000"><ele>181.7</ele><time>2026-07-28T00:00:00Z</time></trkpt>
<trkpt lat="37.803750000" lon="-121.929350000"><ele>181.9</ele><time>2026-07-28T00:00:00Z</time></trkpt>
<trkpt lat="37.803772000" lon="-121.929245000"><ele>182.1</ele><time>2026-07-28T00:00:00Z</time></trkpt>
<trkpt lat="37.803790000" lon="-121.929130000"><ele>182.3</ele><time>2026-07-28T00:00:00Z</time></trkpt>
<trkpt lat="37.803810000" lon="-121.929010000"><ele>182.4</ele><time>2026-07-28T00:00:00Z</time></trkpt>
<trkpt lat="37.803810000" lon="-121.928910000"><ele>182.5</ele><time>2026-07-28T00:00:00Z</time></trkpt>
<trkpt lat="37.803806000" lon="-121.928800000"><ele>182.5</ele><time>2026-07-28T00:00:00Z</time></trkpt>
<trkpt lat="37.803818000" lon="-121.928680000"><ele>182.6</ele><time>2026-07-28T00:00:00Z</time></trkpt>
<trkpt lat="37.803818000" lon="-121.928566000"><ele>182.7</ele><time>2026-07-28T00:00:00Z</time></trkpt>
<trkpt lat="37.803852000" lon="-121.928470000"><ele>182.6</ele><time>2026-07-28T00:00:00Z</time></trkpt>
<trkpt lat="37.803776000" lon="-121.928430000"><ele>182.5</ele><time>2026-07-28T00:00:00Z</time></trkpt>
<trkpt lat="37.803696000" lon="-121.928480000"><ele>182.4</ele><time>2026-07-28T00:00:00Z</time></trkpt>
<trkpt lat="37.803630000" lon="-121.928560000"><ele>182.2</ele><time>2026-07-28T00:00:00Z</time></trkpt>
<trkpt lat="37.803540000" lon="-121.928580000"><ele>181.9</ele><time>2026-07-28T00:00:00Z</time></trkpt>
<trkpt lat="37.803444000" lon="-121.928566000"><ele>181.6</ele><time>2026-07-28T00:00:00Z</time></trkpt>
<trkpt lat="37.803356000" lon="-121.928560000"><ele>181.4</ele><time>2026-07-28T00:00:00Z</time></trkpt>
<trkpt lat="37.803260000" lon="-121.928535000"><ele>181.2</ele><time>2026-07-28T00:00:00Z</time></trkpt>
<trkpt lat="37.803165000" lon="-121.928540000"><ele>181.0</ele><time>2026-07-28T00:00:00Z</time></trkpt>
<trkpt lat="37.803080000" lon="-121.928530000"><ele>180.8</ele><time>2026-07-28T00:00:00Z</time></trkpt>
<trkpt lat="37.803005000" lon="-121.928480000"><ele>180.6</ele><time>2026-07-28T00:00:00Z</time></trkpt>
<trkpt lat="37.802990000" lon="-121.928380000"><ele>180.5</ele><time>2026-07-28T00:00:00Z</time></trkpt>
<trkpt lat="37.802994000" lon="-121.928276000"><ele>180.5</ele><time>2026-07-28T00:00:00Z</time></trkpt>
<trkpt lat="37.803005000" lon="-121.928160000"><ele>180.5</ele><time>2026-07-28T00:00:00Z</time></trkpt>
<trkpt lat="37.803055000" lon="-121.928060000"><ele>180.5</ele><time>2026-07-28T00:00:00Z</time></trkpt>
<trkpt lat="37.803116000" lon="-121.927990000"><ele>180.5</ele><time>2026-07-28T00:00:00Z</time></trkpt>
<trkpt lat="37.803207000" lon="-121.927970000"><ele>180.6</ele><time>2026-07-28T00:00:00Z</time></trkpt>
<trkpt lat="37.803284000" lon="-121.927930000"><ele>180.8</ele><time>2026-07-28T00:00:00Z</time></trkpt>
<trkpt lat="37.803364000" lon="-121.927890000"><ele>180.9</ele><time>2026-07-28T00:00:00Z</time></trkpt>
<trkpt lat="37.803444000" lon="-121.927850000"><ele>181.0</ele><time>2026-07-28T00:00:00Z</time></trkpt>
<trkpt lat="37.803528000" lon="-121.927820000"><ele>181.1</ele><time>2026-07-28T00:00:00Z</time></trkpt>
<trkpt lat="37.803608000" lon="-121.927765000"><ele>181.2</ele><time>2026-07-28T00:00:00Z</time></trkpt>
<trkpt lat="37.803680000" lon="-121.927720000"><ele>181.3</ele><time>2026-07-28T00:00:00Z</time></trkpt>
<trkpt lat="37.803760000" lon="-121.927670000"><ele>181.4</ele><time>2026-07-28T00:00:00Z</time></trkpt>
<trkpt lat="37.803852000" lon="-121.927640000"><ele>181.5</ele><time>2026-07-28T00:00:00Z</time></trkpt>
<trkpt lat="37.803930000" lon="-121.927605000"><ele>181.5</ele><time>2026-07-28T00:00:00Z</time></trkpt>
<trkpt lat="37.803978000" lon="-121.927505000"><ele>181.6</ele><time>2026-07-28T00:00:00Z</time></trkpt>
<trkpt lat="37.804010000" lon="-121.927390000"><ele>181.7</ele><time>2026-07-28T00:00:00Z</time></trkpt>
<trkpt lat="37.804000000" lon="-121.927280000"><ele>181.8</ele><time>2026-07-28T00:00:00Z</time></trkpt>
<trkpt lat="37.803974000" lon="-121.927170000"><ele>181.9</ele><time>2026-07-28T00:00:00Z</time></trkpt>
<trkpt lat="37.803900000" lon="-121.927086000"><ele>182.0</ele><time>2026-07-28T00:00:00Z</time></trkpt>
<trkpt lat="37.803806000" lon="-121.927086000"><ele>182.0</ele><time>2026-07-28T00:00:00Z</time></trkpt>
<trkpt lat="37.803720000" lon="-121.927086000"><ele>182.0</ele><time>2026-07-28T00:00:00Z</time></trkpt>
<trkpt lat="37.803630000" lon="-121.927086000"><ele>182.0</ele><time>2026-07-28T00:00:00Z</time></trkpt>
<trkpt lat="37.803540000" lon="-121.927086000"><ele>182.0</ele><time>2026-07-28T00:00:00Z</time></trkpt>
<trkpt lat="37.803450000" lon="-121.927086000"><ele>182.0</ele><time>2026-07-28T00:00:00Z</time></trkpt>
<trkpt lat="37.803368000" lon="-121.927130000"><ele>182.0</ele><time>2026-07-28T00:00:00Z</time></trkpt>
<trkpt lat="37.803284000" lon="-121.927160000"><ele>181.9</ele><time>2026-07-28T00:00:00Z</time></trkpt>
<trkpt lat="37.803226000" lon="-121.927246000"><ele>181.8</ele><time>2026-07-28T00:00:00Z</time></trkpt>
<trkpt lat="37.803257000" lon="-121.927350000"><ele>181.7</ele><time>2026-07-28T00:00:00Z</time></trkpt>
<trkpt lat="37.803270000" lon="-121.927460000"><ele>181.6</ele><time>2026-07-28T00:00:00Z</time></trkpt>
<trkpt lat="37.803307000" lon="-121.927570000"><ele>181.5</ele><time>2026-07-28T00:00:00Z</time></trkpt>
<trkpt lat="37.803326000" lon="-121.927666000"><ele>181.5</ele><time>2026-07-28T00:00:00Z</time></trkpt>
<trkpt lat="37.803350000" lon="-121.927780000"><ele>181.3</ele><time>2026-07-28T00:00:00Z</time></trkpt>
<trkpt lat="37.803340000" lon="-121.927895000"><ele>181.1</ele><time>2026-07-28T00:00:00Z</time></trkpt>
<trkpt lat="37.803257000" lon="-121.927956000"><ele>180.8</ele><time>2026-07-28T00:00:00Z</time></trkpt>
<trkpt lat="37.803170000" lon="-121.927990000"><ele>180.6</ele><time>2026-07-28T00:00:00Z</time></trkpt>
<trkpt lat="37.803093000" lon="-121.928050000"><ele>180.5</ele><time>2026-07-28T00:00:00Z</time></trkpt>
<trkpt lat="37.803047000" lon="-121.928150000"><ele>180.6</ele><time>2026-07-28T00:00:00Z</time></trkpt>
<trkpt lat="37.803032000" lon="-121.928250000"><ele>180.6</ele><time>2026-07-28T00:00:00Z</time></trkpt>
<trkpt lat="37.803055000" lon="-121.928360000"><ele>180.6</ele><time>2026-07-28T00:00:00Z</time></trkpt>
<trkpt lat="37.803093000" lon="-121.928470000"><ele>180.6</ele><time>2026-07-28T00:00:00Z</time></trkpt>
<trkpt lat="37.803143000" lon="-121.928560000"><ele>180.6</ele><time>2026-07-28T00:00:00Z</time></trkpt>
<trkpt lat="37.803165000" lon="-121.928670000"><ele>180.6</ele><time>2026-07-28T00:00:00Z</time></trkpt>
<trkpt lat="37.803185000" lon="-121.928790000"><ele>180.7</ele><time>2026-07-28T00:00:00Z</time></trkpt>
<trkpt lat="37.803204000" lon="-121.928894000"><ele>180.7</ele><time>2026-07-28T00:00:00Z</time></trkpt>
<trkpt lat="37.803220000" lon="-121.928990000"><ele>180.8</ele><time>2026-07-28T00:00:00Z</time></trkpt>
<trkpt lat="37.803230000" lon="-121.929115000"><ele>180.8</ele><time>2026-07-28T00:00:00Z</time></trkpt>
<trkpt lat="37.803234000" lon="-121.929230000"><ele>180.7</ele><time>2026-07-28T00:00:00Z</time></trkpt>
<trkpt lat="37.803230000" lon="-121.929340000"><ele>180.5</ele><time>2026-07-28T00:00:00Z</time></trkpt>
<trkpt lat="37.803207000" lon="-121.929450000"><ele>180.5</ele><time>2026-07-28T00:00:00Z</time></trkpt>
<trkpt lat="37.803180000" lon="-121.929565000"><ele>180.3</ele><time>2026-07-28T00:00:00Z</time></trkpt>
<trkpt lat="37.803146000" lon="-121.929665000"><ele>180.1</ele><time>2026-07-28T00:00:00Z</time></trkpt>
<trkpt lat="37.803104000" lon="-121.929770000"><ele>179.9</ele><time>2026-07-28T00:00:00Z</time></trkpt>
<trkpt lat="37.803066000" lon="-121.929870000"><ele>179.7</ele><time>2026-07-28T00:00:00Z</time></trkpt>
<trkpt lat="37.803017000" lon="-121.929955000"><ele>179.5</ele><time>2026-07-28T00:00:00Z</time></trkpt>
<trkpt lat="37.802960000" lon="-121.930046000"><ele>179.4</ele><time>2026-07-28T00:00:00Z</time></trkpt>
<trkpt lat="37.802910000" lon="-121.930145000"><ele>179.2</ele><time>2026-07-28T00:00:00Z</time></trkpt>
<trkpt lat="37.802853000" lon="-121.930240000"><ele>179.0</ele><time>2026-07-28T00:00:00Z</time></trkpt>
<trkpt lat="37.802803000" lon="-121.930310000"><ele>178.8</ele><time>2026-07-28T00:00:00Z</time></trkpt>
<trkpt lat="37.802746000" lon="-121.930410000"><ele>178.6</ele><time>2026-07-28T00:00:00Z</time></trkpt>
<trkpt lat="37.802690000" lon="-121.930504000"><ele>178.4</ele><time>2026-07-28T00:00:00Z</time></trkpt>
<trkpt lat="37.802635000" lon="-121.930595000"><ele>178.2</ele><time>2026-07-28T00:00:00Z</time></trkpt>
<trkpt lat="37.802578000" lon="-121.930670000"><ele>178.0</ele><time>2026-07-28T00:00:00Z</time></trkpt>
<trkpt lat="37.802525000" lon="-121.930770000"><ele>177.8</ele><time>2026-07-28T00:00:00Z</time></trkpt>
<trkpt lat="37.802475000" lon="-121.930870000"><ele>177.6</ele><time>2026-07-28T00:00:00Z</time></trkpt>
<trkpt lat="37.802425000" lon="-121.930970000"><ele>177.5</ele><time>2026-07-28T00:00:00Z</time></trkpt>
<trkpt lat="37.802370000" lon="-121.931070000"><ele>177.3</ele><time>2026-07-28T00:00:00Z</time></trkpt>
<trkpt lat="37.802326000" lon="-121.931160000"><ele>177.1</ele><time>2026-07-28T00:00:00Z</time></trkpt>
<trkpt lat="37.802254000" lon="-121.931230000"><ele>176.9</ele><time>2026-07-28T00:00:00Z</time></trkpt>
<trkpt lat="37.802210000" lon="-121.931335000"><ele>176.7</ele><time>2026-07-28T00:00:00Z</time></trkpt>
<trkpt lat="37.802143000" lon="-121.931400000"><ele>176.5</ele><time>2026-07-28T00:00:00Z</time></trkpt>
<trkpt lat="37.802063000" lon="-121.931460000"><ele>176.5</ele><time>2026-07-28T00:00:00Z</time></trkpt>
<trkpt lat="37.802000000" lon="-121.931520000"><ele>176.4</ele><time>2026-07-28T00:00:00Z</time></trkpt>
<trkpt lat="37.801920000" lon="-121.931590000"><ele>176.3</ele><time>2026-07-28T00:00:00Z</time></trkpt>
<trkpt lat="37.801853000" lon="-121.931656000"><ele>176.2</ele><time>2026-07-28T00:00:00Z</time></trkpt>
<trkpt lat="37.801780000" lon="-121.931720000"><ele>176.1</ele><time>2026-07-28T00:00:00Z</time></trkpt>
<trkpt lat="37.801716000" lon="-121.931800000"><ele>175.9</ele><time>2026-07-28T00:00:00Z</time></trkpt>
<trkpt lat="37.801697000" lon="-121.931910000"><ele>175.8</ele><time>2026-07-28T00:00:00Z</time></trkpt>
<trkpt lat="37.801685000" lon="-121.932020000"><ele>175.7</ele><time>2026-07-28T00:00:00Z</time></trkpt>
<trkpt lat="37.801674000" lon="-121.932130000"><ele>175.6</ele><time>2026-07-28T00:00:00Z</time></trkpt>
<trkpt lat="37.801666000" lon="-121.932250000"><ele>175.5</ele><time>2026-07-28T00:00:00Z</time></trkpt>
<trkpt lat="37.801660000" lon="-121.932365000"><ele>175.3</ele><time>2026-07-28T00:00:00Z</time></trkpt>
<trkpt lat="37.801650000" lon="-121.932470000"><ele>175.2</ele><time>2026-07-28T00:00:00Z</time></trkpt>
<trkpt lat="37.801643000" lon="-121.932590000"><ele>175.1</ele><time>2026-07-28T00:00:00Z</time></trkpt>
<trkpt lat="37.801620000" lon="-121.932710000"><ele>174.9</ele><time>2026-07-28T00:00:00Z</time></trkpt>
<trkpt lat="37.801598000" lon="-121.932820000"><ele>174.7</ele><time>2026-07-28T00:00:00Z</time></trkpt>
<trkpt lat="37.801598000" lon="-121.932930000"><ele>174.5</ele><time>2026-07-28T00:00:00Z</time></trkpt>
<trkpt lat="37.801674000" lon="-121.932870000"><ele>174.5</ele><time>2026-07-28T00:00:00Z</time></trkpt>
<trkpt lat="37.801750000" lon="-121.932840000"><ele>174.5</ele><time>2026-07-28T00:00:00Z</time></trkpt>
<trkpt lat="37.801846000" lon="-121.932810000"><ele>174.5</ele><time>2026-07-28T00:00:00Z</time></trkpt>
<trkpt lat="37.801933000" lon="-121.932780000"><ele>174.5</ele><time>2026-07-28T00:00:00Z</time></trkpt>
<trkpt lat="37.802010000" lon="-121.932740000"><ele>174.5</ele><time>2026-07-28T00:00:00Z</time></trkpt>
<trkpt lat="37.802082000" lon="-121.932690000"><ele>174.6</ele><time>2026-07-28T00:00:00Z</time></trkpt>
<trkpt lat="37.802160000" lon="-121.932630000"><ele>174.6</ele><time>2026-07-28T00:00:00Z</time></trkpt>
<trkpt lat="37.802250000" lon="-121.932620000"><ele>174.6</ele><time>2026-07-28T00:00:00Z</time></trkpt>
<trkpt lat="37.802340000" lon="-121.932600000"><ele>174.7</ele><time>2026-07-28T00:00:00Z</time></trkpt>
<trkpt lat="37.802420000" lon="-121.932590000"><ele>174.8</ele><time>2026-07-28T00:00:00Z</time></trkpt>
<trkpt lat="37.802500000" lon="-121.932550000"><ele>174.9</ele><time>2026-07-28T00:00:00Z</time></trkpt>
<trkpt lat="37.802536000" lon="-121.932440000"><ele>175.0</ele><time>2026-07-28T00:00:00Z</time></trkpt>
<trkpt lat="37.802544000" lon="-121.932330000"><ele>175.0</ele><time>2026-07-28T00:00:00Z</time></trkpt>
<trkpt lat="37.802525000" lon="-121.932210000"><ele>175.0</ele><time>2026-07-28T00:00:00Z</time></trkpt>
<trkpt lat="37.802486000" lon="-121.932106000"><ele>175.0</ele><time>2026-07-28T00:00:00Z</time></trkpt>
<trkpt lat="37.802486000" lon="-121.932076000"><ele>175.0</ele><time>2026-07-28T00:00:00Z</time></trkpt>
</trkseg>
</trk>
</gpx>
