<?xml version="1.0" encoding="UTF-8"?>
<gpx
  version="1.1"
  creator="Runkeeper - http://www.runkeeper.com"
  xmlns:xsi="http://www.w3.org/2001/XMLSchema-instance"
  xmlns="http://www.topografix.com/GPX/1/1"
  xsi:schemaLocation="http://www.topografix.com/GPX/1/1 http://www.topografix.com/GPX/1/1/gpx.xsd"
  xmlns:gpxtpx="http://www.garmin.com/xmlschemas/TrackPointExtension/v1">
<trk>
  <name><![CDATA[Walking 7/27/26]]></name>
  <time>2026-07-27T00:00:00Z</time>
<trkseg>
<trkpt lat="37.821182000" lon="-121.972340000"><ele>156.7</ele><time>2026-07-27T00:00:00Z</time></trkpt>
<trkpt lat="37.821136000" lon="-121.972250000"><ele>156.4</ele><time>2026-07-27T00:00:00Z</time></trkpt>
<trkpt lat="37.821136000" lon="-121.972145000"><ele>156.4</ele><time>2026-07-27T00:00:00Z</time></trkpt>
<trkpt lat="37.821114000" lon="-121.972040000"><ele>156.3</ele><time>2026-07-27T00:00:00Z</time></trkpt>
<trkpt lat="37.821090000" lon="-121.971924000"><ele>156.3</ele><time>2026-07-27T00:00:00Z</time></trkpt>
<trkpt lat="37.821068000" lon="-121.971820000"><ele>156.3</ele><time>2026-07-27T00:00:00Z</time></trkpt>
<trkpt lat="37.821045000" lon="-121.971700000"><ele>156.2</ele><time>2026-07-27T00:00:00Z</time></trkpt>
<trkpt lat="37.821000000" lon="-121.971620000"><ele>156.3</ele><time>2026-07-27T00:00:00Z</time></trkpt>
<trkpt lat="37.820984000" lon="-121.971510000"><ele>156.4</ele><time>2026-07-27T00:00:00Z</time></trkpt>
<trkpt lat="37.820965000" lon="-121.971405000"><ele>156.6</ele><time>2026-07-27T00:00:00Z</time></trkpt>
<trkpt lat="37.820946000" lon="-121.971306000"><ele>157.0</ele><time>2026-07-27T00:00:00Z</time></trkpt>
<trkpt lat="37.820915000" lon="-121.971190000"><ele>157.5</ele><time>2026-07-27T00:00:00Z</time></trkpt>
<trkpt lat="37.820885000" lon="-121.971090000"><ele>158.0</ele><time>2026-07-27T00:00:00Z</time></trkpt>
<trkpt lat="37.820854000" lon="-121.970980000"><ele>158.5</ele><time>2026-07-27T00:00:00Z</time></trkpt>
<trkpt lat="37.820827000" lon="-121.970890000"><ele>159.1</ele><time>2026-07-27T00:00:00Z</time></trkpt>
<trkpt lat="37.820790000" lon="-121.970780000"><ele>159.6</ele><time>2026-07-27T00:00:00Z</time></trkpt>
<trkpt lat="37.820740000" lon="-121.970680000"><ele>160.2</ele><time>2026-07-27T00:00:00Z</time></trkpt>
<trkpt lat="37.820698000" lon="-121.970590000"><ele>160.7</ele><time>2026-07-27T00:00:00Z</time></trkpt>
<trkpt lat="37.820650000" lon="-121.970500000"><ele>161.2</ele><time>2026-07-27T00:00:00Z</time></trkpt>
<trkpt lat="37.820600000" lon="-121.970406000"><ele>161.6</ele><time>2026-07-27T00:00:00Z</time></trkpt>
<trkpt lat="37.820530000" lon="-121.970330000"><ele>162.0</ele><time>2026-07-27T00:00:00Z</time></trkpt>
<trkpt lat="37.820465000" lon="-121.970260000"><ele>162.3</ele><time>2026-07-27T00:00:00Z</time></trkpt>
<trkpt lat="37.820404000" lon="-121.970180000"><ele>162.5</ele><time>2026-07-27T00:00:00Z</time></trkpt>
<trkpt lat="37.820360000" lon="-121.970080000"><ele>162.5</ele><time>2026-07-27T00:00:00Z</time></trkpt>
<trkpt lat="37.820312000" lon="-121.969986000"><ele>162.5</ele><time>2026-07-27T00:00:00Z</time></trkpt>
<trkpt lat="37.820280000" lon="-121.969890000"><ele>162.5</ele><time>2026-07-27T00:00:00Z</time></trkpt>
<trkpt lat="37.820267000" lon="-121.969780000"><ele>162.5</ele><time>2026-07-27T00:00:00Z</time></trkpt>
<trkpt lat="37.820220000" lon="-121.969690000"><ele>162.4</ele><time>2026-07-27T00:00:00Z</time></trkpt>
<trkpt lat="37.820230000" lon="-121.969574000"><ele>162.2</ele><time>2026-07-27T00:00:00Z</time></trkpt>
<trkpt lat="37.820240000" lon="-121.969460000"><ele>162.0</ele><time>2026-07-27T00:00:00Z</time></trkpt>
<trkpt lat="37.820260000" lon="-121.969350000"><ele>161.8</ele><time>2026-07-27T00:00:00Z</time></trkpt>
<trkpt lat="37.820297000" lon="-121.969250000"><ele>161.6</ele><time>2026-07-27T00:00:00Z</time></trkpt>
<trkpt lat="37.820316000" lon="-121.969150000"><ele>161.4</ele><time>2026-07-27T00:00:00Z</time></trkpt>
<trkpt lat="37.820340000" lon="-121.969050000"><ele>161.1</ele><time>2026-07-27T00:00:00Z</time></trkpt>
<trkpt lat="37.820354000" lon="-121.968940000"><ele>160.9</ele><time>2026-07-27T00:00:00Z</time></trkpt>
<trkpt lat="37.820366000" lon="-121.968834000"><ele>160.7</ele><time>2026-07-27T00:00:00Z</time></trkpt>
<trkpt lat="37.820374000" lon="-121.968730000"><ele>160.6</ele><time>2026-07-27T00:00:00Z</time></trkpt>
<trkpt lat="37.820370000" lon="-121.968610000"><ele>160.6</ele><time>2026-07-27T00:00:00Z</time></trkpt>
<trkpt lat="37.820354000" lon="-121.968500000"><ele>160.7</ele><time>2026-07-27T00:00:00Z</time></trkpt>
<trkpt lat="37.820385000" lon="-121.968380000"><ele>160.9</ele><time>2026-07-27T00:00:00Z</time></trkpt>
<trkpt lat="37.820440000" lon="-121.968290000"><ele>161.1</ele><time>2026-07-27T00:00:00Z</time></trkpt>
<trkpt lat="37.820515000" lon="-121.968240000"><ele>161.4</ele><time>2026-07-27T00:00:00Z</time></trkpt>
<trkpt lat="37.820600000" lon="-121.968254000"><ele>161.6</ele><time>2026-07-27T00:00:00Z</time></trkpt>
<trkpt lat="37.820670000" lon="-121.968190000"><ele>162.0</ele><time>2026-07-27T00:00:00Z</time></trkpt>
<trkpt lat="37.820755000" lon="-121.968180000"><ele>162.3</ele><time>2026-07-27T00:00:00Z</time></trkpt>
<trkpt lat="37.820840000" lon="-121.968155000"><ele>162.5</ele><time>2026-07-27T00:00:00Z</time></trkpt>
<trkpt lat="37.820915000" lon="-121.968124000"><ele>162.7</ele><time>2026-07-27T00:00:00Z</time></trkpt>
<trkpt lat="37.821000000" lon="-121.968120000"><ele>162.7</ele><time>2026-07-27T00:00:00Z</time></trkpt>
<trkpt lat="37.820923000" lon="-121.968180000"><ele>162.7</ele><time>2026-07-27T00:00:00Z</time></trkpt>
<trkpt lat="37.820840000" lon="-121.968180000"><ele>162.5</ele><time>2026-07-27T00:00:00Z</time></trkpt>
<trkpt lat="37.820760000" lon="-121.968170000"><ele>162.2</ele><time>2026-07-27T00:00:00Z</time></trkpt>
<trkpt lat="37.820667000" lon="-121.968170000"><ele>161.8</ele><time>2026-07-27T00:00:00Z</time></trkpt>
<trkpt lat="37.820580000" lon="-121.968155000"><ele>161.3</ele><time>2026-07-27T00:00:00Z</time></trkpt>
<trkpt lat="37.820507000" lon="-121.968110000"><ele>160.7</ele><time>2026-07-27T00:00:00Z</time></trkpt>
<trkpt lat="37.820420000" lon="-121.968130000"><ele>160.1</ele><time>2026-07-27T00:00:00Z</time></trkpt>
<trkpt lat="37.820354000" lon="-121.968210000"><ele>159.5</ele><time>2026-07-27T00:00:00Z</time></trkpt>
<trkpt lat="37.820274000" lon="-121.968250000"><ele>158.9</ele><time>2026-07-27T00:00:00Z</time></trkpt>
<trkpt lat="37.820194000" lon="-121.968230000"><ele>158.3</ele><time>2026-07-27T00:00:00Z</time></trkpt>
<trkpt lat="37.820103000" lon="-121.968220000"><ele>157.6</ele><time>2026-07-27T00:00:00Z</time></trkpt>
<trkpt lat="37.820020000" lon="-121.968216000"><ele>156.9</ele><time>2026-07-27T00:00:00Z</time></trkpt>
<trkpt lat="37.819940000" lon="-121.968230000"><ele>156.3</ele><time>2026-07-27T00:00:00Z</time></trkpt>
<trkpt lat="37.819855000" lon="-121.968250000"><ele>155.6</ele><time>2026-07-27T00:00:00Z</time></trkpt>
<trkpt lat="37.819763000" lon="-121.968280000"><ele>154.9</ele><time>2026-07-27T00:00:00Z</time></trkpt>
<trkpt lat="37.819670000" lon="-121.968250000"><ele>154.3</ele><time>2026-07-27T00:00:00Z</time></trkpt>
<trkpt lat="37.819580000" lon="-121.968254000"><ele>153.5</ele><time>2026-07-27T00:00:00Z</time></trkpt>
<trkpt lat="37.819510000" lon="-121.968315000"><ele>152.9</ele><time>2026-07-27T00:00:00Z</time></trkpt>
<trkpt lat="37.819443000" lon="-121.968376000"><ele>152.2</ele><time>2026-07-27T00:00:00Z</time></trkpt>
<trkpt lat="37.819397000" lon="-121.968475000"><ele>151.5</ele><time>2026-07-27T00:00:00Z</time></trkpt>
<trkpt lat="37.819355000" lon="-121.968570000"><ele>150.9</ele><time>2026-07-27T00:00:00Z</time></trkpt>
<trkpt lat="37.819324000" lon="-121.968680000"><ele>150.3</ele><time>2026-07-27T00:00:00Z</time></trkpt>
<trkpt lat="37.819300000" lon="-121.968790000"><ele>149.6</ele><time>2026-07-27T00:00:00Z</time></trkpt>
<trkpt lat="37.819280000" lon="-121.968895000"><ele>149.0</ele><time>2026-07-27T00:00:00Z</time></trkpt>
<trkpt lat="37.819240000" lon="-121.968994000"><ele>148.5</ele><time>2026-07-27T00:00:00Z</time></trkpt>
<trkpt lat="37.819187000" lon="-121.969090000"><ele>147.9</ele><time>2026-07-27T00:00:00Z</time></trkpt>
<trkpt lat="37.819183000" lon="-121.969200000"><ele>147.4</ele><time>2026-07-27T00:00:00Z</time></trkpt>
<trkpt lat="37.819160000" lon="-121.969315000"><ele>146.8</ele><time>2026-07-27T00:00:00Z</time></trkpt>
<trkpt lat="37.819134000" lon="-121.969420000"><ele>146.3</ele><time>2026-07-27T00:00:00Z</time></trkpt>
<trkpt lat="37.819096000" lon="-121.969530000"><ele>145.7</ele><time>2026-07-27T00:00:00Z</time></trkpt>
<trkpt lat="37.819070000" lon="-121.969640000"><ele>145.2</ele><time>2026-07-27T00:00:00Z</time></trkpt>
<trkpt lat="37.819027000" lon="-121.969750000"><ele>144.6</ele><time>2026-07-27T00:00:00Z</time></trkpt>
<trkpt lat="37.818990000" lon="-121.969840000"><ele>144.2</ele><time>2026-07-27T00:00:00Z</time></trkpt>
<trkpt lat="37.818940000" lon="-121.969950000"><ele>143.8</ele><time>2026-07-27T00:00:00Z</time></trkpt>
<trkpt lat="37.818886000" lon="-121.970050000"><ele>143.4</ele><time>2026-07-27T00:00:00Z</time></trkpt>
<trkpt lat="37.818820000" lon="-121.970116000"><ele>142.8</ele><time>2026-07-27T00:00:00Z</time></trkpt>
<trkpt lat="37.818733000" lon="-121.970090000"><ele>142.2</ele><time>2026-07-27T00:00:00Z</time></trkpt>
<trkpt lat="37.818672000" lon="-121.970024000"><ele>141.5</ele><time>2026-07-27T00:00:00Z</time></trkpt>
<trkpt lat="37.818600000" lon="-121.969970000"><ele>140.9</ele><time>2026-07-27T00:00:00Z</time></trkpt>
<trkpt lat="37.818512000" lon="-121.969940000"><ele>140.2</ele><time>2026-07-27T00:00:00Z</time></trkpt>
<trkpt lat="37.818428000" lon="-121.969920000"><ele>139.5</ele><time>2026-07-27T00:00:00Z</time></trkpt>
<trkpt lat="37.818344000" lon="-121.969900000"><ele>138.8</ele><time>2026-07-27T00:00:00Z</time></trkpt>
<trkpt lat="37.818264000" lon="-121.969894000"><ele>138.3</ele><time>2026-07-27T00:00:00Z</time></trkpt>
<trkpt lat="37.818180000" lon="-121.969890000"><ele>137.7</ele><time>2026-07-27T00:00:00Z</time></trkpt>
<trkpt lat="37.818090000" lon="-121.969864000"><ele>137.3</ele><time>2026-07-27T00:00:00Z</time></trkpt>
<trkpt lat="37.818066000" lon="-121.969750000"><ele>137.0</ele><time>2026-07-27T00:00:00Z</time></trkpt>
<trkpt lat="37.818090000" lon="-121.969635000"><ele>136.8</ele><time>2026-07-27T00:00:00Z</time></trkpt>
<trkpt lat="37.818077000" lon="-121.969520000"><ele>136.9</ele><time>2026-07-27T00:00:00Z</time></trkpt>
<trkpt lat="37.818104000" lon="-121.969410000"><ele>137.0</ele><time>2026-07-27T00:00:00Z</time></trkpt>
<trkpt lat="37.818127000" lon="-121.969315000"><ele>137.2</ele><time>2026-07-27T00:00:00Z</time></trkpt>
<trkpt lat="37.818146000" lon="-121.969210000"><ele>137.5</ele><time>2026-07-27T00:00:00Z</time></trkpt>
<trkpt lat="37.818170000" lon="-121.969090000"><ele>137.9</ele><time>2026-07-27T00:00:00Z</time></trkpt>
<trkpt lat="37.818160000" lon="-121.968990000"><ele>138.3</ele><time>2026-07-27T00:00:00Z</time></trkpt>
<trkpt lat="37.818172000" lon="-121.968870000"><ele>138.6</ele><time>2026-07-27T00:00:00Z</time></trkpt>
<trkpt lat="37.818180000" lon="-121.968750000"><ele>139.0</ele><time>2026-07-27T00:00:00Z</time></trkpt>
<trkpt lat="37.818200000" lon="-121.968650000"><ele>139.3</ele><time>2026-07-27T00:00:00Z</time></trkpt>
<trkpt lat="37.818226000" lon="-121.968544000"><ele>139.5</ele><time>2026-07-27T00:00:00Z</time></trkpt>
<trkpt lat="37.818253000" lon="-121.968440000"><ele>139.7</ele><time>2026-07-27T00:00:00Z</time></trkpt>
<trkpt lat="37.818270000" lon="-121.968330000"><ele>139.9</ele><time>2026-07-27T00:00:00Z</time></trkpt>
<trkpt lat="37.818302000" lon="-121.968216000"><ele>140.0</ele><time>2026-07-27T00:00:00Z</time></trkpt>
<trkpt lat="37.818320000" lon="-121.968110000"><ele>140.1</ele><time>2026-07-27T00:00:00Z</time></trkpt>
<trkpt lat="37.818363000" lon="-121.968020000"><ele>140.2</ele><time>2026-07-27T00:00:00Z</time></trkpt>
<trkpt lat="37.818400000" lon="-121.967926000"><ele>140.2</ele><time>2026-07-27T00:00:00Z</time></trkpt>
<trkpt lat="37.818436000" lon="-121.968020000"><ele>140.2</ele><time>2026-07-27T00:00:00Z</time></trkpt>
<trkpt lat="37.818405000" lon="-121.968130000"><ele>140.2</ele><time>2026-07-27T00:00:00Z</time></trkpt>
<trkpt lat="37.818375000" lon="-121.968230000"><ele>140.1</ele><time>2026-07-27T00:00:00Z</time></trkpt>
<trkpt lat="37.818356000" lon="-121.968346000"><ele>140.0</ele><time>2026-07-27T00:00:00Z</time></trkpt>
<trkpt lat="37.818333000" lon="-121.968445000"><ele>139.9</ele><time>2026-07-27T00:00:00Z</time></trkpt>
<trkpt lat="37.818300000" lon="-121.968544000"><ele>139.6</ele><time>2026-07-27T00:00:00Z</time></trkpt>
<trkpt lat="37.818270000" lon="-121.968640000"><ele>139.4</ele><time>2026-07-27T00:00:00Z</time></trkpt>
<trkpt lat="37.818260000" lon="-121.968765000"><ele>139.1</ele><time>2026-07-27T00:00:00Z</time></trkpt>
<trkpt lat="37.818233000" lon="-121.968880000"><ele>138.7</ele><time>2026-07-27T00:00:00Z</time></trkpt>
<trkpt lat="37.818230000" lon="-121.968990000"><ele>138.4</ele><time>2026-07-27T00:00:00Z</time></trkpt>
<trkpt lat="37.818237000" lon="-121.969100000"><ele>138.0</ele><time>2026-07-27T00:00:00Z</time></trkpt>
<trkpt lat="37.818220000" lon="-121.969215000"><ele>137.5</ele><time>2026-07-27T00:00:00Z</time></trkpt>
<trkpt lat="37.818203000" lon="-121.969330000"><ele>137.1</ele><time>2026-07-27T00:00:00Z</time></trkpt>
<trkpt lat="37.818172000" lon="-121.969440000"><ele>136.7</ele><time>2026-07-27T00:00:00Z</time></trkpt>
<trkpt lat="37.818146000" lon="-121.969550000"><ele>136.3</ele><time>2026-07-27T00:00:00Z</time></trkpt>
<trkpt lat="37.818104000" lon="-121.969660000"><ele>135.8</ele><time>2026-07-27T00:00:00Z</time></trkpt>
<trkpt lat="37.818043000" lon="-121.969740000"><ele>135.5</ele><time>2026-07-27T00:00:00Z</time></trkpt>
<trkpt lat="37.817960000" lon="-121.969790000"><ele>135.1</ele><time>2026-07-27T00:00:00Z</time></trkpt>
<trkpt lat="37.817870000" lon="-121.969770000"><ele>134.7</ele><time>2026-07-27T00:00:00Z</time></trkpt>
<trkpt lat="37.817790000" lon="-121.969710000"><ele>134.5</ele><time>2026-07-27T00:00:00Z</time></trkpt>
<trkpt lat="37.817726000" lon="-121.969630000"><ele>134.2</ele><time>2026-07-27T00:00:00Z</time></trkpt>
<trkpt lat="37.817677000" lon="-121.969536000"><ele>133.9</ele><time>2026-07-27T00:00:00Z</time></trkpt>
<trkpt lat="37.817593000" lon="-121.969480000"><ele>133.7</ele><time>2026-07-27T00:00:00Z</time></trkpt>
<trkpt lat="37.817540000" lon="-121.969390000"><ele>133.5</ele><time>2026-07-27T00:00:00Z</time></trkpt>
<trkpt lat="37.817490000" lon="-121.969284000"><ele>133.2</ele><time>2026-07-27T00:00:00Z</time></trkpt>
<trkpt lat="37.817460000" lon="-121.969185000"><ele>133.0</ele><time>2026-07-27T00:00:00Z</time></trkpt>
<trkpt lat="37.817420000" lon="-121.969070000"><ele>132.8</ele><time>2026-07-27T00:00:00Z</time></trkpt>
<trkpt lat="37.817394000" lon="-121.968970000"><ele>132.7</ele><time>2026-07-27T00:00:00Z</time></trkpt>
<trkpt lat="37.817360000" lon="-121.968864000"><ele>132.6</ele><time>2026-07-27T00:00:00Z</time></trkpt>
<trkpt lat="37.817326000" lon="-121.968765000"><ele>132.6</ele><time>2026-07-27T00:00:00Z</time></trkpt>
<trkpt lat="37.817295000" lon="-121.968666000"><ele>132.7</ele><time>2026-07-27T00:00:00Z</time></trkpt>
<trkpt lat="37.817257000" lon="-121.968560000"><ele>132.8</ele><time>2026-07-27T00:00:00Z</time></trkpt>
<trkpt lat="37.817226000" lon="-121.968460000"><ele>132.9</ele><time>2026-07-27T00:00:00Z</time></trkpt>
<trkpt lat="37.817192000" lon="-121.968350000"><ele>133.0</ele><time>2026-07-27T00:00:00Z</time></trkpt>
<trkpt lat="37.817177000" lon="-121.968250000"><ele>133.2</ele><time>2026-07-27T00:00:00Z</time></trkpt>
<trkpt lat="37.817160000" lon="-121.968140000"><ele>133.5</ele><time>2026-07-27T00:00:00Z</time></trkpt>
<trkpt lat="37.817142000" lon="-121.968030000"><ele>133.7</ele><time>2026-07-27T00:00:00Z</time></trkpt>
<trkpt lat="37.817154000" lon="-121.967920000"><ele>134.1</ele><time>2026-07-27T00:00:00Z</time></trkpt>
<trkpt lat="37.817146000" lon="-121.967804000"><ele>134.4</ele><time>2026-07-27T00:00:00Z</time></trkpt>
<trkpt lat="37.817154000" lon="-121.967700000"><ele>134.7</ele><time>2026-07-27T00:00:00Z</time></trkpt>
<trkpt lat="37.817154000" lon="-121.967590000"><ele>135.1</ele><time>2026-07-27T00:00:00Z</time></trkpt>
<trkpt lat="37.817150000" lon="-121.967480000"><ele>135.5</ele><time>2026-07-27T00:00:00Z</time></trkpt>
<trkpt lat="37.817135000" lon="-121.967360000"><ele>135.7</ele><time>2026-07-27T00:00:00Z</time></trkpt>
<trkpt lat="37.817127000" lon="-121.967240000"><ele>136.0</ele><time>2026-07-27T00:00:00Z</time></trkpt>
<trkpt lat="37.817116000" lon="-121.967125000"><ele>136.2</ele><time>2026-07-27T00:00:00Z</time></trkpt>
<trkpt lat="37.817116000" lon="-121.967020000"><ele>136.5</ele><time>2026-07-27T00:00:00Z</time></trkpt>
<trkpt lat="37.817085000" lon="-121.966910000"><ele>136.6</ele><time>2026-07-27T00:00:00Z</time></trkpt>
<trkpt lat="37.817055000" lon="-121.966800000"><ele>136.8</ele><time>2026-07-27T00:00:00Z</time></trkpt>
<trkpt lat="37.817010000" lon="-121.966700000"><ele>136.9</ele><time>2026-07-27T00:00:00Z</time></trkpt>
<trkpt lat="37.816970000" lon="-121.966600000"><ele>137.0</ele><time>2026-07-27T00:00:00Z</time></trkpt>
<trkpt lat="37.816940000" lon="-121.966500000"><ele>137.0</ele><time>2026-07-27T00:00:00Z</time></trkpt>
<trkpt lat="37.816910000" lon="-121.966410000"><ele>137.0</ele><time>2026-07-27T00:00:00Z</time></trkpt>
<trkpt lat="37.816870000" lon="-121.966300000"><ele>136.9</ele><time>2026-07-27T00:00:00Z</time></trkpt>
<trkpt lat="37.816837000" lon="-121.966210000"><ele>136.9</ele><time>2026-07-27T00:00:00Z</time></trkpt>
<trkpt lat="37.816807000" lon="-121.966110000"><ele>136.9</ele><time>2026-07-27T00:00:00Z</time></trkpt>
<trkpt lat="37.816790000" lon="-121.966000000"><ele>137.0</ele><time>2026-07-27T00:00:00Z</time></trkpt>
<trkpt lat="37.816790000" lon="-121.965890000"><ele>137.0</ele><time>2026-07-27T00:00:00Z</time></trkpt>
<trkpt lat="37.816710000" lon="-121.965880000"><ele>137.0</ele><time>2026-07-27T00:00:00Z</time></trkpt>
<trkpt lat="37.816710000" lon="-121.965996000"><ele>137.0</ele><time>2026-07-27T00:00:00Z</time></trkpt>
<trkpt lat="37.816734000" lon="-121.966110000"><ele>136.9</ele><time>2026-07-27T00:00:00Z</time></trkpt>
<trkpt lat="37.816760000" lon="-121.966225000"><ele>136.8</ele><time>2026-07-27T00:00:00Z</time></trkpt>
<trkpt lat="37.816795000" lon="-121.966340000"><ele>136.7</ele><time>2026-07-27T00:00:00Z</time></trkpt>
<trkpt lat="37.816830000" lon="-121.966446000"><ele>136.6</ele><time>2026-07-27T00:00:00Z</time></trkpt>
<trkpt lat="37.816840000" lon="-121.966550000"><ele>136.5</ele><time>2026-07-27T00:00:00Z</time></trkpt>
<trkpt lat="37.816895000" lon="-121.966630000"><ele>136.4</ele><time>2026-07-27T00:00:00Z</time></trkpt>
<trkpt lat="37.816936000" lon="-121.966736000"><ele>136.2</ele><time>2026-07-27T00:00:00Z</time></trkpt>
<trkpt lat="37.816963000" lon="-121.966840000"><ele>135.9</ele><time>2026-07-27T00:00:00Z</time></trkpt>
<trkpt lat="37.816967000" lon="-121.966950000"><ele>135.6</ele><time>2026-07-27T00:00:00Z</time></trkpt>
<trkpt lat="37.816990000" lon="-121.967060000"><ele>135.4</ele><time>2026-07-27T00:00:00Z</time></trkpt>
<trkpt lat="37.817010000" lon="-121.967160000"><ele>135.1</ele><time>2026-07-27T00:00:00Z</time></trkpt>
<trkpt lat="37.817028000" lon="-121.967280000"><ele>134.9</ele><time>2026-07-27T00:00:00Z</time></trkpt>
<trkpt lat="37.817040000" lon="-121.967390000"><ele>134.7</ele><time>2026-07-27T00:00:00Z</time></trkpt>
<trkpt lat="37.817050000" lon="-121.967510000"><ele>134.5</ele><time>2026-07-27T00:00:00Z</time></trkpt>
<trkpt lat="37.817055000" lon="-121.967610000"><ele>134.4</ele><time>2026-07-27T00:00:00Z</time></trkpt>
<trkpt lat="37.817062000" lon="-121.967735000"><ele>134.1</ele><time>2026-07-27T00:00:00Z</time></trkpt>
<trkpt lat="37.817066000" lon="-121.967834000"><ele>133.9</ele><time>2026-07-27T00:00:00Z</time></trkpt>
<trkpt lat="37.817074000" lon="-121.967940000"><ele>133.7</ele><time>2026-07-27T00:00:00Z</time></trkpt>
<trkpt lat="37.817080000" lon="-121.968056000"><ele>133.5</ele><time>2026-07-27T00:00:00Z</time></trkpt>
<trkpt lat="37.817097000" lon="-121.968170000"><ele>133.4</ele><time>2026-07-27T00:00:00Z</time></trkpt>
<trkpt lat="37.817123000" lon="-121.968280000"><ele>133.2</ele><time>2026-07-27T00:00:00Z</time></trkpt>
<trkpt lat="37.817142000" lon="-121.968380000"><ele>133.0</ele><time>2026-07-27T00:00:00Z</time></trkpt>
<trkpt lat="37.817173000" lon="-121.968480000"><ele>132.9</ele><time>2026-07-27T00:00:00Z</time></trkpt>
<trkpt lat="37.817200000" lon="-121.968600000"><ele>132.8</ele><time>2026-07-27T00:00:00Z</time></trkpt>
<trkpt lat="37.817230000" lon="-121.968704000"><ele>132.7</ele><time>2026-07-27T00:00:00Z</time></trkpt>
<trkpt lat="37.817270000" lon="-121.968800000"><ele>132.6</ele><time>2026-07-27T00:00:00Z</time></trkpt>
<trkpt lat="37.817310000" lon="-121.968910000"><ele>132.6</ele><time>2026-07-27T00:00:00Z</time></trkpt>
<trkpt lat="37.817345000" lon="-121.969020000"><ele>132.7</ele><time>2026-07-27T00:00:00Z</time></trkpt>
<trkpt lat="37.817375000" lon="-121.969120000"><ele>132.8</ele><time>2026-07-27T00:00:00Z</time></trkpt>
<trkpt lat="37.817420000" lon="-121.969220000"><ele>133.0</ele><time>2026-07-27T00:00:00Z</time></trkpt>
<trkpt lat="37.817455000" lon="-121.969340000"><ele>133.2</ele><time>2026-07-27T00:00:00Z</time></trkpt>
<trkpt lat="37.817486000" lon="-121.969444000"><ele>133.4</ele><time>2026-07-27T00:00:00Z</time></trkpt>
<trkpt lat="37.817543000" lon="-121.969536000"><ele>133.6</ele><time>2026-07-27T00:00:00Z</time></trkpt>
<trkpt lat="37.817604000" lon="-121.969630000"><ele>133.8</ele><time>2026-07-27T00:00:00Z</time></trkpt>
<trkpt lat="37.817670000" lon="-121.969696000"><ele>134.1</ele><time>2026-07-27T00:00:00Z</time></trkpt>
<trkpt lat="37.817738000" lon="-121.969765000"><ele>134.5</ele><time>2026-07-27T00:00:00Z</time></trkpt>
<trkpt lat="37.817810000" lon="-121.969820000"><ele>134.9</ele><time>2026-07-27T00:00:00Z</time></trkpt>
<trkpt lat="37.817894000" lon="-121.969870000"><ele>135.5</ele><time>2026-07-27T00:00:00Z</time></trkpt>
<trkpt lat="37.817974000" lon="-121.969910000"><ele>136.0</ele><time>2026-07-27T00:00:00Z</time></trkpt>
<trkpt lat="37.818066000" lon="-121.969950000"><ele>136.6</ele><time>2026-07-27T00:00:00Z</time></trkpt>
<trkpt lat="37.818157000" lon="-121.969960000"><ele>137.3</ele><time>2026-07-27T00:00:00Z</time></trkpt>
<trkpt lat="37.818240000" lon="-121.969986000"><ele>138.0</ele><time>2026-07-27T00:00:00Z</time></trkpt>
<trkpt lat="37.818325000" lon="-121.970020000"><ele>138.7</ele><time>2026-07-27T00:00:00Z</time></trkpt>
<trkpt lat="37.818417000" lon="-121.970030000"><ele>139.3</ele><time>2026-07-27T00:00:00Z</time></trkpt>
<trkpt lat="37.818504000" lon="-121.970060000"><ele>139.8</ele><time>2026-07-27T00:00:00Z</time></trkpt>
<trkpt lat="37.818592000" lon="-121.970110000"><ele>140.3</ele><time>2026-07-27T00:00:00Z</time></trkpt>
<trkpt lat="37.818670000" lon="-121.970170000"><ele>140.5</ele><time>2026-07-27T00:00:00Z</time></trkpt>
<trkpt lat="37.818720000" lon="-121.970250000"><ele>140.6</ele><time>2026-07-27T00:00:00Z</time></trkpt>
<trkpt lat="37.818690000" lon="-121.970360000"><ele>140.6</ele><time>2026-07-27T00:00:00Z</time></trkpt>
<trkpt lat="37.818657000" lon="-121.970450000"><ele>140.5</ele><time>2026-07-27T00:00:00Z</time></trkpt>
<trkpt lat="37.818623000" lon="-121.970550000"><ele>140.4</ele><time>2026-07-27T00:00:00Z</time></trkpt>
<trkpt lat="37.818550000" lon="-121.970630000"><ele>140.2</ele><time>2026-07-27T00:00:00Z</time></trkpt>
<trkpt lat="37.818460000" lon="-121.970650000"><ele>139.9</ele><time>2026-07-27T00:00:00Z</time></trkpt>
<trkpt lat="37.818380000" lon="-121.970670000"><ele>139.5</ele><time>2026-07-27T00:00:00Z</time></trkpt>
<trkpt lat="37.818460000" lon="-121.970730000"><ele>139.2</ele><time>2026-07-27T00:00:00Z</time></trkpt>
<trkpt lat="37.818546000" lon="-121.970750000"><ele>138.7</ele><time>2026-07-27T00:00:00Z</time></trkpt>
<trkpt lat="37.818577000" lon="-121.970840000"><ele>138.3</ele><time>2026-07-27T00:00:00Z</time></trkpt>
<trkpt lat="37.818650000" lon="-121.970900000"><ele>137.9</ele><time>2026-07-27T00:00:00Z</time></trkpt>
<trkpt lat="37.818660000" lon="-121.971010000"><ele>137.7</ele><time>2026-07-27T00:00:00Z</time></trkpt>
<trkpt lat="37.818684000" lon="-121.971110000"><ele>137.6</ele><time>2026-07-27T00:00:00Z</time></trkpt>
<trkpt lat="37.818687000" lon="-121.971230000"><ele>137.5</ele><time>2026-07-27T00:00:00Z</time></trkpt>
<trkpt lat="37.818714000" lon="-121.971330000"><ele>137.5</ele><time>2026-07-27T00:00:00Z</time></trkpt>
<trkpt lat="37.818798000" lon="-121.971330000"><ele>137.5</ele><time>2026-07-27T00:00:00Z</time></trkpt>
<trkpt lat="37.818880000" lon="-121.971300000"><ele>137.6</ele><time>2026-07-27T00:00:00Z</time></trkpt>
<trkpt lat="37.818960000" lon="-121.971250000"><ele>137.8</ele><time>2026-07-27T00:00:00Z</time></trkpt>
<trkpt lat="37.819042000" lon="-121.971200000"><ele>138.2</ele><time>2026-07-27T00:00:00Z</time></trkpt>
<trkpt lat="37.819130000" lon="-121.971150000"><ele>138.7</ele><time>2026-07-27T00:00:00Z</time></trkpt>
<trkpt lat="37.819202000" lon="-121.971100000"><ele>139.4</ele><time>2026-07-27T00:00:00Z</time></trkpt>
<trkpt lat="37.819270000" lon="-121.971050000"><ele>140.1</ele><time>2026-07-27T00:00:00Z</time></trkpt>
<trkpt lat="37.819350000" lon="-121.970990000"><ele>140.8</ele><time>2026-07-27T00:00:00Z</time></trkpt>
<trkpt lat="37.819424000" lon="-121.970940000"><ele>141.5</ele><time>2026-07-27T00:00:00Z</time></trkpt>
<trkpt lat="37.819510000" lon="-121.970894000"><ele>142.4</ele><time>2026-07-27T00:00:00Z</time></trkpt>
<trkpt lat="37.819588000" lon="-121.970840000"><ele>143.1</ele><time>2026-07-27T00:00:00Z</time></trkpt>
<trkpt lat="37.819675000" lon="-121.970880000"><ele>143.9</ele><time>2026-07-27T00:00:00Z</time></trkpt>
<trkpt lat="37.819750000" lon="-121.970930000"><ele>144.7</ele><time>2026-07-27T00:00:00Z</time></trkpt>
<trkpt lat="37.819828000" lon="-121.970980000"><ele>145.5</ele><time>2026-07-27T00:00:00Z</time></trkpt>
<trkpt lat="37.819904000" lon="-121.971050000"><ele>146.4</ele><time>2026-07-27T00:00:00Z</time></trkpt>
<trkpt lat="37.819980000" lon="-121.971120000"><ele>147.1</ele><time>2026-07-27T00:00:00Z</time></trkpt>
<trkpt lat="37.820057000" lon="-121.971190000"><ele>147.8</ele><time>2026-07-27T00:00:00Z</time></trkpt>
<trkpt lat="37.820133000" lon="-121.971260000"><ele>148.5</ele><time>2026-07-27T00:00:00Z</time></trkpt>
<trkpt lat="37.820206000" lon="-121.971340000"><ele>149.3</ele><time>2026-07-27T00:00:00Z</time></trkpt>
<trkpt lat="37.820280000" lon="-121.971405000"><ele>150.0</ele><time>2026-07-27T00:00:00Z</time></trkpt>
<trkpt lat="37.820347000" lon="-121.971470000"><ele>150.6</ele><time>2026-07-27T00:00:00Z</time></trkpt>
<trkpt lat="37.820415000" lon="-121.971550000"><ele>151.3</ele><time>2026-07-27T00:00:00Z</time></trkpt>
<trkpt lat="37.820484000" lon="-121.971630000"><ele>151.8</ele><time>2026-07-27T00:00:00Z</time></trkpt>
<trkpt lat="37.820534000" lon="-121.971720000"><ele>152.4</ele><time>2026-07-27T00:00:00Z</time></trkpt>
<trkpt lat="37.820570000" lon="-121.971820000"><ele>153.0</ele><time>2026-07-27T00:00:00Z</time></trkpt>
<trkpt lat="37.820610000" lon="-121.971924000"><ele>153.6</ele><time>2026-07-27T00:00:00Z</time></trkpt>
<trkpt lat="37.820650000" lon="-121.972020000"><ele>154.3</ele><time>2026-07-27T00:00:00Z</time></trkpt>
<trkpt lat="37.820683000" lon="-121.972130000"><ele>154.8</ele><time>2026-07-27T00:00:00Z</time></trkpt>
<trkpt lat="37.820713000" lon="-121.972240000"><ele>155.3</ele><time>2026-07-27T00:00:00Z</time></trkpt>
<trkpt lat="37.820760000" lon="-121.972336000"><ele>155.7</ele><time>2026-07-27T00:00:00Z</time></trkpt>
<trkpt lat="37.820847000" lon="-121.972336000"><ele>156.0</ele><time>2026-07-27T00:00:00Z</time></trkpt>
<trkpt lat="37.820934000" lon="-121.972310000"><ele>156.2</ele><time>2026-07-27T00:00:00Z</time></trkpt>
<trkpt lat="37.821026000" lon="-121.972290000"><ele>156.4</ele><time>2026-07-27T00:00:00Z</time></trkpt>
<trkpt lat="37.821117000" lon="-121.972290000"><ele>156.8</ele><time>2026-07-27T00:00:00Z</time></trkpt>
<trkpt lat="37.821120000" lon="-121.972400000"><ele>157.0</ele><time>2026-07-27T00:00:00Z</time></trkpt>
<trkpt lat="37.821125000" lon="-121.972336000"><ele>157.2</ele><time>2026-07-27T00:00:00Z</time></trkpt>
</trkseg>
</trk>
</gpx>
