<?xml version="1.0" encoding="UTF-8"?>
<gpx
  version="1.1"
  creator="Runkeeper - http://www.runkeeper.com"
  xmlns:xsi="http://www.w3.org/2001/XMLSchema-instance"
  xmlns="http://www.topografix.com/GPX/1/1"
  xsi:schemaLocation="http://www.topografix.com/GPX/1/1 http://www.topografix.com/GPX/1/1/gpx.xsd"
  xmlns:gpxtpx="http://www.garmin.com/xmlschemas/TrackPointExtension/v1">
<trk>
  <name><![CDATA[Walking 8/3/26]]></name>
  <time>2026-08-03T00:00:00Z</time>
<trkseg>
<trkpt lat="37.823740000" lon="-121.987460000"><ele>115.0</ele><time>2026-08-03T00:00:00Z</time></trkpt>
<trkpt lat="37.823788000" lon="-121.987366000"><ele>115.0</ele><time>2026-08-03T00:00:00Z</time></trkpt>
<trkpt lat="37.823853000" lon="-121.987300000"><ele>115.0</ele><time>2026-08-03T00:00:00Z</time></trkpt>
<trkpt lat="37.823790000" lon="-121.987366000"><ele>115.0</ele><time>2026-08-03T00:00:00Z</time></trkpt>
<trkpt lat="37.823715000" lon="-121.987420000"><ele>115.0</ele><time>2026-08-03T00:00:00Z</time></trkpt>
<trkpt lat="37.823727000" lon="-121.987526000"><ele>115.0</ele><time>2026-08-03T00:00:00Z</time></trkpt>
<trkpt lat="37.823647000" lon="-121.987564000"><ele>115.0</ele><time>2026-08-03T00:00:00Z</time></trkpt>
<trkpt lat="37.823650000" lon="-121.987460000"><ele>115.0</ele><time>2026-08-03T00:00:00Z</time></trkpt>
<trkpt lat="37.823704000" lon="-121.987366000"><ele>115.0</ele><time>2026-08-03T00:00:00Z</time></trkpt>
<trkpt lat="37.823770000" lon="-121.987300000"><ele>115.0</ele><time>2026-08-03T00:00:00Z</time></trkpt>
<trkpt lat="37.823803000" lon="-121.987190000"><ele>115.1</ele><time>2026-08-03T00:00:00Z</time></trkpt>
<trkpt lat="37.823820000" lon="-121.987090000"><ele>115.2</ele><time>2026-08-03T00:00:00Z</time></trkpt>
<trkpt lat="37.823822000" lon="-121.986980000"><ele>115.3</ele><time>2026-08-03T00:00:00Z</time></trkpt>
<trkpt lat="37.823810000" lon="-121.986860000"><ele>115.4</ele><time>2026-08-03T00:00:00Z</time></trkpt>
<trkpt lat="37.823788000" lon="-121.986755000"><ele>115.5</ele><time>2026-08-03T00:00:00Z</time></trkpt>
<trkpt lat="37.823790000" lon="-121.986640000"><ele>115.5</ele><time>2026-08-03T00:00:00Z</time></trkpt>
<trkpt lat="37.823790000" lon="-121.986534000"><ele>115.6</ele><time>2026-08-03T00:00:00Z</time></trkpt>
<trkpt lat="37.823800000" lon="-121.986430000"><ele>115.7</ele><time>2026-08-03T00:00:00Z</time></trkpt>
<trkpt lat="37.823833000" lon="-121.986330000"><ele>115.8</ele><time>2026-08-03T00:00:00Z</time></trkpt>
<trkpt lat="37.823900000" lon="-121.986260000"><ele>115.9</ele><time>2026-08-03T00:00:00Z</time></trkpt>
<trkpt lat="37.823982000" lon="-121.986240000"><ele>116.0</ele><time>2026-08-03T00:00:00Z</time></trkpt>
<trkpt lat="37.824074000" lon="-121.986240000"><ele>116.0</ele><time>2026-08-03T00:00:00Z</time></trkpt>
<trkpt lat="37.824154000" lon="-121.986240000"><ele>116.1</ele><time>2026-08-03T00:00:00Z</time></trkpt>
<trkpt lat="37.824245000" lon="-121.986210000"><ele>116.2</ele><time>2026-08-03T00:00:00Z</time></trkpt>
<trkpt lat="37.824320000" lon="-121.986150000"><ele>116.3</ele><time>2026-08-03T00:00:00Z</time></trkpt>
<trkpt lat="37.824370000" lon="-121.986070000"><ele>116.4</ele><time>2026-08-03T00:00:00Z</time></trkpt>
<trkpt lat="37.824375000" lon="-121.985954000"><ele>116.5</ele><time>2026-08-03T00:00:00Z</time></trkpt>
<trkpt lat="37.824400000" lon="-121.985840000"><ele>116.7</ele><time>2026-08-03T00:00:00Z</time></trkpt>
<trkpt lat="37.824436000" lon="-121.985730000"><ele>116.9</ele><time>2026-08-03T00:00:00Z</time></trkpt>
<trkpt lat="37.824455000" lon="-121.985630000"><ele>117.2</ele><time>2026-08-03T00:00:00Z</time></trkpt>
<trkpt lat="37.824467000" lon="-121.985520000"><ele>117.5</ele><time>2026-08-03T00:00:00Z</time></trkpt>
<trkpt lat="37.824482000" lon="-121.985410000"><ele>117.8</ele><time>2026-08-03T00:00:00Z</time></trkpt>
<trkpt lat="37.824490000" lon="-121.985300000"><ele>118.2</ele><time>2026-08-03T00:00:00Z</time></trkpt>
<trkpt lat="37.824505000" lon="-121.985190000"><ele>118.5</ele><time>2026-08-03T00:00:00Z</time></trkpt>
<trkpt lat="37.824512000" lon="-121.985080000"><ele>118.8</ele><time>2026-08-03T00:00:00Z</time></trkpt>
<trkpt lat="37.824524000" lon="-121.984980000"><ele>119.2</ele><time>2026-08-03T00:00:00Z</time></trkpt>
<trkpt lat="37.824528000" lon="-121.984860000"><ele>119.5</ele><time>2026-08-03T00:00:00Z</time></trkpt>
<trkpt lat="37.824550000" lon="-121.984760000"><ele>119.9</ele><time>2026-08-03T00:00:00Z</time></trkpt>
<trkpt lat="37.824562000" lon="-121.984640000"><ele>120.3</ele><time>2026-08-03T00:00:00Z</time></trkpt>
<trkpt lat="37.824574000" lon="-121.984535000"><ele>120.6</ele><time>2026-08-03T00:00:00Z</time></trkpt>
<trkpt lat="37.824590000" lon="-121.984436000"><ele>120.9</ele><time>2026-08-03T00:00:00Z</time></trkpt>
<trkpt lat="37.824608000" lon="-121.984320000"><ele>121.2</ele><time>2026-08-03T00:00:00Z</time></trkpt>
<trkpt lat="37.824620000" lon="-121.984215000"><ele>121.4</ele><time>2026-08-03T00:00:00Z</time></trkpt>
<trkpt lat="37.824610000" lon="-121.984100000"><ele>121.5</ele><time>2026-08-03T00:00:00Z</time></trkpt>
<trkpt lat="37.824577000" lon="-121.984000000"><ele>121.6</ele><time>2026-08-03T00:00:00Z</time></trkpt>
<trkpt lat="37.824500000" lon="-121.983940000"><ele>121.7</ele><time>2026-08-03T00:00:00Z</time></trkpt>
<trkpt lat="37.824417000" lon="-121.983925000"><ele>121.8</ele><time>2026-08-03T00:00:00Z</time></trkpt>
<trkpt lat="37.824326000" lon="-121.983900000"><ele>121.9</ele><time>2026-08-03T00:00:00Z</time></trkpt>
<trkpt lat="37.824245000" lon="-121.983870000"><ele>121.9</ele><time>2026-08-03T00:00:00Z</time></trkpt>
<trkpt lat="37.824250000" lon="-121.983765000"><ele>122.0</ele><time>2026-08-03T00:00:00Z</time></trkpt>
<trkpt lat="37.824257000" lon="-121.983650000"><ele>122.2</ele><time>2026-08-03T00:00:00Z</time></trkpt>
<trkpt lat="37.824245000" lon="-121.983536000"><ele>122.4</ele><time>2026-08-03T00:00:00Z</time></trkpt>
<trkpt lat="37.824226000" lon="-121.983420000"><ele>122.6</ele><time>2026-08-03T00:00:00Z</time></trkpt>
<trkpt lat="37.824215000" lon="-121.983315000"><ele>122.9</ele><time>2026-08-03T00:00:00Z</time></trkpt>
<trkpt lat="37.824207000" lon="-121.983210000"><ele>123.4</ele><time>2026-08-03T00:00:00Z</time></trkpt>
<trkpt lat="37.824220000" lon="-121.983100000"><ele>123.8</ele><time>2026-08-03T00:00:00Z</time></trkpt>
<trkpt lat="37.824223000" lon="-121.982994000"><ele>124.3</ele><time>2026-08-03T00:00:00Z</time></trkpt>
<trkpt lat="37.824226000" lon="-121.982870000"><ele>124.8</ele><time>2026-08-03T00:00:00Z</time></trkpt>
<trkpt lat="37.824223000" lon="-121.982765000"><ele>125.5</ele><time>2026-08-03T00:00:00Z</time></trkpt>
<trkpt lat="37.824210000" lon="-121.982650000"><ele>126.2</ele><time>2026-08-03T00:00:00Z</time></trkpt>
<trkpt lat="37.824210000" lon="-121.982544000"><ele>126.9</ele><time>2026-08-03T00:00:00Z</time></trkpt>
<trkpt lat="37.824207000" lon="-121.982430000"><ele>127.7</ele><time>2026-08-03T00:00:00Z</time></trkpt>
<trkpt lat="37.824215000" lon="-121.982320000"><ele>128.6</ele><time>2026-08-03T00:00:00Z</time></trkpt>
<trkpt lat="37.824234000" lon="-121.982210000"><ele>129.5</ele><time>2026-08-03T00:00:00Z</time></trkpt>
<trkpt lat="37.824223000" lon="-121.982100000"><ele>130.6</ele><time>2026-08-03T00:00:00Z</time></trkpt>
<trkpt lat="37.824215000" lon="-121.981995000"><ele>131.8</ele><time>2026-08-03T00:00:00Z</time></trkpt>
<trkpt lat="37.824215000" lon="-121.981895000"><ele>132.7</ele><time>2026-08-03T00:00:00Z</time></trkpt>
<trkpt lat="37.824196000" lon="-121.981790000"><ele>133.5</ele><time>2026-08-03T00:00:00Z</time></trkpt>
<trkpt lat="37.824160000" lon="-121.981680000"><ele>134.0</ele><time>2026-08-03T00:00:00Z</time></trkpt>
<trkpt lat="37.824140000" lon="-121.981575000"><ele>134.3</ele><time>2026-08-03T00:00:00Z</time></trkpt>
<trkpt lat="37.824093000" lon="-121.981490000"><ele>134.4</ele><time>2026-08-03T00:00:00Z</time></trkpt>
<trkpt lat="37.824146000" lon="-121.981580000"><ele>134.3</ele><time>2026-08-03T00:00:00Z</time></trkpt>
<trkpt lat="37.824177000" lon="-121.981690000"><ele>133.8</ele><time>2026-08-03T00:00:00Z</time></trkpt>
<trkpt lat="37.824196000" lon="-121.981800000"><ele>133.3</ele><time>2026-08-03T00:00:00Z</time></trkpt>
<trkpt lat="37.824215000" lon="-121.981910000"><ele>132.5</ele><time>2026-08-03T00:00:00Z</time></trkpt>
<trkpt lat="37.824230000" lon="-121.982025000"><ele>131.5</ele><time>2026-08-03T00:00:00Z</time></trkpt>
<trkpt lat="37.824230000" lon="-121.982140000"><ele>130.4</ele><time>2026-08-03T00:00:00Z</time></trkpt>
<trkpt lat="37.824230000" lon="-121.982254000"><ele>129.4</ele><time>2026-08-03T00:00:00Z</time></trkpt>
<trkpt lat="37.824234000" lon="-121.982370000"><ele>128.5</ele><time>2026-08-03T00:00:00Z</time></trkpt>
<trkpt lat="37.824257000" lon="-121.982475000"><ele>127.9</ele><time>2026-08-03T00:00:00Z</time></trkpt>
<trkpt lat="37.824306000" lon="-121.982570000"><ele>127.5</ele><time>2026-08-03T00:00:00Z</time></trkpt>
<trkpt lat="37.824390000" lon="-121.982570000"><ele>127.1</ele><time>2026-08-03T00:00:00Z</time></trkpt>
<trkpt lat="37.824482000" lon="-121.982574000"><ele>126.9</ele><time>2026-08-03T00:00:00Z</time></trkpt>
<trkpt lat="37.824574000" lon="-121.982574000"><ele>126.9</ele><time>2026-08-03T00:00:00Z</time></trkpt>
<trkpt lat="37.824670000" lon="-121.982570000"><ele>127.0</ele><time>2026-08-03T00:00:00Z</time></trkpt>
<trkpt lat="37.824757000" lon="-121.982570000"><ele>127.3</ele><time>2026-08-03T00:00:00Z</time></trkpt>
<trkpt lat="37.824850000" lon="-121.982574000"><ele>127.6</ele><time>2026-08-03T00:00:00Z</time></trkpt>
<trkpt lat="37.824932000" lon="-121.982544000"><ele>128.0</ele><time>2026-08-03T00:00:00Z</time></trkpt>
<trkpt lat="37.825000000" lon="-121.982480000"><ele>128.5</ele><time>2026-08-03T00:00:00Z</time></trkpt>
<trkpt lat="37.825054000" lon="-121.982390000"><ele>128.9</ele><time>2026-08-03T00:00:00Z</time></trkpt>
<trkpt lat="37.825108000" lon="-121.982300000"><ele>129.4</ele><time>2026-08-03T00:00:00Z</time></trkpt>
<trkpt lat="37.825165000" lon="-121.982220000"><ele>129.8</ele><time>2026-08-03T00:00:00Z</time></trkpt>
<trkpt lat="37.825240000" lon="-121.982155000"><ele>130.4</ele><time>2026-08-03T00:00:00Z</time></trkpt>
<trkpt lat="37.825306000" lon="-121.982070000"><ele>131.0</ele><time>2026-08-03T00:00:00Z</time></trkpt>
<trkpt lat="37.825302000" lon="-121.981964000"><ele>131.7</ele><time>2026-08-03T00:00:00Z</time></trkpt>
<trkpt lat="37.825250000" lon="-121.981870000"><ele>132.5</ele><time>2026-08-03T00:00:00Z</time></trkpt>
<trkpt lat="37.825220000" lon="-121.981766000"><ele>133.2</ele><time>2026-08-03T00:00:00Z</time></trkpt>
<trkpt lat="37.825165000" lon="-121.981674000"><ele>134.0</ele><time>2026-08-03T00:00:00Z</time></trkpt>
<trkpt lat="37.825120000" lon="-121.981590000"><ele>134.9</ele><time>2026-08-03T00:00:00Z</time></trkpt>
<trkpt lat="37.825070000" lon="-121.981500000"><ele>135.8</ele><time>2026-08-03T00:00:00Z</time></trkpt>
<trkpt lat="37.825054000" lon="-121.981400000"><ele>136.8</ele><time>2026-08-03T00:00:00Z</time></trkpt>
<trkpt lat="37.825060000" lon="-121.981290000"><ele>137.8</ele><time>2026-08-03T00:00:00Z</time></trkpt>
<trkpt lat="37.825066000" lon="-121.981186000"><ele>138.8</ele><time>2026-08-03T00:00:00Z</time></trkpt>
<trkpt lat="37.825054000" lon="-121.981070000"><ele>139.7</ele><time>2026-08-03T00:00:00Z</time></trkpt>
<trkpt lat="37.825035000" lon="-121.980965000"><ele>140.5</ele><time>2026-08-03T00:00:00Z</time></trkpt>
<trkpt lat="37.825050000" lon="-121.980860000"><ele>141.1</ele><time>2026-08-03T00:00:00Z</time></trkpt>
<trkpt lat="37.825050000" lon="-121.980750000"><ele>141.6</ele><time>2026-08-03T00:00:00Z</time></trkpt>
<trkpt lat="37.825120000" lon="-121.980680000"><ele>142.0</ele><time>2026-08-03T00:00:00Z</time></trkpt>
<trkpt lat="37.825207000" lon="-121.980644000"><ele>142.3</ele><time>2026-08-03T00:00:00Z</time></trkpt>
<trkpt lat="37.825290000" lon="-121.980630000"><ele>142.4</ele><time>2026-08-03T00:00:00Z</time></trkpt>
<trkpt lat="37.825382000" lon="-121.980630000"><ele>142.3</ele><time>2026-08-03T00:00:00Z</time></trkpt>
<trkpt lat="37.825466000" lon="-121.980620000"><ele>142.1</ele><time>2026-08-03T00:00:00Z</time></trkpt>
<trkpt lat="37.825550000" lon="-121.980630000"><ele>141.8</ele><time>2026-08-03T00:00:00Z</time></trkpt>
<trkpt lat="37.825640000" lon="-121.980644000"><ele>141.5</ele><time>2026-08-03T00:00:00Z</time></trkpt>
<trkpt lat="37.825720000" lon="-121.980644000"><ele>141.4</ele><time>2026-08-03T00:00:00Z</time></trkpt>
<trkpt lat="37.825817000" lon="-121.980644000"><ele>141.3</ele><time>2026-08-03T00:00:00Z</time></trkpt>
<trkpt lat="37.825912000" lon="-121.980644000"><ele>141.3</ele><time>2026-08-03T00:00:00Z</time></trkpt>
<trkpt lat="37.826004000" lon="-121.980620000"><ele>141.4</ele><time>2026-08-03T00:00:00Z</time></trkpt>
<trkpt lat="37.826096000" lon="-121.980610000"><ele>141.6</ele><time>2026-08-03T00:00:00Z</time></trkpt>
<trkpt lat="37.826180000" lon="-121.980606000"><ele>142.0</ele><time>2026-08-03T00:00:00Z</time></trkpt>
<trkpt lat="37.826263000" lon="-121.980576000"><ele>142.4</ele><time>2026-08-03T00:00:00Z</time></trkpt>
<trkpt lat="37.826344000" lon="-121.980545000"><ele>142.7</ele><time>2026-08-03T00:00:00Z</time></trkpt>
<trkpt lat="37.826427000" lon="-121.980510000"><ele>143.0</ele><time>2026-08-03T00:00:00Z</time></trkpt>
<trkpt lat="37.826508000" lon="-121.980484000"><ele>143.2</ele><time>2026-08-03T00:00:00Z</time></trkpt>
<trkpt lat="37.826580000" lon="-121.980440000"><ele>143.3</ele><time>2026-08-03T00:00:00Z</time></trkpt>
<trkpt lat="37.826508000" lon="-121.980484000"><ele>143.3</ele><time>2026-08-03T00:00:00Z</time></trkpt>
<trkpt lat="37.826424000" lon="-121.980510000"><ele>143.2</ele><time>2026-08-03T00:00:00Z</time></trkpt>
<trkpt lat="37.826344000" lon="-121.980520000"><ele>143.0</ele><time>2026-08-03T00:00:00Z</time></trkpt>
<trkpt lat="37.826260000" lon="-121.980545000"><ele>142.7</ele><time>2026-08-03T00:00:00Z</time></trkpt>
<trkpt lat="37.826176000" lon="-121.980560000"><ele>142.5</ele><time>2026-08-03T00:00:00Z</time></trkpt>
<trkpt lat="37.826096000" lon="-121.980560000"><ele>142.1</ele><time>2026-08-03T00:00:00Z</time></trkpt>
<trkpt lat="37.826000000" lon="-121.980570000"><ele>141.9</ele><time>2026-08-03T00:00:00Z</time></trkpt>
<trkpt lat="37.825905000" lon="-121.980576000"><ele>141.8</ele><time>2026-08-03T00:00:00Z</time></trkpt>
<trkpt lat="37.825810000" lon="-121.980580000"><ele>141.8</ele><time>2026-08-03T00:00:00Z</time></trkpt>
<trkpt lat="37.825714000" lon="-121.980580000"><ele>142.0</ele><time>2026-08-03T00:00:00Z</time></trkpt>
<trkpt lat="37.825623000" lon="-121.980600000"><ele>142.2</ele><time>2026-08-03T00:00:00Z</time></trkpt>
<trkpt lat="37.825535000" lon="-121.980606000"><ele>142.4</ele><time>2026-08-03T00:00:00Z</time></trkpt>
<trkpt lat="37.825440000" lon="-121.980606000"><ele>142.5</ele><time>2026-08-03T00:00:00Z</time></trkpt>
<trkpt lat="37.825356000" lon="-121.980600000"><ele>142.5</ele><time>2026-08-03T00:00:00Z</time></trkpt>
<trkpt lat="37.825268000" lon="-121.980620000"><ele>142.4</ele><time>2026-08-03T00:00:00Z</time></trkpt>
<trkpt lat="37.825188000" lon="-121.980644000"><ele>142.1</ele><time>2026-08-03T00:00:00Z</time></trkpt>
<trkpt lat="37.825127000" lon="-121.980720000"><ele>141.7</ele><time>2026-08-03T00:00:00Z</time></trkpt>
<trkpt lat="37.825123000" lon="-121.980840000"><ele>141.2</ele><time>2026-08-03T00:00:00Z</time></trkpt>
<trkpt lat="37.825120000" lon="-121.980960000"><ele>140.5</ele><time>2026-08-03T00:00:00Z</time></trkpt>
<trkpt lat="37.825115000" lon="-121.981070000"><ele>139.7</ele><time>2026-08-03T00:00:00Z</time></trkpt>
<trkpt lat="37.825123000" lon="-121.981180000"><ele>138.7</ele><time>2026-08-03T00:00:00Z</time></trkpt>
<trkpt lat="37.825120000" lon="-121.981280000"><ele>137.7</ele><time>2026-08-03T00:00:00Z</time></trkpt>
<trkpt lat="37.825120000" lon="-121.981384000"><ele>136.6</ele><time>2026-08-03T00:00:00Z</time></trkpt>
<trkpt lat="37.825140000" lon="-121.981500000"><ele>135.6</ele><time>2026-08-03T00:00:00Z</time></trkpt>
<trkpt lat="37.825180000" lon="-121.981600000"><ele>134.8</ele><time>2026-08-03T00:00:00Z</time></trkpt>
<trkpt lat="37.825222000" lon="-121.981705000"><ele>134.1</ele><time>2026-08-03T00:00:00Z</time></trkpt>
<trkpt lat="37.825256000" lon="-121.981810000"><ele>133.5</ele><time>2026-08-03T00:00:00Z</time></trkpt>
<trkpt lat="37.825314000" lon="-121.981920000"><ele>133.2</ele><time>2026-08-03T00:00:00Z</time></trkpt>
<trkpt lat="37.825380000" lon="-121.982000000"><ele>132.9</ele><time>2026-08-03T00:00:00Z</time></trkpt>
<trkpt lat="37.825470000" lon="-121.981980000"><ele>132.8</ele><time>2026-08-03T00:00:00Z</time></trkpt>
<trkpt lat="37.825550000" lon="-121.981920000"><ele>133.0</ele><time>2026-08-03T00:00:00Z</time></trkpt>
<trkpt lat="37.825634000" lon="-121.981895000"><ele>133.4</ele><time>2026-08-03T00:00:00Z</time></trkpt>
<trkpt lat="37.825720000" lon="-121.981880000"><ele>133.8</ele><time>2026-08-03T00:00:00Z</time></trkpt>
<trkpt lat="37.825810000" lon="-121.981860000"><ele>134.4</ele><time>2026-08-03T00:00:00Z</time></trkpt>
<trkpt lat="37.825874000" lon="-121.981770000"><ele>135.0</ele><time>2026-08-03T00:00:00Z</time></trkpt>
<trkpt lat="37.825910000" lon="-121.981680000"><ele>135.5</ele><time>2026-08-03T00:00:00Z</time></trkpt>
<trkpt lat="37.825943000" lon="-121.981575000"><ele>135.9</ele><time>2026-08-03T00:00:00Z</time></trkpt>
<trkpt lat="37.825947000" lon="-121.981450000"><ele>136.2</ele><time>2026-08-03T00:00:00Z</time></trkpt>
<trkpt lat="37.825930000" lon="-121.981350000"><ele>136.3</ele><time>2026-08-03T00:00:00Z</time></trkpt>
<trkpt lat="37.826010000" lon="-121.981380000"><ele>136.3</ele><time>2026-08-03T00:00:00Z</time></trkpt>
<trkpt lat="37.826000000" lon="-121.981500000"><ele>136.1</ele><time>2026-08-03T00:00:00Z</time></trkpt>
<trkpt lat="37.825970000" lon="-121.981610000"><ele>135.8</ele><time>2026-08-03T00:00:00Z</time></trkpt>
<trkpt lat="37.825943000" lon="-121.981710000"><ele>135.4</ele><time>2026-08-03T00:00:00Z</time></trkpt>
<trkpt lat="37.825893000" lon="-121.981820000"><ele>134.9</ele><time>2026-08-03T00:00:00Z</time></trkpt>
<trkpt lat="37.825820000" lon="-121.981890000"><ele>134.4</ele><time>2026-08-03T00:00:00Z</time></trkpt>
<trkpt lat="37.825733000" lon="-121.981930000"><ele>133.7</ele><time>2026-08-03T00:00:00Z</time></trkpt>
<trkpt lat="37.825638000" lon="-121.981950000"><ele>133.2</ele><time>2026-08-03T00:00:00Z</time></trkpt>
<trkpt lat="37.825554000" lon="-121.981980000"><ele>132.5</ele><time>2026-08-03T00:00:00Z</time></trkpt>
<trkpt lat="37.825474000" lon="-121.982040000"><ele>132.0</ele><time>2026-08-03T00:00:00Z</time></trkpt>
<trkpt lat="37.825417000" lon="-121.982120000"><ele>131.5</ele><time>2026-08-03T00:00:00Z</time></trkpt>
<trkpt lat="37.825455000" lon="-121.982220000"><ele>131.2</ele><time>2026-08-03T00:00:00Z</time></trkpt>
<trkpt lat="37.825497000" lon="-121.982315000"><ele>130.9</ele><time>2026-08-03T00:00:00Z</time></trkpt>
<trkpt lat="37.825523000" lon="-121.982420000"><ele>130.6</ele><time>2026-08-03T00:00:00Z</time></trkpt>
<trkpt lat="37.825530000" lon="-121.982540000"><ele>130.5</ele><time>2026-08-03T00:00:00Z</time></trkpt>
<trkpt lat="37.825535000" lon="-121.982640000"><ele>130.3</ele><time>2026-08-03T00:00:00Z</time></trkpt>
<trkpt lat="37.825535000" lon="-121.982750000"><ele>130.3</ele><time>2026-08-03T00:00:00Z</time></trkpt>
<trkpt lat="37.825530000" lon="-121.982860000"><ele>130.3</ele><time>2026-08-03T00:00:00Z</time></trkpt>
<trkpt lat="37.825542000" lon="-121.982960000"><ele>130.3</ele><time>2026-08-03T00:00:00Z</time></trkpt>
<trkpt lat="37.825560000" lon="-121.983080000"><ele>130.5</ele><time>2026-08-03T00:00:00Z</time></trkpt>
<trkpt lat="37.825596000" lon="-121.983190000"><ele>130.7</ele><time>2026-08-03T00:00:00Z</time></trkpt>
<trkpt lat="37.825638000" lon="-121.983290000"><ele>131.0</ele><time>2026-08-03T00:00:00Z</time></trkpt>
<trkpt lat="37.825695000" lon="-121.983390000"><ele>131.3</ele><time>2026-08-03T00:00:00Z</time></trkpt>
<trkpt lat="37.825768000" lon="-121.983450000"><ele>131.5</ele><time>2026-08-03T00:00:00Z</time></trkpt>
<trkpt lat="37.825836000" lon="-121.983370000"><ele>131.7</ele><time>2026-08-03T00:00:00Z</time></trkpt>
<trkpt lat="37.825905000" lon="-121.983290000"><ele>131.9</ele><time>2026-08-03T00:00:00Z</time></trkpt>
<trkpt lat="37.825966000" lon="-121.983215000"><ele>132.0</ele><time>2026-08-03T00:00:00Z</time></trkpt>
<trkpt lat="37.826050000" lon="-121.983180000"><ele>132.0</ele><time>2026-08-03T00:00:00Z</time></trkpt>
<trkpt lat="37.826020000" lon="-121.983280000"><ele>132.0</ele><time>2026-08-03T00:00:00Z</time></trkpt>
<trkpt lat="37.825943000" lon="-121.983340000"><ele>131.9</ele><time>2026-08-03T00:00:00Z</time></trkpt>
<trkpt lat="37.825874000" lon="-121.983420000"><ele>131.6</ele><time>2026-08-03T00:00:00Z</time></trkpt>
<trkpt lat="37.825817000" lon="-121.983520000"><ele>131.4</ele><time>2026-08-03T00:00:00Z</time></trkpt>
<trkpt lat="37.825756000" lon="-121.983610000"><ele>131.2</ele><time>2026-08-03T00:00:00Z</time></trkpt>
<trkpt lat="37.825695000" lon="-121.983696000"><ele>131.0</ele><time>2026-08-03T00:00:00Z</time></trkpt>
<trkpt lat="37.825638000" lon="-121.983790000"><ele>130.8</ele><time>2026-08-03T00:00:00Z</time></trkpt>
<trkpt lat="37.825584000" lon="-121.983880000"><ele>130.7</ele><time>2026-08-03T00:00:00Z</time></trkpt>
<trkpt lat="37.825640000" lon="-121.983800000"><ele>130.6</ele><time>2026-08-03T00:00:00Z</time></trkpt>
<trkpt lat="37.825690000" lon="-121.983700000"><ele>130.5</ele><time>2026-08-03T00:00:00Z</time></trkpt>
<trkpt lat="37.825756000" lon="-121.983650000"><ele>130.5</ele><time>2026-08-03T00:00:00Z</time></trkpt>
<trkpt lat="37.825832000" lon="-121.983690000"><ele>130.3</ele><time>2026-08-03T00:00:00Z</time></trkpt>
<trkpt lat="37.825905000" lon="-121.983750000"><ele>130.1</ele><time>2026-08-03T00:00:00Z</time></trkpt>
<trkpt lat="37.825977000" lon="-121.983790000"><ele>129.9</ele><time>2026-08-03T00:00:00Z</time></trkpt>
<trkpt lat="37.826054000" lon="-121.983830000"><ele>129.5</ele><time>2026-08-03T00:00:00Z</time></trkpt>
<trkpt lat="37.826140000" lon="-121.983870000"><ele>129.0</ele><time>2026-08-03T00:00:00Z</time></trkpt>
<trkpt lat="37.826225000" lon="-121.983910000"><ele>128.4</ele><time>2026-08-03T00:00:00Z</time></trkpt>
<trkpt lat="37.826305000" lon="-121.983955000"><ele>127.5</ele><time>2026-08-03T00:00:00Z</time></trkpt>
<trkpt lat="37.826385000" lon="-121.983986000"><ele>126.7</ele><time>2026-08-03T00:00:00Z</time></trkpt>
<trkpt lat="37.826473000" lon="-121.984040000"><ele>125.8</ele><time>2026-08-03T00:00:00Z</time></trkpt>
<trkpt lat="37.826540000" lon="-121.984090000"><ele>125.0</ele><time>2026-08-03T00:00:00Z</time></trkpt>
<trkpt lat="37.826595000" lon="-121.984170000"><ele>124.1</ele><time>2026-08-03T00:00:00Z</time></trkpt>
<trkpt lat="37.826656000" lon="-121.984250000"><ele>123.3</ele><time>2026-08-03T00:00:00Z</time></trkpt>
<trkpt lat="37.826702000" lon="-121.984350000"><ele>122.5</ele><time>2026-08-03T00:00:00Z</time></trkpt>
<trkpt lat="37.826720000" lon="-121.984450000"><ele>121.7</ele><time>2026-08-03T00:00:00Z</time></trkpt>
<trkpt lat="37.826730000" lon="-121.984566000"><ele>121.1</ele><time>2026-08-03T00:00:00Z</time></trkpt>
<trkpt lat="37.826720000" lon="-121.984690000"><ele>120.5</ele><time>2026-08-03T00:00:00Z</time></trkpt>
<trkpt lat="37.826694000" lon="-121.984800000"><ele>120.1</ele><time>2026-08-03T00:00:00Z</time></trkpt>
<trkpt lat="37.826680000" lon="-121.984910000"><ele>119.8</ele><time>2026-08-03T00:00:00Z</time></trkpt>
<trkpt lat="37.826656000" lon="-121.985016000"><ele>119.5</ele><time>2026-08-03T00:00:00Z</time></trkpt>
<trkpt lat="37.826633000" lon="-121.985120000"><ele>119.3</ele><time>2026-08-03T00:00:00Z</time></trkpt>
<trkpt lat="37.826607000" lon="-121.985240000"><ele>119.0</ele><time>2026-08-03T00:00:00Z</time></trkpt>
<trkpt lat="37.826584000" lon="-121.985350000"><ele>118.8</ele><time>2026-08-03T00:00:00Z</time></trkpt>
<trkpt lat="37.826565000" lon="-121.985466000"><ele>118.6</ele><time>2026-08-03T00:00:00Z</time></trkpt>
<trkpt lat="37.826540000" lon="-121.985580000"><ele>118.5</ele><time>2026-08-03T00:00:00Z</time></trkpt>
<trkpt lat="37.826523000" lon="-121.985695000"><ele>118.5</ele><time>2026-08-03T00:00:00Z</time></trkpt>
<trkpt lat="37.826510000" lon="-121.985800000"><ele>118.3</ele><time>2026-08-03T00:00:00Z</time></trkpt>
<trkpt lat="37.826496000" lon="-121.985900000"><ele>118.1</ele><time>2026-08-03T00:00:00Z</time></trkpt>
<trkpt lat="37.826477000" lon="-121.986020000"><ele>117.9</ele><time>2026-08-03T00:00:00Z</time></trkpt>
<trkpt lat="37.826458000" lon="-121.986140000"><ele>117.7</ele><time>2026-08-03T00:00:00Z</time></trkpt>
<trkpt lat="37.826443000" lon="-121.986260000"><ele>117.5</ele><time>2026-08-03T00:00:00Z</time></trkpt>
<trkpt lat="37.826430000" lon="-121.986374000"><ele>117.5</ele><time>2026-08-03T00:00:00Z</time></trkpt>
<trkpt lat="37.826416000" lon="-121.986470000"><ele>117.4</ele><time>2026-08-03T00:00:00Z</time></trkpt>
<trkpt lat="37.826397000" lon="-121.986595000"><ele>117.2</ele><time>2026-08-03T00:00:00Z</time></trkpt>
<trkpt lat="37.826380000" lon="-121.986710000"><ele>117.0</ele><time>2026-08-03T00:00:00Z</time></trkpt>
<trkpt lat="37.826370000" lon="-121.986824000"><ele>116.8</ele><time>2026-08-03T00:00:00Z</time></trkpt>
<trkpt lat="37.826360000" lon="-121.986930000"><ele>116.6</ele><time>2026-08-03T00:00:00Z</time></trkpt>
<trkpt lat="37.826350000" lon="-121.987050000"><ele>116.5</ele><time>2026-08-03T00:00:00Z</time></trkpt>
<trkpt lat="37.826355000" lon="-121.987160000"><ele>116.5</ele><time>2026-08-03T00:00:00Z</time></trkpt>
<trkpt lat="37.826332000" lon="-121.987270000"><ele>116.4</ele><time>2026-08-03T00:00:00Z</time></trkpt>
<trkpt lat="37.826250000" lon="-121.987250000"><ele>116.3</ele><time>2026-08-03T00:00:00Z</time></trkpt>
<trkpt lat="37.826164000" lon="-121.987240000"><ele>116.2</ele><time>2026-08-03T00:00:00Z</time></trkpt>
<trkpt lat="37.826084000" lon="-121.987236000"><ele>116.1</ele><time>2026-08-03T00:00:00Z</time></trkpt>
<trkpt lat="37.825990000" lon="-121.987236000"><ele>116.0</ele><time>2026-08-03T00:00:00Z</time></trkpt>
<trkpt lat="37.825905000" lon="-121.987236000"><ele>116.0</ele><time>2026-08-03T00:00:00Z</time></trkpt>
<trkpt lat="37.825813000" lon="-121.987236000"><ele>116.1</ele><time>2026-08-03T00:00:00Z</time></trkpt>
<trkpt lat="37.825726000" lon="-121.987240000"><ele>116.2</ele><time>2026-08-03T00:00:00Z</time></trkpt>
<trkpt lat="37.825634000" lon="-121.987240000"><ele>116.3</ele><time>2026-08-03T00:00:00Z</time></trkpt>
<trkpt lat="37.825542000" lon="-121.987250000"><ele>116.4</ele><time>2026-08-03T00:00:00Z</time></trkpt>
<trkpt lat="37.825455000" lon="-121.987250000"><ele>116.5</ele><time>2026-08-03T00:00:00Z</time></trkpt>
<trkpt lat="37.825367000" lon="-121.987250000"><ele>116.5</ele><time>2026-08-03T00:00:00Z</time></trkpt>
<trkpt lat="37.825275000" lon="-121.987250000"><ele>116.5</ele><time>2026-08-03T00:00:00Z</time></trkpt>
<trkpt lat="37.825176000" lon="-121.987250000"><ele>116.5</ele><time>2026-08-03T00:00:00Z</time></trkpt>
<trkpt lat="37.825085000" lon="-121.987236000"><ele>116.5</ele><time>2026-08-03T00:00:00Z</time></trkpt>
<trkpt lat="37.824990000" lon="-121.987240000"><ele>116.5</ele><time>2026-08-03T00:00:00Z</time></trkpt>
<trkpt lat="37.824894000" lon="-121.987240000"><ele>116.5</ele><time>2026-08-03T00:00:00Z</time></trkpt>
<trkpt lat="37.824802000" lon="-121.987240000"><ele>116.5</ele><time>2026-08-03T00:00:00Z</time></trkpt>
<trkpt lat="37.824707000" lon="-121.987250000"><ele>116.4</ele><time>2026-08-03T00:00:00Z</time></trkpt>
<trkpt lat="37.824623000" lon="-121.987274000"><ele>116.3</ele><time>2026-08-03T00:00:00Z</time></trkpt>
<trkpt lat="37.824535000" lon="-121.987310000"><ele>116.2</ele><time>2026-08-03T00:00:00Z</time></trkpt>
<trkpt lat="37.824450000" lon="-121.987350000"><ele>116.1</ele><time>2026-08-03T00:00:00Z</time></trkpt>
<trkpt lat="37.824370000" lon="-121.987370000"><ele>116.0</ele><time>2026-08-03T00:00:00Z</time></trkpt>
<trkpt lat="37.824287000" lon="-121.987400000"><ele>116.0</ele><time>2026-08-03T00:00:00Z</time></trkpt>
<trkpt lat="37.824196000" lon="-121.987404000"><ele>115.9</ele><time>2026-08-03T00:00:00Z</time></trkpt>
<trkpt lat="37.824112000" lon="-121.987404000"><ele>115.8</ele><time>2026-08-03T00:00:00Z</time></trkpt>
<trkpt lat="37.824020000" lon="-121.987410000"><ele>115.7</ele><time>2026-08-03T00:00:00Z</time></trkpt>
<trkpt lat="37.823940000" lon="-121.987400000"><ele>115.7</ele><time>2026-08-03T00:00:00Z</time></trkpt>
<trkpt lat="37.823853000" lon="-121.987400000"><ele>115.7</ele><time>2026-08-03T00:00:00Z</time></trkpt>
<trkpt lat="37.823765000" lon="-121.987390000"><ele>115.6</ele><time>2026-08-03T00:00:00Z</time></trkpt>
<trkpt lat="37.823750000" lon="-121.987495000"><ele>115.6</ele><time>2026-08-03T00:00:00Z</time></trkpt>
<trkpt lat="37.823734000" lon="-121.987530000"><ele>115.5</ele><time>2026-08-03T00:00:00Z</time></trkpt>
</trkseg>
</trk>
</gpx>
