<?xml version="1.0" encoding="UTF-8"?>
<gpx
  version="1.1"
  creator="Runkeeper - http://www.runkeeper.com"
  xmlns:xsi="http://www.w3.org/2001/XMLSchema-instance"
  xmlns="http://www.topografix.com/GPX/1/1"
  xsi:schemaLocation="http://www.topografix.com/GPX/1/1 http://www.topografix.com/GPX/1/1/gpx.xsd"
  xmlns:gpxtpx="http://www.garmin.com/xmlschemas/TrackPointExtension/v1">
<trk>
  <name><![CDATA[Walking 8/4/26]]></name>
  <time>2026-08-04T00:00:00Z</time>
<trkseg>
<trkpt lat="37.817050000" lon="-121.966870000"><ele>137.0</ele><time>2026-08-04T00:00:00Z</time></trkpt>
<trkpt lat="37.817040000" lon="-121.966770000"><ele>137.0</ele><time>2026-08-04T00:00:00Z</time></trkpt>
<trkpt lat="37.817005000" lon="-121.966670000"><ele>137.0</ele><time>2026-08-04T00:00:00Z</time></trkpt>
<trkpt lat="37.816975000" lon="-121.966560000"><ele>137.0</ele><time>2026-08-04T00:00:00Z</time></trkpt>
<trkpt lat="37.816936000" lon="-121.966450000"><ele>137.0</ele><time>2026-08-04T00:00:00Z</time></trkpt>
<trkpt lat="37.816902000" lon="-121.966350000"><ele>137.1</ele><time>2026-08-04T00:00:00Z</time></trkpt>
<trkpt lat="37.816868000" lon="-121.966240000"><ele>137.2</ele><time>2026-08-04T00:00:00Z</time></trkpt>
<trkpt lat="37.816830000" lon="-121.966140000"><ele>137.3</ele><time>2026-08-04T00:00:00Z</time></trkpt>
<trkpt lat="37.816810000" lon="-121.966030000"><ele>137.4</ele><time>2026-08-04T00:00:00Z</time></trkpt>
<trkpt lat="37.816814000" lon="-121.965920000"><ele>137.5</ele><time>2026-08-04T00:00:00Z</time></trkpt>
<trkpt lat="37.816840000" lon="-121.965820000"><ele>137.7</ele><time>2026-08-04T00:00:00Z</time></trkpt>
<trkpt lat="37.816925000" lon="-121.965780000"><ele>137.9</ele><time>2026-08-04T00:00:00Z</time></trkpt>
<trkpt lat="37.816998000" lon="-121.965850000"><ele>138.2</ele><time>2026-08-04T00:00:00Z</time></trkpt>
<trkpt lat="37.817080000" lon="-121.965836000"><ele>138.5</ele><time>2026-08-04T00:00:00Z</time></trkpt>
<trkpt lat="37.817158000" lon="-121.965805000"><ele>138.7</ele><time>2026-08-04T00:00:00Z</time></trkpt>
<trkpt lat="37.817234000" lon="-121.965760000"><ele>139.1</ele><time>2026-08-04T00:00:00Z</time></trkpt>
<trkpt lat="37.817314000" lon="-121.965720000"><ele>139.5</ele><time>2026-08-04T00:00:00Z</time></trkpt>
<trkpt lat="37.817394000" lon="-121.965680000"><ele>139.8</ele><time>2026-08-04T00:00:00Z</time></trkpt>
<trkpt lat="37.817474000" lon="-121.965630000"><ele>140.2</ele><time>2026-08-04T00:00:00Z</time></trkpt>
<trkpt lat="37.817554000" lon="-121.965576000"><ele>140.5</ele><time>2026-08-04T00:00:00Z</time></trkpt>
<trkpt lat="37.817630000" lon="-121.965530000"><ele>140.8</ele><time>2026-08-04T00:00:00Z</time></trkpt>
<trkpt lat="37.817707000" lon="-121.965500000"><ele>141.1</ele><time>2026-08-04T00:00:00Z</time></trkpt>
<trkpt lat="37.817790000" lon="-121.965454000"><ele>141.4</ele><time>2026-08-04T00:00:00Z</time></trkpt>
<trkpt lat="37.817867000" lon="-121.965390000"><ele>141.5</ele><time>2026-08-04T00:00:00Z</time></trkpt>
<trkpt lat="37.817947000" lon="-121.965340000"><ele>141.7</ele><time>2026-08-04T00:00:00Z</time></trkpt>
<trkpt lat="37.818016000" lon="-121.965280000"><ele>141.9</ele><time>2026-08-04T00:00:00Z</time></trkpt>
<trkpt lat="37.818080000" lon="-121.965200000"><ele>142.0</ele><time>2026-08-04T00:00:00Z</time></trkpt>
<trkpt lat="37.818123000" lon="-121.965100000"><ele>142.0</ele><time>2026-08-04T00:00:00Z</time></trkpt>
<trkpt lat="37.818176000" lon="-121.965020000"><ele>142.0</ele><time>2026-08-04T00:00:00Z</time></trkpt>
<trkpt lat="37.818115000" lon="-121.965100000"><ele>142.0</ele><time>2026-08-04T00:00:00Z</time></trkpt>
<trkpt lat="37.818024000" lon="-121.965140000"><ele>142.1</ele><time>2026-08-04T00:00:00Z</time></trkpt>
<trkpt lat="37.817940000" lon="-121.965170000"><ele>142.2</ele><time>2026-08-04T00:00:00Z</time></trkpt>
<trkpt lat="37.817875000" lon="-121.965100000"><ele>142.2</ele><time>2026-08-04T00:00:00Z</time></trkpt>
<trkpt lat="37.817833000" lon="-121.965010000"><ele>142.2</ele><time>2026-08-04T00:00:00Z</time></trkpt>
<trkpt lat="37.817790000" lon="-121.964920000"><ele>142.2</ele><time>2026-08-04T00:00:00Z</time></trkpt>
<trkpt lat="37.817740000" lon="-121.964836000"><ele>142.2</ele><time>2026-08-04T00:00:00Z</time></trkpt>
<trkpt lat="37.817688000" lon="-121.964750000"><ele>142.2</ele><time>2026-08-04T00:00:00Z</time></trkpt>
<trkpt lat="37.817620000" lon="-121.964680000"><ele>142.2</ele><time>2026-08-04T00:00:00Z</time></trkpt>
<trkpt lat="37.817570000" lon="-121.964590000"><ele>142.2</ele><time>2026-08-04T00:00:00Z</time></trkpt>
<trkpt lat="37.817524000" lon="-121.964510000"><ele>142.2</ele><time>2026-08-04T00:00:00Z</time></trkpt>
<trkpt lat="37.817486000" lon="-121.964410000"><ele>142.1</ele><time>2026-08-04T00:00:00Z</time></trkpt>
<trkpt lat="37.817436000" lon="-121.964310000"><ele>141.9</ele><time>2026-08-04T00:00:00Z</time></trkpt>
<trkpt lat="37.817400000" lon="-121.964220000"><ele>141.7</ele><time>2026-08-04T00:00:00Z</time></trkpt>
<trkpt lat="37.817368000" lon="-121.964110000"><ele>141.6</ele><time>2026-08-04T00:00:00Z</time></trkpt>
<trkpt lat="37.817345000" lon="-121.964000000"><ele>141.5</ele><time>2026-08-04T00:00:00Z</time></trkpt>
<trkpt lat="37.817318000" lon="-121.963880000"><ele>141.3</ele><time>2026-08-04T00:00:00Z</time></trkpt>
<trkpt lat="37.817303000" lon="-121.963776000"><ele>141.1</ele><time>2026-08-04T00:00:00Z</time></trkpt>
<trkpt lat="37.817295000" lon="-121.963650000"><ele>140.9</ele><time>2026-08-04T00:00:00Z</time></trkpt>
<trkpt lat="37.817295000" lon="-121.963540000"><ele>140.7</ele><time>2026-08-04T00:00:00Z</time></trkpt>
<trkpt lat="37.817290000" lon="-121.963425000"><ele>140.5</ele><time>2026-08-04T00:00:00Z</time></trkpt>
<trkpt lat="37.817284000" lon="-121.963320000"><ele>140.4</ele><time>2026-08-04T00:00:00Z</time></trkpt>
<trkpt lat="37.817276000" lon="-121.963200000"><ele>140.3</ele><time>2026-08-04T00:00:00Z</time></trkpt>
<trkpt lat="37.817260000" lon="-121.963100000"><ele>140.3</ele><time>2026-08-04T00:00:00Z</time></trkpt>
<trkpt lat="37.817238000" lon="-121.962990000"><ele>140.3</ele><time>2026-08-04T00:00:00Z</time></trkpt>
<trkpt lat="37.817210000" lon="-121.962880000"><ele>140.3</ele><time>2026-08-04T00:00:00Z</time></trkpt>
<trkpt lat="37.817190000" lon="-121.962776000"><ele>140.4</ele><time>2026-08-04T00:00:00Z</time></trkpt>
<trkpt lat="37.817165000" lon="-121.962680000"><ele>140.5</ele><time>2026-08-04T00:00:00Z</time></trkpt>
<trkpt lat="37.817150000" lon="-121.962580000"><ele>140.5</ele><time>2026-08-04T00:00:00Z</time></trkpt>
<trkpt lat="37.817127000" lon="-121.962480000"><ele>140.7</ele><time>2026-08-04T00:00:00Z</time></trkpt>
<trkpt lat="37.817093000" lon="-121.962370000"><ele>140.9</ele><time>2026-08-04T00:00:00Z</time></trkpt>
<trkpt lat="37.817047000" lon="-121.962280000"><ele>141.1</ele><time>2026-08-04T00:00:00Z</time></trkpt>
<trkpt lat="37.817010000" lon="-121.962170000"><ele>141.3</ele><time>2026-08-04T00:00:00Z</time></trkpt>
<trkpt lat="37.816950000" lon="-121.962090000"><ele>141.5</ele><time>2026-08-04T00:00:00Z</time></trkpt>
<trkpt lat="37.816890000" lon="-121.962010000"><ele>141.7</ele><time>2026-08-04T00:00:00Z</time></trkpt>
<trkpt lat="37.816822000" lon="-121.961940000"><ele>141.9</ele><time>2026-08-04T00:00:00Z</time></trkpt>
<trkpt lat="37.816746000" lon="-121.961880000"><ele>142.1</ele><time>2026-08-04T00:00:00Z</time></trkpt>
<trkpt lat="37.816670000" lon="-121.961830000"><ele>142.4</ele><time>2026-08-04T00:00:00Z</time></trkpt>
<trkpt lat="37.816590000" lon="-121.961770000"><ele>142.6</ele><time>2026-08-04T00:00:00Z</time></trkpt>
<trkpt lat="37.816513000" lon="-121.961720000"><ele>142.9</ele><time>2026-08-04T00:00:00Z</time></trkpt>
<trkpt lat="37.816437000" lon="-121.961660000"><ele>143.1</ele><time>2026-08-04T00:00:00Z</time></trkpt>
<trkpt lat="37.816364000" lon="-121.961600000"><ele>143.4</ele><time>2026-08-04T00:00:00Z</time></trkpt>
<trkpt lat="37.816288000" lon="-121.961530000"><ele>143.6</ele><time>2026-08-04T00:00:00Z</time></trkpt>
<trkpt lat="37.816216000" lon="-121.961464000"><ele>143.8</ele><time>2026-08-04T00:00:00Z</time></trkpt>
<trkpt lat="37.816147000" lon="-121.961390000"><ele>144.0</ele><time>2026-08-04T00:00:00Z</time></trkpt>
<trkpt lat="37.816082000" lon="-121.961320000"><ele>144.2</ele><time>2026-08-04T00:00:00Z</time></trkpt>
<trkpt lat="37.816020000" lon="-121.961240000"><ele>144.4</ele><time>2026-08-04T00:00:00Z</time></trkpt>
<trkpt lat="37.815983000" lon="-121.961140000"><ele>144.5</ele><time>2026-08-04T00:00:00Z</time></trkpt>
<trkpt lat="37.815926000" lon="-121.961060000"><ele>144.7</ele><time>2026-08-04T00:00:00Z</time></trkpt>
<trkpt lat="37.815865000" lon="-121.960980000"><ele>144.9</ele><time>2026-08-04T00:00:00Z</time></trkpt>
<trkpt lat="37.815810000" lon="-121.960890000"><ele>145.1</ele><time>2026-08-04T00:00:00Z</time></trkpt>
<trkpt lat="37.815758000" lon="-121.960810000"><ele>145.3</ele><time>2026-08-04T00:00:00Z</time></trkpt>
<trkpt lat="37.815710000" lon="-121.960720000"><ele>145.5</ele><time>2026-08-04T00:00:00Z</time></trkpt>
<trkpt lat="37.815697000" lon="-121.960600000"><ele>145.7</ele><time>2026-08-04T00:00:00Z</time></trkpt>
<trkpt lat="37.815758000" lon="-121.960530000"><ele>146.1</ele><time>2026-08-04T00:00:00Z</time></trkpt>
<trkpt lat="37.815834000" lon="-121.960470000"><ele>146.5</ele><time>2026-08-04T00:00:00Z</time></trkpt>
<trkpt lat="37.815918000" lon="-121.960420000"><ele>147.0</ele><time>2026-08-04T00:00:00Z</time></trkpt>
<trkpt lat="37.815990000" lon="-121.960350000"><ele>147.5</ele><time>2026-08-04T00:00:00Z</time></trkpt>
<trkpt lat="37.816060000" lon="-121.960280000"><ele>148.2</ele><time>2026-08-04T00:00:00Z</time></trkpt>
<trkpt lat="37.816124000" lon="-121.960200000"><ele>148.8</ele><time>2026-08-04T00:00:00Z</time></trkpt>
<trkpt lat="37.816190000" lon="-121.960110000"><ele>149.5</ele><time>2026-08-04T00:00:00Z</time></trkpt>
<trkpt lat="37.816250000" lon="-121.960040000"><ele>150.4</ele><time>2026-08-04T00:00:00Z</time></trkpt>
<trkpt lat="37.816322000" lon="-121.959960000"><ele>151.4</ele><time>2026-08-04T00:00:00Z</time></trkpt>
<trkpt lat="37.816390000" lon="-121.959890000"><ele>152.4</ele><time>2026-08-04T00:00:00Z</time></trkpt>
<trkpt lat="37.816456000" lon="-121.959816000"><ele>153.5</ele><time>2026-08-04T00:00:00Z</time></trkpt>
<trkpt lat="37.816490000" lon="-121.959720000"><ele>154.7</ele><time>2026-08-04T00:00:00Z</time></trkpt>
<trkpt lat="37.816536000" lon="-121.959625000"><ele>155.9</ele><time>2026-08-04T00:00:00Z</time></trkpt>
<trkpt lat="37.816597000" lon="-121.959530000"><ele>157.2</ele><time>2026-08-04T00:00:00Z</time></trkpt>
<trkpt lat="37.816666000" lon="-121.959470000"><ele>158.5</ele><time>2026-08-04T00:00:00Z</time></trkpt>
<trkpt lat="37.816740000" lon="-121.959404000"><ele>159.8</ele><time>2026-08-04T00:00:00Z</time></trkpt>
<trkpt lat="37.816800000" lon="-121.959320000"><ele>161.2</ele><time>2026-08-04T00:00:00Z</time></trkpt>
<trkpt lat="37.816853000" lon="-121.959236000"><ele>162.5</ele><time>2026-08-04T00:00:00Z</time></trkpt>
<trkpt lat="37.816890000" lon="-121.959130000"><ele>164.0</ele><time>2026-08-04T00:00:00Z</time></trkpt>
<trkpt lat="37.816900000" lon="-121.959015000"><ele>165.4</ele><time>2026-08-04T00:00:00Z</time></trkpt>
<trkpt lat="37.816910000" lon="-121.958900000"><ele>166.7</ele><time>2026-08-04T00:00:00Z</time></trkpt>
<trkpt lat="37.816917000" lon="-121.958790000"><ele>168.0</ele><time>2026-08-04T00:00:00Z</time></trkpt>
<trkpt lat="37.816933000" lon="-121.958670000"><ele>169.2</ele><time>2026-08-04T00:00:00Z</time></trkpt>
<trkpt lat="37.816967000" lon="-121.958565000"><ele>170.4</ele><time>2026-08-04T00:00:00Z</time></trkpt>
<trkpt lat="37.817017000" lon="-121.958480000"><ele>171.4</ele><time>2026-08-04T00:00:00Z</time></trkpt>
<trkpt lat="37.817085000" lon="-121.958410000"><ele>172.2</ele><time>2026-08-04T00:00:00Z</time></trkpt>
<trkpt lat="37.817165000" lon="-121.958374000"><ele>172.7</ele><time>2026-08-04T00:00:00Z</time></trkpt>
<trkpt lat="37.817260000" lon="-121.958370000"><ele>173.1</ele><time>2026-08-04T00:00:00Z</time></trkpt>
<trkpt lat="37.817333000" lon="-121.958405000"><ele>173.4</ele><time>2026-08-04T00:00:00Z</time></trkpt>
<trkpt lat="37.817250000" lon="-121.958410000"><ele>173.3</ele><time>2026-08-04T00:00:00Z</time></trkpt>
<trkpt lat="37.817170000" lon="-121.958400000"><ele>173.0</ele><time>2026-08-04T00:00:00Z</time></trkpt>
<trkpt lat="37.817090000" lon="-121.958435000"><ele>172.5</ele><time>2026-08-04T00:00:00Z</time></trkpt>
<trkpt lat="37.817028000" lon="-121.958500000"><ele>171.7</ele><time>2026-08-04T00:00:00Z</time></trkpt>
<trkpt lat="37.817085000" lon="-121.958590000"><ele>170.8</ele><time>2026-08-04T00:00:00Z</time></trkpt>
<trkpt lat="37.817030000" lon="-121.958680000"><ele>169.7</ele><time>2026-08-04T00:00:00Z</time></trkpt>
<trkpt lat="37.816994000" lon="-121.958786000"><ele>168.6</ele><time>2026-08-04T00:00:00Z</time></trkpt>
<trkpt lat="37.816967000" lon="-121.958885000"><ele>167.5</ele><time>2026-08-04T00:00:00Z</time></trkpt>
<trkpt lat="37.816956000" lon="-121.958984000"><ele>166.2</ele><time>2026-08-04T00:00:00Z</time></trkpt>
<trkpt lat="37.816948000" lon="-121.959090000"><ele>164.9</ele><time>2026-08-04T00:00:00Z</time></trkpt>
<trkpt lat="37.816933000" lon="-121.959200000"><ele>163.5</ele><time>2026-08-04T00:00:00Z</time></trkpt>
<trkpt lat="37.816902000" lon="-121.959305000"><ele>162.2</ele><time>2026-08-04T00:00:00Z</time></trkpt>
<trkpt lat="37.816840000" lon="-121.959400000"><ele>160.7</ele><time>2026-08-04T00:00:00Z</time></trkpt>
<trkpt lat="37.816772000" lon="-121.959460000"><ele>159.4</ele><time>2026-08-04T00:00:00Z</time></trkpt>
<trkpt lat="37.816696000" lon="-121.959520000"><ele>158.0</ele><time>2026-08-04T00:00:00Z</time></trkpt>
<trkpt lat="37.816620000" lon="-121.959595000"><ele>156.7</ele><time>2026-08-04T00:00:00Z</time></trkpt>
<trkpt lat="37.816544000" lon="-121.959656000"><ele>155.5</ele><time>2026-08-04T00:00:00Z</time></trkpt>
<trkpt lat="37.816452000" lon="-121.959690000"><ele>154.3</ele><time>2026-08-04T00:00:00Z</time></trkpt>
<trkpt lat="37.816372000" lon="-121.959750000"><ele>153.2</ele><time>2026-08-04T00:00:00Z</time></trkpt>
<trkpt lat="37.816296000" lon="-121.959816000"><ele>152.2</ele><time>2026-08-04T00:00:00Z</time></trkpt>
<trkpt lat="37.816227000" lon="-121.959890000"><ele>151.2</ele><time>2026-08-04T00:00:00Z</time></trkpt>
<trkpt lat="37.816185000" lon="-121.959984000"><ele>150.3</ele><time>2026-08-04T00:00:00Z</time></trkpt>
<trkpt lat="37.816208000" lon="-121.960080000"><ele>149.5</ele><time>2026-08-04T00:00:00Z</time></trkpt>
<trkpt lat="37.816143000" lon="-121.960160000"><ele>148.8</ele><time>2026-08-04T00:00:00Z</time></trkpt>
<trkpt lat="37.816080000" lon="-121.960230000"><ele>148.2</ele><time>2026-08-04T00:00:00Z</time></trkpt>
<trkpt lat="37.816010000" lon="-121.960300000"><ele>147.6</ele><time>2026-08-04T00:00:00Z</time></trkpt>
<trkpt lat="37.815937000" lon="-121.960360000"><ele>147.1</ele><time>2026-08-04T00:00:00Z</time></trkpt>
<trkpt lat="37.815860000" lon="-121.960410000"><ele>146.6</ele><time>2026-08-04T00:00:00Z</time></trkpt>
<trkpt lat="37.815773000" lon="-121.960440000"><ele>146.2</ele><time>2026-08-04T00:00:00Z</time></trkpt>
<trkpt lat="37.815693000" lon="-121.960464000"><ele>145.7</ele><time>2026-08-04T00:00:00Z</time></trkpt>
<trkpt lat="37.815605000" lon="-121.960434000"><ele>145.4</ele><time>2026-08-04T00:00:00Z</time></trkpt>
<trkpt lat="37.815550000" lon="-121.960350000"><ele>145.0</ele><time>2026-08-04T00:00:00Z</time></trkpt>
<trkpt lat="37.815514000" lon="-121.960250000"><ele>144.6</ele><time>2026-08-04T00:00:00Z</time></trkpt>
<trkpt lat="37.815468000" lon="-121.960150000"><ele>144.4</ele><time>2026-08-04T00:00:00Z</time></trkpt>
<trkpt lat="37.815426000" lon="-121.960045000"><ele>144.1</ele><time>2026-08-04T00:00:00Z</time></trkpt>
<trkpt lat="37.815380000" lon="-121.959946000"><ele>143.9</ele><time>2026-08-04T00:00:00Z</time></trkpt>
<trkpt lat="37.815330000" lon="-121.959840000"><ele>143.6</ele><time>2026-08-04T00:00:00Z</time></trkpt>
<trkpt lat="37.815247000" lon="-121.959800000"><ele>143.4</ele><time>2026-08-04T00:00:00Z</time></trkpt>
<trkpt lat="37.815170000" lon="-121.959724000"><ele>143.1</ele><time>2026-08-04T00:00:00Z</time></trkpt>
<trkpt lat="37.815100000" lon="-121.959650000"><ele>142.8</ele><time>2026-08-04T00:00:00Z</time></trkpt>
<trkpt lat="37.815018000" lon="-121.959600000"><ele>142.5</ele><time>2026-08-04T00:00:00Z</time></trkpt>
<trkpt lat="37.814926000" lon="-121.959564000"><ele>142.3</ele><time>2026-08-04T00:00:00Z</time></trkpt>
<trkpt lat="37.814835000" lon="-121.959550000"><ele>142.1</ele><time>2026-08-04T00:00:00Z</time></trkpt>
<trkpt lat="37.814760000" lon="-121.959500000"><ele>141.8</ele><time>2026-08-04T00:00:00Z</time></trkpt>
<trkpt lat="37.814667000" lon="-121.959470000"><ele>141.5</ele><time>2026-08-04T00:00:00Z</time></trkpt>
<trkpt lat="37.814570000" lon="-121.959470000"><ele>141.2</ele><time>2026-08-04T00:00:00Z</time></trkpt>
<trkpt lat="37.814490000" lon="-121.959470000"><ele>140.8</ele><time>2026-08-04T00:00:00Z</time></trkpt>
<trkpt lat="37.814407000" lon="-121.959496000"><ele>140.5</ele><time>2026-08-04T00:00:00Z</time></trkpt>
<trkpt lat="37.814327000" lon="-121.959526000"><ele>140.3</ele><time>2026-08-04T00:00:00Z</time></trkpt>
<trkpt lat="37.814247000" lon="-121.959550000"><ele>140.0</ele><time>2026-08-04T00:00:00Z</time></trkpt>
<trkpt lat="37.814167000" lon="-121.959520000"><ele>139.7</ele><time>2026-08-04T00:00:00Z</time></trkpt>
<trkpt lat="37.814095000" lon="-121.959460000"><ele>139.5</ele><time>2026-08-04T00:00:00Z</time></trkpt>
<trkpt lat="37.814007000" lon="-121.959430000"><ele>139.4</ele><time>2026-08-04T00:00:00Z</time></trkpt>
<trkpt lat="37.813927000" lon="-121.959404000"><ele>139.2</ele><time>2026-08-04T00:00:00Z</time></trkpt>
<trkpt lat="37.813840000" lon="-121.959404000"><ele>139.0</ele><time>2026-08-04T00:00:00Z</time></trkpt>
<trkpt lat="37.813760000" lon="-121.959400000"><ele>138.8</ele><time>2026-08-04T00:00:00Z</time></trkpt>
<trkpt lat="37.813667000" lon="-121.959404000"><ele>138.7</ele><time>2026-08-04T00:00:00Z</time></trkpt>
<trkpt lat="37.813576000" lon="-121.959404000"><ele>138.6</ele><time>2026-08-04T00:00:00Z</time></trkpt>
<trkpt lat="37.813484000" lon="-121.959404000"><ele>138.5</ele><time>2026-08-04T00:00:00Z</time></trkpt>
<trkpt lat="37.813393000" lon="-121.959400000"><ele>138.5</ele><time>2026-08-04T00:00:00Z</time></trkpt>
<trkpt lat="37.813300000" lon="-121.959410000"><ele>138.5</ele><time>2026-08-04T00:00:00Z</time></trkpt>
<trkpt lat="37.813225000" lon="-121.959470000"><ele>138.5</ele><time>2026-08-04T00:00:00Z</time></trkpt>
<trkpt lat="37.813164000" lon="-121.959404000"><ele>138.5</ele><time>2026-08-04T00:00:00Z</time></trkpt>
<trkpt lat="37.813240000" lon="-121.959360000"><ele>138.5</ele><time>2026-08-04T00:00:00Z</time></trkpt>
<trkpt lat="37.813324000" lon="-121.959360000"><ele>138.5</ele><time>2026-08-04T00:00:00Z</time></trkpt>
<trkpt lat="37.813416000" lon="-121.959360000"><ele>138.5</ele><time>2026-08-04T00:00:00Z</time></trkpt>
<trkpt lat="37.813507000" lon="-121.959360000"><ele>138.6</ele><time>2026-08-04T00:00:00Z</time></trkpt>
<trkpt lat="37.813602000" lon="-121.959370000"><ele>138.7</ele><time>2026-08-04T00:00:00Z</time></trkpt>
<trkpt lat="37.813698000" lon="-121.959380000"><ele>138.8</ele><time>2026-08-04T00:00:00Z</time></trkpt>
<trkpt lat="37.813790000" lon="-121.959390000"><ele>138.9</ele><time>2026-08-04T00:00:00Z</time></trkpt>
<trkpt lat="37.813890000" lon="-121.959390000"><ele>139.0</ele><time>2026-08-04T00:00:00Z</time></trkpt>
<trkpt lat="37.813980000" lon="-121.959390000"><ele>139.0</ele><time>2026-08-04T00:00:00Z</time></trkpt>
<trkpt lat="37.814075000" lon="-121.959400000"><ele>139.0</ele><time>2026-08-04T00:00:00Z</time></trkpt>
<trkpt lat="37.814156000" lon="-121.959450000"><ele>139.0</ele><time>2026-08-04T00:00:00Z</time></trkpt>
<trkpt lat="37.814205000" lon="-121.959530000"><ele>139.0</ele><time>2026-08-04T00:00:00Z</time></trkpt>
<trkpt lat="37.814205000" lon="-121.959640000"><ele>138.9</ele><time>2026-08-04T00:00:00Z</time></trkpt>
<trkpt lat="37.814148000" lon="-121.959724000"><ele>138.8</ele><time>2026-08-04T00:00:00Z</time></trkpt>
<trkpt lat="37.814095000" lon="-121.959810000"><ele>138.7</ele><time>2026-08-04T00:00:00Z</time></trkpt>
<trkpt lat="37.814050000" lon="-121.959890000"><ele>138.6</ele><time>2026-08-04T00:00:00Z</time></trkpt>
<trkpt lat="37.814020000" lon="-121.960010000"><ele>138.6</ele><time>2026-08-04T00:00:00Z</time></trkpt>
<trkpt lat="37.814003000" lon="-121.960110000"><ele>138.5</ele><time>2026-08-04T00:00:00Z</time></trkpt>
<trkpt lat="37.813980000" lon="-121.960230000"><ele>138.5</ele><time>2026-08-04T00:00:00Z</time></trkpt>
<trkpt lat="37.813896000" lon="-121.960266000"><ele>138.4</ele><time>2026-08-04T00:00:00Z</time></trkpt>
<trkpt lat="37.813810000" lon="-121.960290000"><ele>138.3</ele><time>2026-08-04T00:00:00Z</time></trkpt>
<trkpt lat="37.813732000" lon="-121.960335000"><ele>138.1</ele><time>2026-08-04T00:00:00Z</time></trkpt>
<trkpt lat="37.813824000" lon="-121.960335000"><ele>137.9</ele><time>2026-08-04T00:00:00Z</time></trkpt>
<trkpt lat="37.813908000" lon="-121.960360000"><ele>137.8</ele><time>2026-08-04T00:00:00Z</time></trkpt>
<trkpt lat="37.813988000" lon="-121.960410000"><ele>137.7</ele><time>2026-08-04T00:00:00Z</time></trkpt>
<trkpt lat="37.814050000" lon="-121.960500000"><ele>137.6</ele><time>2026-08-04T00:00:00Z</time></trkpt>
<trkpt lat="37.814100000" lon="-121.960600000"><ele>137.5</ele><time>2026-08-04T00:00:00Z</time></trkpt>
<trkpt lat="37.814156000" lon="-121.960700000"><ele>137.3</ele><time>2026-08-04T00:00:00Z</time></trkpt>
<trkpt lat="37.814213000" lon="-121.960800000"><ele>137.1</ele><time>2026-08-04T00:00:00Z</time></trkpt>
<trkpt lat="37.814270000" lon="-121.960880000"><ele>136.9</ele><time>2026-08-04T00:00:00Z</time></trkpt>
<trkpt lat="37.814330000" lon="-121.960945000"><ele>136.7</ele><time>2026-08-04T00:00:00Z</time></trkpt>
<trkpt lat="37.814396000" lon="-121.961020000"><ele>136.5</ele><time>2026-08-04T00:00:00Z</time></trkpt>
<trkpt lat="37.814460000" lon="-121.961090000"><ele>136.5</ele><time>2026-08-04T00:00:00Z</time></trkpt>
<trkpt lat="37.814520000" lon="-121.961170000"><ele>136.4</ele><time>2026-08-04T00:00:00Z</time></trkpt>
<trkpt lat="37.814570000" lon="-121.961250000"><ele>136.3</ele><time>2026-08-04T00:00:00Z</time></trkpt>
<trkpt lat="37.814610000" lon="-121.961340000"><ele>136.2</ele><time>2026-08-04T00:00:00Z</time></trkpt>
<trkpt lat="37.814648000" lon="-121.961440000"><ele>136.1</ele><time>2026-08-04T00:00:00Z</time></trkpt>
<trkpt lat="37.814693000" lon="-121.961525000"><ele>135.9</ele><time>2026-08-04T00:00:00Z</time></trkpt>
<trkpt lat="37.814754000" lon="-121.961624000"><ele>135.8</ele><time>2026-08-04T00:00:00Z</time></trkpt>
<trkpt lat="37.814800000" lon="-121.961710000"><ele>135.8</ele><time>2026-08-04T00:00:00Z</time></trkpt>
<trkpt lat="37.814846000" lon="-121.961790000"><ele>135.8</ele><time>2026-08-04T00:00:00Z</time></trkpt>
<trkpt lat="37.814896000" lon="-121.961876000"><ele>135.7</ele><time>2026-08-04T00:00:00Z</time></trkpt>
<trkpt lat="37.814950000" lon="-121.961975000"><ele>135.6</ele><time>2026-08-04T00:00:00Z</time></trkpt>
<trkpt lat="37.815014000" lon="-121.962040000"><ele>135.5</ele><time>2026-08-04T00:00:00Z</time></trkpt>
<trkpt lat="37.815083000" lon="-121.962120000"><ele>135.5</ele><time>2026-08-04T00:00:00Z</time></trkpt>
<trkpt lat="37.815136000" lon="-121.962200000"><ele>135.4</ele><time>2026-08-04T00:00:00Z</time></trkpt>
<trkpt lat="37.815205000" lon="-121.962260000"><ele>135.3</ele><time>2026-08-04T00:00:00Z</time></trkpt>
<trkpt lat="37.815285000" lon="-121.962326000"><ele>135.2</ele><time>2026-08-04T00:00:00Z</time></trkpt>
<trkpt lat="37.815342000" lon="-121.962425000"><ele>135.2</ele><time>2026-08-04T00:00:00Z</time></trkpt>
<trkpt lat="37.815407000" lon="-121.962510000"><ele>135.1</ele><time>2026-08-04T00:00:00Z</time></trkpt>
<trkpt lat="37.815470000" lon="-121.962580000"><ele>134.9</ele><time>2026-08-04T00:00:00Z</time></trkpt>
<trkpt lat="37.815536000" lon="-121.962660000"><ele>134.7</ele><time>2026-08-04T00:00:00Z</time></trkpt>
<trkpt lat="37.815613000" lon="-121.962730000"><ele>134.6</ele><time>2026-08-04T00:00:00Z</time></trkpt>
<trkpt lat="37.815670000" lon="-121.962814000"><ele>134.5</ele><time>2026-08-04T00:00:00Z</time></trkpt>
<trkpt lat="37.815723000" lon="-121.962910000"><ele>134.5</ele><time>2026-08-04T00:00:00Z</time></trkpt>
<trkpt lat="37.815746000" lon="-121.963010000"><ele>134.4</ele><time>2026-08-04T00:00:00Z</time></trkpt>
<trkpt lat="37.815777000" lon="-121.963120000"><ele>134.3</ele><time>2026-08-04T00:00:00Z</time></trkpt>
<trkpt lat="37.815834000" lon="-121.963220000"><ele>134.2</ele><time>2026-08-04T00:00:00Z</time></trkpt>
<trkpt lat="37.815890000" lon="-121.963310000"><ele>134.1</ele><time>2026-08-04T00:00:00Z</time></trkpt>
<trkpt lat="37.815937000" lon="-121.963425000"><ele>134.0</ele><time>2026-08-04T00:00:00Z</time></trkpt>
<trkpt lat="37.815975000" lon="-121.963530000"><ele>134.1</ele><time>2026-08-04T00:00:00Z</time></trkpt>
<trkpt lat="37.816006000" lon="-121.963630000"><ele>134.2</ele><time>2026-08-04T00:00:00Z</time></trkpt>
<trkpt lat="37.816032000" lon="-121.963730000"><ele>134.3</ele><time>2026-08-04T00:00:00Z</time></trkpt>
<trkpt lat="37.816055000" lon="-121.963830000"><ele>134.5</ele><time>2026-08-04T00:00:00Z</time></trkpt>
<trkpt lat="37.816086000" lon="-121.963930000"><ele>134.6</ele><time>2026-08-04T00:00:00Z</time></trkpt>
<trkpt lat="37.816135000" lon="-121.964035000"><ele>134.8</ele><time>2026-08-04T00:00:00Z</time></trkpt>
<trkpt lat="37.816174000" lon="-121.964130000"><ele>135.0</ele><time>2026-08-04T00:00:00Z</time></trkpt>
<trkpt lat="37.816196000" lon="-121.964230000"><ele>135.2</ele><time>2026-08-04T00:00:00Z</time></trkpt>
<trkpt lat="37.816223000" lon="-121.964355000"><ele>135.4</ele><time>2026-08-04T00:00:00Z</time></trkpt>
<trkpt lat="37.816254000" lon="-121.964460000"><ele>135.5</ele><time>2026-08-04T00:00:00Z</time></trkpt>
<trkpt lat="37.816260000" lon="-121.964580000"><ele>135.7</ele><time>2026-08-04T00:00:00Z</time></trkpt>
<trkpt lat="37.816300000" lon="-121.964676000"><ele>135.9</ele><time>2026-08-04T00:00:00Z</time></trkpt>
<trkpt lat="37.816340000" lon="-121.964770000"><ele>136.1</ele><time>2026-08-04T00:00:00Z</time></trkpt>
<trkpt lat="37.816376000" lon="-121.964880000"><ele>136.3</ele><time>2026-08-04T00:00:00Z</time></trkpt>
<trkpt lat="37.816400000" lon="-121.965000000"><ele>136.4</ele><time>2026-08-04T00:00:00Z</time></trkpt>
<trkpt lat="37.816425000" lon="-121.965096000"><ele>136.5</ele><time>2026-08-04T00:00:00Z</time></trkpt>
<trkpt lat="37.816456000" lon="-121.965210000"><ele>136.5</ele><time>2026-08-04T00:00:00Z</time></trkpt>
<trkpt lat="37.816486000" lon="-121.965310000"><ele>136.6</ele><time>2026-08-04T00:00:00Z</time></trkpt>
<trkpt lat="37.816536000" lon="-121.965416000"><ele>136.7</ele><time>2026-08-04T00:00:00Z</time></trkpt>
<trkpt lat="37.816590000" lon="-121.965515000"><ele>136.8</ele><time>2026-08-04T00:00:00Z</time></trkpt>
<trkpt lat="37.816643000" lon="-121.965610000"><ele>136.9</ele><time>2026-08-04T00:00:00Z</time></trkpt>
<trkpt lat="37.816708000" lon="-121.965700000"><ele>137.0</ele><time>2026-08-04T00:00:00Z</time></trkpt>
<trkpt lat="37.816765000" lon="-121.965800000"><ele>137.0</ele><time>2026-08-04T00:00:00Z</time></trkpt>
<trkpt lat="37.816784000" lon="-121.965904000"><ele>137.0</ele><time>2026-08-04T00:00:00Z</time></trkpt>
<trkpt lat="37.816780000" lon="-121.966010000"><ele>136.9</ele><time>2026-08-04T00:00:00Z</time></trkpt>
<trkpt lat="37.816795000" lon="-121.966125000"><ele>136.8</ele><time>2026-08-04T00:00:00Z</time></trkpt>
<trkpt lat="37.816830000" lon="-121.966230000"><ele>136.8</ele><time>2026-08-04T00:00:00Z</time></trkpt>
<trkpt lat="37.816875000" lon="-121.966340000"><ele>136.8</ele><time>2026-08-04T00:00:00Z</time></trkpt>
<trkpt lat="37.816914000" lon="-121.966446000"><ele>136.8</ele><time>2026-08-04T00:00:00Z</time></trkpt>
<trkpt lat="37.816948000" lon="-121.966560000"><ele>136.8</ele><time>2026-08-04T00:00:00Z</time></trkpt>
<trkpt lat="37.816982000" lon="-121.966660000"><ele>136.8</ele><time>2026-08-04T00:00:00Z</time></trkpt>
<trkpt lat="37.817020000" lon="-121.966774000"><ele>136.8</ele><time>2026-08-04T00:00:00Z</time></trkpt>
<trkpt lat="37.817020000" lon="-121.966880000"><ele>136.7</ele><time>2026-08-04T00:00:00Z</time></trkpt>
<trkpt lat="37.817047000" lon="-121.966900000"><ele>136.7</ele><time>2026-08-04T00:00:00Z</time></trkpt>
</trkseg>
</trk>
</gpx>
