<?xml version="1.0" encoding="UTF-8"?>
<gpx
  version="1.1"
  creator="Runkeeper - http://www.runkeeper.com"
  xmlns:xsi="http://www.w3.org/2001/XMLSchema-instance"
  xmlns="http://www.topografix.com/GPX/1/1"
  xsi:schemaLocation="http://www.topografix.com/GPX/1/1 http://www.topografix.com/GPX/1/1/gpx.xsd"
  xmlns:gpxtpx="http://www.garmin.com/xmlschemas/TrackPointExtension/v1">
<trk>
  <name><![CDATA[Walking 7/29/26]]></name>
  <time>2026-07-29T00:00:00Z</time>
<trkseg>
<trkpt lat="37.820600000" lon="-121.978615000"><ele>125.2</ele><time>2026-07-29T00:00:00Z</time></trkpt>
<trkpt lat="37.820637000" lon="-121.978500000"><ele>125.3</ele><time>2026-07-29T00:00:00Z</time></trkpt>
<trkpt lat="37.820618000" lon="-121.978400000"><ele>125.5</ele><time>2026-07-29T00:00:00Z</time></trkpt>
<trkpt lat="37.820590000" lon="-121.978294000"><ele>125.7</ele><time>2026-07-29T00:00:00Z</time></trkpt>
<trkpt lat="37.820583000" lon="-121.978180000"><ele>125.9</ele><time>2026-07-29T00:00:00Z</time></trkpt>
<trkpt lat="37.820576000" lon="-121.978065000"><ele>126.1</ele><time>2026-07-29T00:00:00Z</time></trkpt>
<trkpt lat="37.820538000" lon="-121.977950000"><ele>126.5</ele><time>2026-07-29T00:00:00Z</time></trkpt>
<trkpt lat="37.820526000" lon="-121.977840000"><ele>126.8</ele><time>2026-07-29T00:00:00Z</time></trkpt>
<trkpt lat="37.820522000" lon="-121.977730000"><ele>127.2</ele><time>2026-07-29T00:00:00Z</time></trkpt>
<trkpt lat="37.820526000" lon="-121.977615000"><ele>127.6</ele><time>2026-07-29T00:00:00Z</time></trkpt>
<trkpt lat="37.820540000" lon="-121.977500000"><ele>128.1</ele><time>2026-07-29T00:00:00Z</time></trkpt>
<trkpt lat="37.820568000" lon="-121.977400000"><ele>128.6</ele><time>2026-07-29T00:00:00Z</time></trkpt>
<trkpt lat="37.820644000" lon="-121.977356000"><ele>129.3</ele><time>2026-07-29T00:00:00Z</time></trkpt>
<trkpt lat="37.820732000" lon="-121.977325000"><ele>129.8</ele><time>2026-07-29T00:00:00Z</time></trkpt>
<trkpt lat="37.820824000" lon="-121.977300000"><ele>130.5</ele><time>2026-07-29T00:00:00Z</time></trkpt>
<trkpt lat="37.820910000" lon="-121.977280000"><ele>131.1</ele><time>2026-07-29T00:00:00Z</time></trkpt>
<trkpt lat="37.820995000" lon="-121.977250000"><ele>131.7</ele><time>2026-07-29T00:00:00Z</time></trkpt>
<trkpt lat="37.821083000" lon="-121.977230000"><ele>132.5</ele><time>2026-07-29T00:00:00Z</time></trkpt>
<trkpt lat="37.821170000" lon="-121.977196000"><ele>133.4</ele><time>2026-07-29T00:00:00Z</time></trkpt>
<trkpt lat="37.821262000" lon="-121.977170000"><ele>134.3</ele><time>2026-07-29T00:00:00Z</time></trkpt>
<trkpt lat="37.821354000" lon="-121.977160000"><ele>135.2</ele><time>2026-07-29T00:00:00Z</time></trkpt>
<trkpt lat="37.821440000" lon="-121.977140000"><ele>136.1</ele><time>2026-07-29T00:00:00Z</time></trkpt>
<trkpt lat="37.821537000" lon="-121.977135000"><ele>137.0</ele><time>2026-07-29T00:00:00Z</time></trkpt>
<trkpt lat="37.821625000" lon="-121.977110000"><ele>138.0</ele><time>2026-07-29T00:00:00Z</time></trkpt>
<trkpt lat="37.821716000" lon="-121.977080000"><ele>139.2</ele><time>2026-07-29T00:00:00Z</time></trkpt>
<trkpt lat="37.821808000" lon="-121.977050000"><ele>140.4</ele><time>2026-07-29T00:00:00Z</time></trkpt>
<trkpt lat="37.821900000" lon="-121.977050000"><ele>141.5</ele><time>2026-07-29T00:00:00Z</time></trkpt>
<trkpt lat="37.821990000" lon="-121.977050000"><ele>142.7</ele><time>2026-07-29T00:00:00Z</time></trkpt>
<trkpt lat="37.822075000" lon="-121.977040000"><ele>143.9</ele><time>2026-07-29T00:00:00Z</time></trkpt>
<trkpt lat="37.822166000" lon="-121.977030000"><ele>145.0</ele><time>2026-07-29T00:00:00Z</time></trkpt>
<trkpt lat="37.822247000" lon="-121.976990000"><ele>146.1</ele><time>2026-07-29T00:00:00Z</time></trkpt>
<trkpt lat="37.822340000" lon="-121.976970000"><ele>147.3</ele><time>2026-07-29T00:00:00Z</time></trkpt>
<trkpt lat="37.822430000" lon="-121.976944000"><ele>148.5</ele><time>2026-07-29T00:00:00Z</time></trkpt>
<trkpt lat="37.822506000" lon="-121.977010000"><ele>149.6</ele><time>2026-07-29T00:00:00Z</time></trkpt>
<trkpt lat="37.822514000" lon="-121.977130000"><ele>150.7</ele><time>2026-07-29T00:00:00Z</time></trkpt>
<trkpt lat="37.822517000" lon="-121.977240000"><ele>151.6</ele><time>2026-07-29T00:00:00Z</time></trkpt>
<trkpt lat="37.822517000" lon="-121.977360000"><ele>152.5</ele><time>2026-07-29T00:00:00Z</time></trkpt>
<trkpt lat="37.822517000" lon="-121.977486000"><ele>153.2</ele><time>2026-07-29T00:00:00Z</time></trkpt>
<trkpt lat="37.822520000" lon="-121.977590000"><ele>153.9</ele><time>2026-07-29T00:00:00Z</time></trkpt>
<trkpt lat="37.822525000" lon="-121.977690000"><ele>154.4</ele><time>2026-07-29T00:00:00Z</time></trkpt>
<trkpt lat="37.822560000" lon="-121.977790000"><ele>154.8</ele><time>2026-07-29T00:00:00Z</time></trkpt>
<trkpt lat="37.822544000" lon="-121.977905000"><ele>155.0</ele><time>2026-07-29T00:00:00Z</time></trkpt>
<trkpt lat="37.822536000" lon="-121.978030000"><ele>154.9</ele><time>2026-07-29T00:00:00Z</time></trkpt>
<trkpt lat="37.822533000" lon="-121.978134000"><ele>154.5</ele><time>2026-07-29T00:00:00Z</time></trkpt>
<trkpt lat="37.822548000" lon="-121.978240000"><ele>154.0</ele><time>2026-07-29T00:00:00Z</time></trkpt>
<trkpt lat="37.822575000" lon="-121.978350000"><ele>153.2</ele><time>2026-07-29T00:00:00Z</time></trkpt>
<trkpt lat="37.822636000" lon="-121.978420000"><ele>152.3</ele><time>2026-07-29T00:00:00Z</time></trkpt>
<trkpt lat="37.822678000" lon="-121.978516000"><ele>151.3</ele><time>2026-07-29T00:00:00Z</time></trkpt>
<trkpt lat="37.822730000" lon="-121.978590000"><ele>150.2</ele><time>2026-07-29T00:00:00Z</time></trkpt>
<trkpt lat="37.822800000" lon="-121.978660000"><ele>149.0</ele><time>2026-07-29T00:00:00Z</time></trkpt>
<trkpt lat="37.822876000" lon="-121.978714000"><ele>147.7</ele><time>2026-07-29T00:00:00Z</time></trkpt>
<trkpt lat="37.822960000" lon="-121.978760000"><ele>146.5</ele><time>2026-07-29T00:00:00Z</time></trkpt>
<trkpt lat="37.823048000" lon="-121.978780000"><ele>145.4</ele><time>2026-07-29T00:00:00Z</time></trkpt>
<trkpt lat="37.823135000" lon="-121.978810000"><ele>144.4</ele><time>2026-07-29T00:00:00Z</time></trkpt>
<trkpt lat="37.823220000" lon="-121.978836000"><ele>143.5</ele><time>2026-07-29T00:00:00Z</time></trkpt>
<trkpt lat="37.823307000" lon="-121.978874000"><ele>142.9</ele><time>2026-07-29T00:00:00Z</time></trkpt>
<trkpt lat="37.823387000" lon="-121.978930000"><ele>142.5</ele><time>2026-07-29T00:00:00Z</time></trkpt>
<trkpt lat="37.823483000" lon="-121.978960000"><ele>142.3</ele><time>2026-07-29T00:00:00Z</time></trkpt>
<trkpt lat="37.823570000" lon="-121.978966000"><ele>142.3</ele><time>2026-07-29T00:00:00Z</time></trkpt>
<trkpt lat="37.823654000" lon="-121.978935000"><ele>142.2</ele><time>2026-07-29T00:00:00Z</time></trkpt>
<trkpt lat="37.823734000" lon="-121.978905000"><ele>142.2</ele><time>2026-07-29T00:00:00Z</time></trkpt>
<trkpt lat="37.823822000" lon="-121.978890000"><ele>142.3</ele><time>2026-07-29T00:00:00Z</time></trkpt>
<trkpt lat="37.823906000" lon="-121.978870000"><ele>142.3</ele><time>2026-07-29T00:00:00Z</time></trkpt>
<trkpt lat="37.823990000" lon="-121.978874000"><ele>142.2</ele><time>2026-07-29T00:00:00Z</time></trkpt>
<trkpt lat="37.823902000" lon="-121.978910000"><ele>142.1</ele><time>2026-07-29T00:00:00Z</time></trkpt>
<trkpt lat="37.823814000" lon="-121.978930000"><ele>141.9</ele><time>2026-07-29T00:00:00Z</time></trkpt>
<trkpt lat="37.823734000" lon="-121.978935000"><ele>141.6</ele><time>2026-07-29T00:00:00Z</time></trkpt>
<trkpt lat="37.823658000" lon="-121.978990000"><ele>141.3</ele><time>2026-07-29T00:00:00Z</time></trkpt>
<trkpt lat="37.823605000" lon="-121.979065000"><ele>140.8</ele><time>2026-07-29T00:00:00Z</time></trkpt>
<trkpt lat="37.823560000" lon="-121.979170000"><ele>140.2</ele><time>2026-07-29T00:00:00Z</time></trkpt>
<trkpt lat="37.823532000" lon="-121.979280000"><ele>139.7</ele><time>2026-07-29T00:00:00Z</time></trkpt>
<trkpt lat="37.823510000" lon="-121.979390000"><ele>139.4</ele><time>2026-07-29T00:00:00Z</time></trkpt>
<trkpt lat="37.823498000" lon="-121.979515000"><ele>139.1</ele><time>2026-07-29T00:00:00Z</time></trkpt>
<trkpt lat="37.823494000" lon="-121.979630000"><ele>138.9</ele><time>2026-07-29T00:00:00Z</time></trkpt>
<trkpt lat="37.823498000" lon="-121.979740000"><ele>138.8</ele><time>2026-07-29T00:00:00Z</time></trkpt>
<trkpt lat="37.823505000" lon="-121.979840000"><ele>138.8</ele><time>2026-07-29T00:00:00Z</time></trkpt>
<trkpt lat="37.823500000" lon="-121.979950000"><ele>138.9</ele><time>2026-07-29T00:00:00Z</time></trkpt>
<trkpt lat="37.823505000" lon="-121.980060000"><ele>139.1</ele><time>2026-07-29T00:00:00Z</time></trkpt>
<trkpt lat="37.823513000" lon="-121.980170000"><ele>139.3</ele><time>2026-07-29T00:00:00Z</time></trkpt>
<trkpt lat="37.823520000" lon="-121.980286000"><ele>139.5</ele><time>2026-07-29T00:00:00Z</time></trkpt>
<trkpt lat="37.823510000" lon="-121.980390000"><ele>139.8</ele><time>2026-07-29T00:00:00Z</time></trkpt>
<trkpt lat="37.823510000" lon="-121.980500000"><ele>140.1</ele><time>2026-07-29T00:00:00Z</time></trkpt>
<trkpt lat="37.823505000" lon="-121.980610000"><ele>140.2</ele><time>2026-07-29T00:00:00Z</time></trkpt>
<trkpt lat="37.823486000" lon="-121.980720000"><ele>140.3</ele><time>2026-07-29T00:00:00Z</time></trkpt>
<trkpt lat="37.823486000" lon="-121.980830000"><ele>140.5</ele><time>2026-07-29T00:00:00Z</time></trkpt>
<trkpt lat="37.823530000" lon="-121.980736000"><ele>140.7</ele><time>2026-07-29T00:00:00Z</time></trkpt>
<trkpt lat="37.823513000" lon="-121.980630000"><ele>141.0</ele><time>2026-07-29T00:00:00Z</time></trkpt>
<trkpt lat="37.823505000" lon="-121.980520000"><ele>141.4</ele><time>2026-07-29T00:00:00Z</time></trkpt>
<trkpt lat="37.823544000" lon="-121.980420000"><ele>141.7</ele><time>2026-07-29T00:00:00Z</time></trkpt>
<trkpt lat="37.823635000" lon="-121.980420000"><ele>142.2</ele><time>2026-07-29T00:00:00Z</time></trkpt>
<trkpt lat="37.823723000" lon="-121.980420000"><ele>142.7</ele><time>2026-07-29T00:00:00Z</time></trkpt>
<trkpt lat="37.823803000" lon="-121.980380000"><ele>143.4</ele><time>2026-07-29T00:00:00Z</time></trkpt>
<trkpt lat="37.823870000" lon="-121.980320000"><ele>144.1</ele><time>2026-07-29T00:00:00Z</time></trkpt>
<trkpt lat="37.823956000" lon="-121.980310000"><ele>144.9</ele><time>2026-07-29T00:00:00Z</time></trkpt>
<trkpt lat="37.824040000" lon="-121.980310000"><ele>145.8</ele><time>2026-07-29T00:00:00Z</time></trkpt>
<trkpt lat="37.824123000" lon="-121.980310000"><ele>146.7</ele><time>2026-07-29T00:00:00Z</time></trkpt>
<trkpt lat="37.824215000" lon="-121.980310000"><ele>147.7</ele><time>2026-07-29T00:00:00Z</time></trkpt>
<trkpt lat="37.824290000" lon="-121.980260000"><ele>148.7</ele><time>2026-07-29T00:00:00Z</time></trkpt>
<trkpt lat="37.824337000" lon="-121.980160000"><ele>149.7</ele><time>2026-07-29T00:00:00Z</time></trkpt>
<trkpt lat="37.824368000" lon="-121.980064000"><ele>150.8</ele><time>2026-07-29T00:00:00Z</time></trkpt>
<trkpt lat="37.824425000" lon="-121.979965000"><ele>151.9</ele><time>2026-07-29T00:00:00Z</time></trkpt>
<trkpt lat="37.824497000" lon="-121.979900000"><ele>153.1</ele><time>2026-07-29T00:00:00Z</time></trkpt>
<trkpt lat="37.824560000" lon="-121.979820000"><ele>154.3</ele><time>2026-07-29T00:00:00Z</time></trkpt>
<trkpt lat="37.824623000" lon="-121.979760000"><ele>155.5</ele><time>2026-07-29T00:00:00Z</time></trkpt>
<trkpt lat="37.824688000" lon="-121.979690000"><ele>156.7</ele><time>2026-07-29T00:00:00Z</time></trkpt>
<trkpt lat="37.824750000" lon="-121.979614000"><ele>158.0</ele><time>2026-07-29T00:00:00Z</time></trkpt>
<trkpt lat="37.824810000" lon="-121.979530000"><ele>159.3</ele><time>2026-07-29T00:00:00Z</time></trkpt>
<trkpt lat="37.824867000" lon="-121.979450000"><ele>160.5</ele><time>2026-07-29T00:00:00Z</time></trkpt>
<trkpt lat="37.824936000" lon="-121.979380000"><ele>161.6</ele><time>2026-07-29T00:00:00Z</time></trkpt>
<trkpt lat="37.824993000" lon="-121.979310000"><ele>162.7</ele><time>2026-07-29T00:00:00Z</time></trkpt>
<trkpt lat="37.825050000" lon="-121.979230000"><ele>163.5</ele><time>2026-07-29T00:00:00Z</time></trkpt>
<trkpt lat="37.825115000" lon="-121.979160000"><ele>164.2</ele><time>2026-07-29T00:00:00Z</time></trkpt>
<trkpt lat="37.825176000" lon="-121.979080000"><ele>164.5</ele><time>2026-07-29T00:00:00Z</time></trkpt>
<trkpt lat="37.825210000" lon="-121.978980000"><ele>164.7</ele><time>2026-07-29T00:00:00Z</time></trkpt>
<trkpt lat="37.825270000" lon="-121.979050000"><ele>164.7</ele><time>2026-07-29T00:00:00Z</time></trkpt>
<trkpt lat="37.825190000" lon="-121.979090000"><ele>164.5</ele><time>2026-07-29T00:00:00Z</time></trkpt>
<trkpt lat="37.825130000" lon="-121.979180000"><ele>164.1</ele><time>2026-07-29T00:00:00Z</time></trkpt>
<trkpt lat="37.825066000" lon="-121.979256000"><ele>163.5</ele><time>2026-07-29T00:00:00Z</time></trkpt>
<trkpt lat="37.824997000" lon="-121.979324000"><ele>162.5</ele><time>2026-07-29T00:00:00Z</time></trkpt>
<trkpt lat="37.824932000" lon="-121.979400000"><ele>161.5</ele><time>2026-07-29T00:00:00Z</time></trkpt>
<trkpt lat="37.824867000" lon="-121.979500000"><ele>160.2</ele><time>2026-07-29T00:00:00Z</time></trkpt>
<trkpt lat="37.824800000" lon="-121.979570000"><ele>158.9</ele><time>2026-07-29T00:00:00Z</time></trkpt>
<trkpt lat="37.824726000" lon="-121.979650000"><ele>157.6</ele><time>2026-07-29T00:00:00Z</time></trkpt>
<trkpt lat="37.824650000" lon="-121.979720000"><ele>156.4</ele><time>2026-07-29T00:00:00Z</time></trkpt>
<trkpt lat="37.824585000" lon="-121.979790000"><ele>155.1</ele><time>2026-07-29T00:00:00Z</time></trkpt>
<trkpt lat="37.824524000" lon="-121.979860000"><ele>153.9</ele><time>2026-07-29T00:00:00Z</time></trkpt>
<trkpt lat="37.824460000" lon="-121.979935000"><ele>152.7</ele><time>2026-07-29T00:00:00Z</time></trkpt>
<trkpt lat="37.824398000" lon="-121.980020000"><ele>151.7</ele><time>2026-07-29T00:00:00Z</time></trkpt>
<trkpt lat="37.824360000" lon="-121.980120000"><ele>150.8</ele><time>2026-07-29T00:00:00Z</time></trkpt>
<trkpt lat="37.824337000" lon="-121.980225000"><ele>150.1</ele><time>2026-07-29T00:00:00Z</time></trkpt>
<trkpt lat="37.824306000" lon="-121.980316000"><ele>149.5</ele><time>2026-07-29T00:00:00Z</time></trkpt>
<trkpt lat="37.824215000" lon="-121.980354000"><ele>148.9</ele><time>2026-07-29T00:00:00Z</time></trkpt>
<trkpt lat="37.824130000" lon="-121.980420000"><ele>148.4</ele><time>2026-07-29T00:00:00Z</time></trkpt>
<trkpt lat="37.824215000" lon="-121.980446000"><ele>147.8</ele><time>2026-07-29T00:00:00Z</time></trkpt>
<trkpt lat="37.824226000" lon="-121.980330000"><ele>147.3</ele><time>2026-07-29T00:00:00Z</time></trkpt>
<trkpt lat="37.824140000" lon="-121.980310000"><ele>146.6</ele><time>2026-07-29T00:00:00Z</time></trkpt>
<trkpt lat="37.824060000" lon="-121.980340000"><ele>145.9</ele><time>2026-07-29T00:00:00Z</time></trkpt>
<trkpt lat="37.823986000" lon="-121.980400000"><ele>145.2</ele><time>2026-07-29T00:00:00Z</time></trkpt>
<trkpt lat="37.823902000" lon="-121.980430000"><ele>144.4</ele><time>2026-07-29T00:00:00Z</time></trkpt>
<trkpt lat="37.823820000" lon="-121.980420000"><ele>143.5</ele><time>2026-07-29T00:00:00Z</time></trkpt>
<trkpt lat="37.823734000" lon="-121.980420000"><ele>142.7</ele><time>2026-07-29T00:00:00Z</time></trkpt>
<trkpt lat="37.823647000" lon="-121.980420000"><ele>141.8</ele><time>2026-07-29T00:00:00Z</time></trkpt>
<trkpt lat="37.823555000" lon="-121.980420000"><ele>141.0</ele><time>2026-07-29T00:00:00Z</time></trkpt>
<trkpt lat="37.823483000" lon="-121.980354000"><ele>140.3</ele><time>2026-07-29T00:00:00Z</time></trkpt>
<trkpt lat="37.823456000" lon="-121.980255000"><ele>139.6</ele><time>2026-07-29T00:00:00Z</time></trkpt>
<trkpt lat="37.823452000" lon="-121.980140000"><ele>139.1</ele><time>2026-07-29T00:00:00Z</time></trkpt>
<trkpt lat="37.823456000" lon="-121.980030000"><ele>138.7</ele><time>2026-07-29T00:00:00Z</time></trkpt>
<trkpt lat="37.823460000" lon="-121.979910000"><ele>138.5</ele><time>2026-07-29T00:00:00Z</time></trkpt>
<trkpt lat="37.823467000" lon="-121.979805000"><ele>138.5</ele><time>2026-07-29T00:00:00Z</time></trkpt>
<trkpt lat="37.823463000" lon="-121.979700000"><ele>138.5</ele><time>2026-07-29T00:00:00Z</time></trkpt>
<trkpt lat="37.823450000" lon="-121.979590000"><ele>138.6</ele><time>2026-07-29T00:00:00Z</time></trkpt>
<trkpt lat="37.823456000" lon="-121.979485000"><ele>138.8</ele><time>2026-07-29T00:00:00Z</time></trkpt>
<trkpt lat="37.823456000" lon="-121.979380000"><ele>139.1</ele><time>2026-07-29T00:00:00Z</time></trkpt>
<trkpt lat="37.823470000" lon="-121.979280000"><ele>139.4</ele><time>2026-07-29T00:00:00Z</time></trkpt>
<trkpt lat="37.823500000" lon="-121.979170000"><ele>139.8</ele><time>2026-07-29T00:00:00Z</time></trkpt>
<trkpt lat="37.823513000" lon="-121.979065000"><ele>140.4</ele><time>2026-07-29T00:00:00Z</time></trkpt>
<trkpt lat="37.823460000" lon="-121.978970000"><ele>141.0</ele><time>2026-07-29T00:00:00Z</time></trkpt>
<trkpt lat="37.823383000" lon="-121.978930000"><ele>141.7</ele><time>2026-07-29T00:00:00Z</time></trkpt>
<trkpt lat="37.823288000" lon="-121.978900000"><ele>142.5</ele><time>2026-07-29T00:00:00Z</time></trkpt>
<trkpt lat="37.823200000" lon="-121.978860000"><ele>143.3</ele><time>2026-07-29T00:00:00Z</time></trkpt>
<trkpt lat="37.823120000" lon="-121.978820000"><ele>144.1</ele><time>2026-07-29T00:00:00Z</time></trkpt>
<trkpt lat="37.823036000" lon="-121.978810000"><ele>145.1</ele><time>2026-07-29T00:00:00Z</time></trkpt>
<trkpt lat="37.822945000" lon="-121.978790000"><ele>146.2</ele><time>2026-07-29T00:00:00Z</time></trkpt>
<trkpt lat="37.822860000" lon="-121.978760000"><ele>147.5</ele><time>2026-07-29T00:00:00Z</time></trkpt>
<trkpt lat="37.822790000" lon="-121.978710000"><ele>148.7</ele><time>2026-07-29T00:00:00Z</time></trkpt>
<trkpt lat="37.822712000" lon="-121.978645000"><ele>149.9</ele><time>2026-07-29T00:00:00Z</time></trkpt>
<trkpt lat="37.822650000" lon="-121.978550000"><ele>151.0</ele><time>2026-07-29T00:00:00Z</time></trkpt>
<trkpt lat="37.822605000" lon="-121.978460000"><ele>152.0</ele><time>2026-07-29T00:00:00Z</time></trkpt>
<trkpt lat="37.822563000" lon="-121.978360000"><ele>152.9</ele><time>2026-07-29T00:00:00Z</time></trkpt>
<trkpt lat="37.822520000" lon="-121.978264000"><ele>153.7</ele><time>2026-07-29T00:00:00Z</time></trkpt>
<trkpt lat="37.822502000" lon="-121.978165000"><ele>154.4</ele><time>2026-07-29T00:00:00Z</time></trkpt>
<trkpt lat="37.822495000" lon="-121.978050000"><ele>154.8</ele><time>2026-07-29T00:00:00Z</time></trkpt>
<trkpt lat="37.822483000" lon="-121.977950000"><ele>155.0</ele><time>2026-07-29T00:00:00Z</time></trkpt>
<trkpt lat="37.822490000" lon="-121.977830000"><ele>154.9</ele><time>2026-07-29T00:00:00Z</time></trkpt>
<trkpt lat="37.822502000" lon="-121.977720000"><ele>154.5</ele><time>2026-07-29T00:00:00Z</time></trkpt>
<trkpt lat="37.822480000" lon="-121.977615000"><ele>154.1</ele><time>2026-07-29T00:00:00Z</time></trkpt>
<trkpt lat="37.822500000" lon="-121.977500000"><ele>153.5</ele><time>2026-07-29T00:00:00Z</time></trkpt>
<trkpt lat="37.822510000" lon="-121.977380000"><ele>152.7</ele><time>2026-07-29T00:00:00Z</time></trkpt>
<trkpt lat="37.822510000" lon="-121.977260000"><ele>151.9</ele><time>2026-07-29T00:00:00Z</time></trkpt>
<trkpt lat="37.822510000" lon="-121.977150000"><ele>151.1</ele><time>2026-07-29T00:00:00Z</time></trkpt>
<trkpt lat="37.822510000" lon="-121.977030000"><ele>150.1</ele><time>2026-07-29T00:00:00Z</time></trkpt>
<trkpt lat="37.822460000" lon="-121.976944000"><ele>149.0</ele><time>2026-07-29T00:00:00Z</time></trkpt>
<trkpt lat="37.822376000" lon="-121.976950000"><ele>147.9</ele><time>2026-07-29T00:00:00Z</time></trkpt>
<trkpt lat="37.822296000" lon="-121.976974000"><ele>146.7</ele><time>2026-07-29T00:00:00Z</time></trkpt>
<trkpt lat="37.822216000" lon="-121.976990000"><ele>145.5</ele><time>2026-07-29T00:00:00Z</time></trkpt>
<trkpt lat="37.822136000" lon="-121.977010000"><ele>144.4</ele><time>2026-07-29T00:00:00Z</time></trkpt>
<trkpt lat="37.822040000" lon="-121.977020000"><ele>143.2</ele><time>2026-07-29T00:00:00Z</time></trkpt>
<trkpt lat="37.821957000" lon="-121.977036000"><ele>142.0</ele><time>2026-07-29T00:00:00Z</time></trkpt>
<trkpt lat="37.821870000" lon="-121.977040000"><ele>140.8</ele><time>2026-07-29T00:00:00Z</time></trkpt>
<trkpt lat="37.821790000" lon="-121.977066000"><ele>139.7</ele><time>2026-07-29T00:00:00Z</time></trkpt>
<trkpt lat="37.821700000" lon="-121.977090000"><ele>138.5</ele><time>2026-07-29T00:00:00Z</time></trkpt>
<trkpt lat="37.821613000" lon="-121.977110000"><ele>137.5</ele><time>2026-07-29T00:00:00Z</time></trkpt>
<trkpt lat="37.821520000" lon="-121.977140000"><ele>136.5</ele><time>2026-07-29T00:00:00Z</time></trkpt>
<trkpt lat="37.821438000" lon="-121.977165000"><ele>135.6</ele><time>2026-07-29T00:00:00Z</time></trkpt>
<trkpt lat="37.821350000" lon="-121.977170000"><ele>134.8</ele><time>2026-07-29T00:00:00Z</time></trkpt>
<trkpt lat="37.821255000" lon="-121.977196000"><ele>134.0</ele><time>2026-07-29T00:00:00Z</time></trkpt>
<trkpt lat="37.821167000" lon="-121.977210000"><ele>133.2</ele><time>2026-07-29T00:00:00Z</time></trkpt>
<trkpt lat="37.821070000" lon="-121.977240000"><ele>132.5</ele><time>2026-07-29T00:00:00Z</time></trkpt>
<trkpt lat="37.820984000" lon="-121.977264000"><ele>131.7</ele><time>2026-07-29T00:00:00Z</time></trkpt>
<trkpt lat="37.820896000" lon="-121.977280000"><ele>131.1</ele><time>2026-07-29T00:00:00Z</time></trkpt>
<trkpt lat="37.820812000" lon="-121.977300000"><ele>130.4</ele><time>2026-07-29T00:00:00Z</time></trkpt>
<trkpt lat="37.820724000" lon="-121.977325000"><ele>129.7</ele><time>2026-07-29T00:00:00Z</time></trkpt>
<trkpt lat="37.820644000" lon="-121.977356000"><ele>129.2</ele><time>2026-07-29T00:00:00Z</time></trkpt>
<trkpt lat="37.820583000" lon="-121.977440000"><ele>128.6</ele><time>2026-07-29T00:00:00Z</time></trkpt>
<trkpt lat="37.820568000" lon="-121.977550000"><ele>128.1</ele><time>2026-07-29T00:00:00Z</time></trkpt>
<trkpt lat="37.820568000" lon="-121.977660000"><ele>127.6</ele><time>2026-07-29T00:00:00Z</time></trkpt>
<trkpt lat="37.820564000" lon="-121.977770000"><ele>127.2</ele><time>2026-07-29T00:00:00Z</time></trkpt>
<trkpt lat="37.820570000" lon="-121.977880000"><ele>126.8</ele><time>2026-07-29T00:00:00Z</time></trkpt>
<trkpt lat="37.820606000" lon="-121.977980000"><ele>126.5</ele><time>2026-07-29T00:00:00Z</time></trkpt>
<trkpt lat="37.820602000" lon="-121.978080000"><ele>126.1</ele><time>2026-07-29T00:00:00Z</time></trkpt>
<trkpt lat="37.820602000" lon="-121.978200000"><ele>125.7</ele><time>2026-07-29T00:00:00Z</time></trkpt>
<trkpt lat="37.820614000" lon="-121.978320000"><ele>125.5</ele><time>2026-07-29T00:00:00Z</time></trkpt>
<trkpt lat="37.820618000" lon="-121.978424000"><ele>125.1</ele><time>2026-07-29T00:00:00Z</time></trkpt>
<trkpt lat="37.820633000" lon="-121.978530000"><ele>124.7</ele><time>2026-07-29T00:00:00Z</time></trkpt>
<trkpt lat="37.820650000" lon="-121.978630000"><ele>124.3</ele><time>2026-07-29T00:00:00Z</time></trkpt>
<trkpt lat="37.820652000" lon="-121.978740000"><ele>124.0</ele><time>2026-07-29T00:00:00Z</time></trkpt>
<trkpt lat="37.820667000" lon="-121.978850000"><ele>123.7</ele><time>2026-07-29T00:00:00Z</time></trkpt>
<trkpt lat="37.820670000" lon="-121.978970000"><ele>123.5</ele><time>2026-07-29T00:00:00Z</time></trkpt>
<trkpt lat="37.820656000" lon="-121.979080000"><ele>123.3</ele><time>2026-07-29T00:00:00Z</time></trkpt>
<trkpt lat="37.820667000" lon="-121.979180000"><ele>122.9</ele><time>2026-07-29T00:00:00Z</time></trkpt>
<trkpt lat="37.820686000" lon="-121.979290000"><ele>122.6</ele><time>2026-07-29T00:00:00Z</time></trkpt>
<trkpt lat="37.820713000" lon="-121.979410000"><ele>122.4</ele><time>2026-07-29T00:00:00Z</time></trkpt>
<trkpt lat="37.820760000" lon="-121.979510000"><ele>122.1</ele><time>2026-07-29T00:00:00Z</time></trkpt>
<trkpt lat="37.820790000" lon="-121.979614000"><ele>121.9</ele><time>2026-07-29T00:00:00Z</time></trkpt>
<trkpt lat="37.820824000" lon="-121.979730000"><ele>121.8</ele><time>2026-07-29T00:00:00Z</time></trkpt>
<trkpt lat="37.820866000" lon="-121.979836000"><ele>121.8</ele><time>2026-07-29T00:00:00Z</time></trkpt>
<trkpt lat="37.820904000" lon="-121.979930000"><ele>121.7</ele><time>2026-07-29T00:00:00Z</time></trkpt>
<trkpt lat="37.820923000" lon="-121.980034000"><ele>121.6</ele><time>2026-07-29T00:00:00Z</time></trkpt>
<trkpt lat="37.820880000" lon="-121.980125000"><ele>121.5</ele><time>2026-07-29T00:00:00Z</time></trkpt>
<trkpt lat="37.820892000" lon="-121.980230000"><ele>121.5</ele><time>2026-07-29T00:00:00Z</time></trkpt>
<trkpt lat="37.820854000" lon="-121.980330000"><ele>121.6</ele><time>2026-07-29T00:00:00Z</time></trkpt>
<trkpt lat="37.820774000" lon="-121.980400000"><ele>121.7</ele><time>2026-07-29T00:00:00Z</time></trkpt>
<trkpt lat="37.820860000" lon="-121.980350000"><ele>121.8</ele><time>2026-07-29T00:00:00Z</time></trkpt>
<trkpt lat="37.820805000" lon="-121.980270000"><ele>121.9</ele><time>2026-07-29T00:00:00Z</time></trkpt>
<trkpt lat="37.820835000" lon="-121.980170000"><ele>122.0</ele><time>2026-07-29T00:00:00Z</time></trkpt>
<trkpt lat="37.820820000" lon="-121.980150000"><ele>122.0</ele><time>2026-07-29T00:00:00Z</time></trkpt>
</trkseg>
</trk>
</gpx>
