<?xml version="1.0" encoding="UTF-8"?>
<gpx
  version="1.1"
  creator="Runkeeper - http://www.runkeeper.com"
  xmlns:xsi="http://www.w3.org/2001/XMLSchema-instance"
  xmlns="http://www.topografix.com/GPX/1/1"
  xsi:schemaLocation="http://www.topografix.com/GPX/1/1 http://www.topografix.com/GPX/1/1/gpx.xsd"
  xmlns:gpxtpx="http://www.garmin.com/xmlschemas/TrackPointExtension/v1">
<trk>
  <name><![CDATA[Walking 9/13/26]]></name>
  <time>2026-09-13T00:00:00Z</time>
<trkseg>
<trkpt lat="37.800580000" lon="-121.974240000"><ele>129.2</ele><time>2026-09-13T00:00:00Z</time></trkpt>
<trkpt lat="37.800545000" lon="-121.974335000"><ele>129.1</ele><time>2026-09-13T00:00:00Z</time></trkpt>
<trkpt lat="37.800533000" lon="-121.974450000"><ele>129.1</ele><time>2026-09-13T00:00:00Z</time></trkpt>
<trkpt lat="37.800530000" lon="-121.974550000"><ele>129.1</ele><time>2026-09-13T00:00:00Z</time></trkpt>
<trkpt lat="37.800440000" lon="-121.974556000"><ele>129.1</ele><time>2026-09-13T00:00:00Z</time></trkpt>
<trkpt lat="37.800360000" lon="-121.974520000"><ele>129.1</ele><time>2026-09-13T00:00:00Z</time></trkpt>
<trkpt lat="37.800262000" lon="-121.974495000"><ele>129.0</ele><time>2026-09-13T00:00:00Z</time></trkpt>
<trkpt lat="37.800182000" lon="-121.974464000"><ele>129.1</ele><time>2026-09-13T00:00:00Z</time></trkpt>
<trkpt lat="37.800106000" lon="-121.974430000"><ele>129.2</ele><time>2026-09-13T00:00:00Z</time></trkpt>
<trkpt lat="37.800022000" lon="-121.974410000"><ele>129.3</ele><time>2026-09-13T00:00:00Z</time></trkpt>
<trkpt lat="37.799946000" lon="-121.974380000"><ele>129.4</ele><time>2026-09-13T00:00:00Z</time></trkpt>
<trkpt lat="37.799866000" lon="-121.974340000"><ele>129.5</ele><time>2026-09-13T00:00:00Z</time></trkpt>
<trkpt lat="37.799790000" lon="-121.974300000"><ele>129.5</ele><time>2026-09-13T00:00:00Z</time></trkpt>
<trkpt lat="37.799706000" lon="-121.974300000"><ele>129.7</ele><time>2026-09-13T00:00:00Z</time></trkpt>
<trkpt lat="37.799625000" lon="-121.974240000"><ele>130.0</ele><time>2026-09-13T00:00:00Z</time></trkpt>
<trkpt lat="37.799545000" lon="-121.974230000"><ele>130.4</ele><time>2026-09-13T00:00:00Z</time></trkpt>
<trkpt lat="37.799488000" lon="-121.974150000"><ele>130.8</ele><time>2026-09-13T00:00:00Z</time></trkpt>
<trkpt lat="37.799507000" lon="-121.974045000"><ele>131.3</ele><time>2026-09-13T00:00:00Z</time></trkpt>
<trkpt lat="37.799520000" lon="-121.973940000"><ele>131.6</ele><time>2026-09-13T00:00:00Z</time></trkpt>
<trkpt lat="37.799500000" lon="-121.973820000"><ele>132.0</ele><time>2026-09-13T00:00:00Z</time></trkpt>
<trkpt lat="37.799530000" lon="-121.973724000"><ele>132.4</ele><time>2026-09-13T00:00:00Z</time></trkpt>
<trkpt lat="37.799570000" lon="-121.973625000"><ele>132.7</ele><time>2026-09-13T00:00:00Z</time></trkpt>
<trkpt lat="37.799583000" lon="-121.973510000"><ele>133.1</ele><time>2026-09-13T00:00:00Z</time></trkpt>
<trkpt lat="37.799660000" lon="-121.973460000"><ele>133.5</ele><time>2026-09-13T00:00:00Z</time></trkpt>
<trkpt lat="37.799732000" lon="-121.973404000"><ele>133.9</ele><time>2026-09-13T00:00:00Z</time></trkpt>
<trkpt lat="37.799812000" lon="-121.973434000"><ele>134.2</ele><time>2026-09-13T00:00:00Z</time></trkpt>
<trkpt lat="37.799885000" lon="-121.973390000"><ele>134.5</ele><time>2026-09-13T00:00:00Z</time></trkpt>
<trkpt lat="37.799892000" lon="-121.973280000"><ele>134.6</ele><time>2026-09-13T00:00:00Z</time></trkpt>
<trkpt lat="37.799890000" lon="-121.973170000"><ele>134.9</ele><time>2026-09-13T00:00:00Z</time></trkpt>
<trkpt lat="37.799880000" lon="-121.973060000"><ele>135.2</ele><time>2026-09-13T00:00:00Z</time></trkpt>
<trkpt lat="37.799896000" lon="-121.972946000"><ele>135.5</ele><time>2026-09-13T00:00:00Z</time></trkpt>
<trkpt lat="37.799934000" lon="-121.972850000"><ele>135.7</ele><time>2026-09-13T00:00:00Z</time></trkpt>
<trkpt lat="37.799988000" lon="-121.972755000"><ele>136.0</ele><time>2026-09-13T00:00:00Z</time></trkpt>
<trkpt lat="37.800030000" lon="-121.972664000"><ele>136.3</ele><time>2026-09-13T00:00:00Z</time></trkpt>
<trkpt lat="37.799970000" lon="-121.972580000"><ele>136.5</ele><time>2026-09-13T00:00:00Z</time></trkpt>
<trkpt lat="37.799960000" lon="-121.972480000"><ele>136.9</ele><time>2026-09-13T00:00:00Z</time></trkpt>
<trkpt lat="37.800022000" lon="-121.972404000"><ele>137.4</ele><time>2026-09-13T00:00:00Z</time></trkpt>
<trkpt lat="37.800068000" lon="-121.972310000"><ele>137.8</ele><time>2026-09-13T00:00:00Z</time></trkpt>
<trkpt lat="37.800064000" lon="-121.972180000"><ele>138.3</ele><time>2026-09-13T00:00:00Z</time></trkpt>
<trkpt lat="37.800050000" lon="-121.972070000"><ele>138.7</ele><time>2026-09-13T00:00:00Z</time></trkpt>
<trkpt lat="37.800056000" lon="-121.971970000"><ele>139.3</ele><time>2026-09-13T00:00:00Z</time></trkpt>
<trkpt lat="37.800064000" lon="-121.971855000"><ele>139.8</ele><time>2026-09-13T00:00:00Z</time></trkpt>
<trkpt lat="37.800080000" lon="-121.971750000"><ele>140.4</ele><time>2026-09-13T00:00:00Z</time></trkpt>
<trkpt lat="37.800090000" lon="-121.971634000"><ele>141.0</ele><time>2026-09-13T00:00:00Z</time></trkpt>
<trkpt lat="37.800137000" lon="-121.971540000"><ele>141.6</ele><time>2026-09-13T00:00:00Z</time></trkpt>
<trkpt lat="37.800194000" lon="-121.971466000"><ele>142.2</ele><time>2026-09-13T00:00:00Z</time></trkpt>
<trkpt lat="37.800262000" lon="-121.971390000"><ele>142.6</ele><time>2026-09-13T00:00:00Z</time></trkpt>
<trkpt lat="37.800316000" lon="-121.971306000"><ele>143.0</ele><time>2026-09-13T00:00:00Z</time></trkpt>
<trkpt lat="37.800335000" lon="-121.971200000"><ele>143.3</ele><time>2026-09-13T00:00:00Z</time></trkpt>
<trkpt lat="37.800350000" lon="-121.971085000"><ele>143.5</ele><time>2026-09-13T00:00:00Z</time></trkpt>
<trkpt lat="37.800377000" lon="-121.970985000"><ele>143.7</ele><time>2026-09-13T00:00:00Z</time></trkpt>
<trkpt lat="37.800310000" lon="-121.970910000"><ele>143.7</ele><time>2026-09-13T00:00:00Z</time></trkpt>
<trkpt lat="37.800285000" lon="-121.971016000"><ele>143.7</ele><time>2026-09-13T00:00:00Z</time></trkpt>
<trkpt lat="37.800335000" lon="-121.971110000"><ele>143.7</ele><time>2026-09-13T00:00:00Z</time></trkpt>
<trkpt lat="37.800280000" lon="-121.971016000"><ele>143.6</ele><time>2026-09-13T00:00:00Z</time></trkpt>
<trkpt lat="37.800213000" lon="-121.970955000"><ele>143.5</ele><time>2026-09-13T00:00:00Z</time></trkpt>
<trkpt lat="37.800125000" lon="-121.970940000"><ele>143.5</ele><time>2026-09-13T00:00:00Z</time></trkpt>
<trkpt lat="37.800037000" lon="-121.970924000"><ele>143.4</ele><time>2026-09-13T00:00:00Z</time></trkpt>
<trkpt lat="37.799942000" lon="-121.970910000"><ele>143.2</ele><time>2026-09-13T00:00:00Z</time></trkpt>
<trkpt lat="37.799850000" lon="-121.970920000"><ele>143.0</ele><time>2026-09-13T00:00:00Z</time></trkpt>
<trkpt lat="37.799767000" lon="-121.970955000"><ele>142.7</ele><time>2026-09-13T00:00:00Z</time></trkpt>
<trkpt lat="37.799700000" lon="-121.971020000"><ele>142.5</ele><time>2026-09-13T00:00:00Z</time></trkpt>
<trkpt lat="37.799618000" lon="-121.971010000"><ele>142.2</ele><time>2026-09-13T00:00:00Z</time></trkpt>
<trkpt lat="37.799522000" lon="-121.971010000"><ele>141.9</ele><time>2026-09-13T00:00:00Z</time></trkpt>
<trkpt lat="37.799440000" lon="-121.971020000"><ele>141.5</ele><time>2026-09-13T00:00:00Z</time></trkpt>
<trkpt lat="37.799360000" lon="-121.971040000"><ele>141.2</ele><time>2026-09-13T00:00:00Z</time></trkpt>
<trkpt lat="37.799274000" lon="-121.971054000"><ele>140.8</ele><time>2026-09-13T00:00:00Z</time></trkpt>
<trkpt lat="37.799190000" lon="-121.971060000"><ele>140.5</ele><time>2026-09-13T00:00:00Z</time></trkpt>
<trkpt lat="37.799103000" lon="-121.971070000"><ele>140.0</ele><time>2026-09-13T00:00:00Z</time></trkpt>
<trkpt lat="37.799026000" lon="-121.971120000"><ele>139.6</ele><time>2026-09-13T00:00:00Z</time></trkpt>
<trkpt lat="37.798940000" lon="-121.971090000"><ele>139.2</ele><time>2026-09-13T00:00:00Z</time></trkpt>
<trkpt lat="37.798850000" lon="-121.971110000"><ele>138.8</ele><time>2026-09-13T00:00:00Z</time></trkpt>
<trkpt lat="37.798767000" lon="-121.971085000"><ele>138.4</ele><time>2026-09-13T00:00:00Z</time></trkpt>
<trkpt lat="37.798683000" lon="-121.971070000"><ele>138.0</ele><time>2026-09-13T00:00:00Z</time></trkpt>
<trkpt lat="37.798590000" lon="-121.971060000"><ele>137.5</ele><time>2026-09-13T00:00:00Z</time></trkpt>
<trkpt lat="37.798504000" lon="-121.971060000"><ele>137.2</ele><time>2026-09-13T00:00:00Z</time></trkpt>
<trkpt lat="37.798416000" lon="-121.971100000"><ele>136.7</ele><time>2026-09-13T00:00:00Z</time></trkpt>
<trkpt lat="37.798412000" lon="-121.971210000"><ele>136.3</ele><time>2026-09-13T00:00:00Z</time></trkpt>
<trkpt lat="37.798405000" lon="-121.971320000"><ele>135.8</ele><time>2026-09-13T00:00:00Z</time></trkpt>
<trkpt lat="37.798393000" lon="-121.971436000"><ele>135.5</ele><time>2026-09-13T00:00:00Z</time></trkpt>
<trkpt lat="37.798390000" lon="-121.971550000"><ele>135.1</ele><time>2026-09-13T00:00:00Z</time></trkpt>
<trkpt lat="37.798386000" lon="-121.971660000"><ele>134.7</ele><time>2026-09-13T00:00:00Z</time></trkpt>
<trkpt lat="37.798380000" lon="-121.971760000"><ele>134.4</ele><time>2026-09-13T00:00:00Z</time></trkpt>
<trkpt lat="37.798386000" lon="-121.971880000"><ele>134.0</ele><time>2026-09-13T00:00:00Z</time></trkpt>
<trkpt lat="37.798374000" lon="-121.971990000"><ele>133.6</ele><time>2026-09-13T00:00:00Z</time></trkpt>
<trkpt lat="37.798350000" lon="-121.972090000"><ele>133.4</ele><time>2026-09-13T00:00:00Z</time></trkpt>
<trkpt lat="37.798344000" lon="-121.972210000"><ele>133.1</ele><time>2026-09-13T00:00:00Z</time></trkpt>
<trkpt lat="37.798340000" lon="-121.972320000"><ele>132.9</ele><time>2026-09-13T00:00:00Z</time></trkpt>
<trkpt lat="37.798332000" lon="-121.972430000"><ele>132.7</ele><time>2026-09-13T00:00:00Z</time></trkpt>
<trkpt lat="37.798317000" lon="-121.972540000"><ele>132.5</ele><time>2026-09-13T00:00:00Z</time></trkpt>
<trkpt lat="37.798336000" lon="-121.972640000"><ele>132.5</ele><time>2026-09-13T00:00:00Z</time></trkpt>
<trkpt lat="37.798350000" lon="-121.972755000"><ele>132.4</ele><time>2026-09-13T00:00:00Z</time></trkpt>
<trkpt lat="37.798400000" lon="-121.972855000"><ele>132.4</ele><time>2026-09-13T00:00:00Z</time></trkpt>
<trkpt lat="37.798492000" lon="-121.972880000"><ele>132.4</ele><time>2026-09-13T00:00:00Z</time></trkpt>
<trkpt lat="37.798580000" lon="-121.972880000"><ele>132.5</ele><time>2026-09-13T00:00:00Z</time></trkpt>
<trkpt lat="37.798664000" lon="-121.972890000"><ele>132.5</ele><time>2026-09-13T00:00:00Z</time></trkpt>
<trkpt lat="37.798756000" lon="-121.972860000"><ele>132.6</ele><time>2026-09-13T00:00:00Z</time></trkpt>
<trkpt lat="37.798836000" lon="-121.972910000"><ele>132.7</ele><time>2026-09-13T00:00:00Z</time></trkpt>
<trkpt lat="37.798923000" lon="-121.972916000"><ele>132.9</ele><time>2026-09-13T00:00:00Z</time></trkpt>
<trkpt lat="37.799010000" lon="-121.972946000"><ele>133.1</ele><time>2026-09-13T00:00:00Z</time></trkpt>
<trkpt lat="37.799090000" lon="-121.972970000"><ele>133.3</ele><time>2026-09-13T00:00:00Z</time></trkpt>
<trkpt lat="37.799170000" lon="-121.973000000"><ele>133.4</ele><time>2026-09-13T00:00:00Z</time></trkpt>
<trkpt lat="37.799255000" lon="-121.973030000"><ele>133.5</ele><time>2026-09-13T00:00:00Z</time></trkpt>
<trkpt lat="37.799340000" lon="-121.973060000"><ele>133.7</ele><time>2026-09-13T00:00:00Z</time></trkpt>
<trkpt lat="37.799423000" lon="-121.973080000"><ele>133.9</ele><time>2026-09-13T00:00:00Z</time></trkpt>
<trkpt lat="37.799503000" lon="-121.973050000"><ele>134.2</ele><time>2026-09-13T00:00:00Z</time></trkpt>
<trkpt lat="37.799583000" lon="-121.973020000"><ele>134.5</ele><time>2026-09-13T00:00:00Z</time></trkpt>
<trkpt lat="37.799664000" lon="-121.972984000"><ele>134.7</ele><time>2026-09-13T00:00:00Z</time></trkpt>
<trkpt lat="37.799710000" lon="-121.972885000"><ele>135.0</ele><time>2026-09-13T00:00:00Z</time></trkpt>
<trkpt lat="37.799740000" lon="-121.972780000"><ele>135.2</ele><time>2026-09-13T00:00:00Z</time></trkpt>
<trkpt lat="37.799770000" lon="-121.972680000"><ele>135.4</ele><time>2026-09-13T00:00:00Z</time></trkpt>
<trkpt lat="37.799812000" lon="-121.972570000"><ele>135.5</ele><time>2026-09-13T00:00:00Z</time></trkpt>
<trkpt lat="37.799774000" lon="-121.972466000"><ele>135.7</ele><time>2026-09-13T00:00:00Z</time></trkpt>
<trkpt lat="37.799710000" lon="-121.972390000"><ele>135.8</ele><time>2026-09-13T00:00:00Z</time></trkpt>
<trkpt lat="37.799630000" lon="-121.972336000"><ele>135.9</ele><time>2026-09-13T00:00:00Z</time></trkpt>
<trkpt lat="37.799545000" lon="-121.972290000"><ele>136.0</ele><time>2026-09-13T00:00:00Z</time></trkpt>
<trkpt lat="37.799460000" lon="-121.972244000"><ele>136.0</ele><time>2026-09-13T00:00:00Z</time></trkpt>
<trkpt lat="37.799380000" lon="-121.972206000"><ele>136.0</ele><time>2026-09-13T00:00:00Z</time></trkpt>
<trkpt lat="37.799294000" lon="-121.972176000"><ele>135.9</ele><time>2026-09-13T00:00:00Z</time></trkpt>
<trkpt lat="37.799206000" lon="-121.972145000"><ele>135.8</ele><time>2026-09-13T00:00:00Z</time></trkpt>
<trkpt lat="37.799118000" lon="-121.972160000"><ele>135.7</ele><time>2026-09-13T00:00:00Z</time></trkpt>
<trkpt lat="37.799040000" lon="-121.972120000"><ele>135.5</ele><time>2026-09-13T00:00:00Z</time></trkpt>
<trkpt lat="37.798954000" lon="-121.972084000"><ele>135.4</ele><time>2026-09-13T00:00:00Z</time></trkpt>
<trkpt lat="37.798860000" lon="-121.972060000"><ele>135.2</ele><time>2026-09-13T00:00:00Z</time></trkpt>
<trkpt lat="37.798780000" lon="-121.972046000"><ele>135.0</ele><time>2026-09-13T00:00:00Z</time></trkpt>
<trkpt lat="37.798700000" lon="-121.972040000"><ele>134.7</ele><time>2026-09-13T00:00:00Z</time></trkpt>
<trkpt lat="37.798615000" lon="-121.972030000"><ele>134.5</ele><time>2026-09-13T00:00:00Z</time></trkpt>
<trkpt lat="37.798540000" lon="-121.971990000"><ele>134.2</ele><time>2026-09-13T00:00:00Z</time></trkpt>
<trkpt lat="37.798454000" lon="-121.971990000"><ele>133.8</ele><time>2026-09-13T00:00:00Z</time></trkpt>
<trkpt lat="37.798380000" lon="-121.972040000"><ele>133.5</ele><time>2026-09-13T00:00:00Z</time></trkpt>
<trkpt lat="37.798363000" lon="-121.972145000"><ele>133.3</ele><time>2026-09-13T00:00:00Z</time></trkpt>
<trkpt lat="37.798360000" lon="-121.972250000"><ele>133.0</ele><time>2026-09-13T00:00:00Z</time></trkpt>
<trkpt lat="37.798363000" lon="-121.972350000"><ele>132.8</ele><time>2026-09-13T00:00:00Z</time></trkpt>
<trkpt lat="37.798363000" lon="-121.972466000"><ele>132.6</ele><time>2026-09-13T00:00:00Z</time></trkpt>
<trkpt lat="37.798360000" lon="-121.972570000"><ele>132.5</ele><time>2026-09-13T00:00:00Z</time></trkpt>
<trkpt lat="37.798355000" lon="-121.972694000"><ele>132.2</ele><time>2026-09-13T00:00:00Z</time></trkpt>
<trkpt lat="37.798360000" lon="-121.972790000"><ele>132.0</ele><time>2026-09-13T00:00:00Z</time></trkpt>
<trkpt lat="37.798374000" lon="-121.972900000"><ele>131.8</ele><time>2026-09-13T00:00:00Z</time></trkpt>
<trkpt lat="37.798355000" lon="-121.973010000"><ele>131.6</ele><time>2026-09-13T00:00:00Z</time></trkpt>
<trkpt lat="37.798350000" lon="-121.973114000"><ele>131.5</ele><time>2026-09-13T00:00:00Z</time></trkpt>
<trkpt lat="37.798344000" lon="-121.973230000"><ele>131.5</ele><time>2026-09-13T00:00:00Z</time></trkpt>
<trkpt lat="37.798336000" lon="-121.973340000"><ele>131.4</ele><time>2026-09-13T00:00:00Z</time></trkpt>
<trkpt lat="37.798336000" lon="-121.973450000"><ele>131.3</ele><time>2026-09-13T00:00:00Z</time></trkpt>
<trkpt lat="37.798340000" lon="-121.973564000"><ele>131.2</ele><time>2026-09-13T00:00:00Z</time></trkpt>
<trkpt lat="37.798336000" lon="-121.973670000"><ele>131.1</ele><time>2026-09-13T00:00:00Z</time></trkpt>
<trkpt lat="37.798344000" lon="-121.973780000"><ele>131.0</ele><time>2026-09-13T00:00:00Z</time></trkpt>
<trkpt lat="37.798350000" lon="-121.973890000"><ele>131.0</ele><time>2026-09-13T00:00:00Z</time></trkpt>
<trkpt lat="37.798424000" lon="-121.973940000"><ele>130.9</ele><time>2026-09-13T00:00:00Z</time></trkpt>
<trkpt lat="37.798515000" lon="-121.973946000"><ele>130.8</ele><time>2026-09-13T00:00:00Z</time></trkpt>
<trkpt lat="37.798603000" lon="-121.973970000"><ele>130.7</ele><time>2026-09-13T00:00:00Z</time></trkpt>
<trkpt lat="37.798687000" lon="-121.973990000"><ele>130.6</ele><time>2026-09-13T00:00:00Z</time></trkpt>
<trkpt lat="37.798770000" lon="-121.974020000"><ele>130.5</ele><time>2026-09-13T00:00:00Z</time></trkpt>
<trkpt lat="37.798860000" lon="-121.974060000"><ele>130.3</ele><time>2026-09-13T00:00:00Z</time></trkpt>
<trkpt lat="37.798935000" lon="-121.974130000"><ele>130.1</ele><time>2026-09-13T00:00:00Z</time></trkpt>
<trkpt lat="37.798980000" lon="-121.974220000"><ele>129.9</ele><time>2026-09-13T00:00:00Z</time></trkpt>
<trkpt lat="37.798992000" lon="-121.974335000"><ele>129.7</ele><time>2026-09-13T00:00:00Z</time></trkpt>
<trkpt lat="37.798980000" lon="-121.974450000"><ele>129.5</ele><time>2026-09-13T00:00:00Z</time></trkpt>
<trkpt lat="37.798977000" lon="-121.974556000"><ele>129.4</ele><time>2026-09-13T00:00:00Z</time></trkpt>
<trkpt lat="37.798973000" lon="-121.974680000"><ele>129.2</ele><time>2026-09-13T00:00:00Z</time></trkpt>
<trkpt lat="37.798973000" lon="-121.974785000"><ele>129.0</ele><time>2026-09-13T00:00:00Z</time></trkpt>
<trkpt lat="37.798970000" lon="-121.974900000"><ele>128.8</ele><time>2026-09-13T00:00:00Z</time></trkpt>
<trkpt lat="37.798960000" lon="-121.975010000"><ele>128.6</ele><time>2026-09-13T00:00:00Z</time></trkpt>
<trkpt lat="37.798958000" lon="-121.975136000"><ele>128.5</ele><time>2026-09-13T00:00:00Z</time></trkpt>
<trkpt lat="37.798946000" lon="-121.975250000"><ele>128.5</ele><time>2026-09-13T00:00:00Z</time></trkpt>
<trkpt lat="37.798930000" lon="-121.975365000"><ele>128.4</ele><time>2026-09-13T00:00:00Z</time></trkpt>
<trkpt lat="37.798904000" lon="-121.975480000"><ele>128.3</ele><time>2026-09-13T00:00:00Z</time></trkpt>
<trkpt lat="37.798862000" lon="-121.975580000"><ele>128.2</ele><time>2026-09-13T00:00:00Z</time></trkpt>
<trkpt lat="37.798798000" lon="-121.975650000"><ele>128.2</ele><time>2026-09-13T00:00:00Z</time></trkpt>
<trkpt lat="37.798720000" lon="-121.975685000"><ele>128.2</ele><time>2026-09-13T00:00:00Z</time></trkpt>
<trkpt lat="37.798630000" lon="-121.975670000"><ele>128.3</ele><time>2026-09-13T00:00:00Z</time></trkpt>
<trkpt lat="37.798550000" lon="-121.975650000"><ele>128.4</ele><time>2026-09-13T00:00:00Z</time></trkpt>
<trkpt lat="37.798462000" lon="-121.975630000"><ele>128.5</ele><time>2026-09-13T00:00:00Z</time></trkpt>
<trkpt lat="37.798380000" lon="-121.975610000"><ele>128.5</ele><time>2026-09-13T00:00:00Z</time></trkpt>
<trkpt lat="37.798300000" lon="-121.975560000"><ele>128.5</ele><time>2026-09-13T00:00:00Z</time></trkpt>
<trkpt lat="37.798237000" lon="-121.975494000"><ele>128.6</ele><time>2026-09-13T00:00:00Z</time></trkpt>
<trkpt lat="37.798157000" lon="-121.975464000"><ele>128.6</ele><time>2026-09-13T00:00:00Z</time></trkpt>
<trkpt lat="37.798070000" lon="-121.975480000"><ele>128.6</ele><time>2026-09-13T00:00:00Z</time></trkpt>
<trkpt lat="37.797977000" lon="-121.975460000"><ele>128.6</ele><time>2026-09-13T00:00:00Z</time></trkpt>
<trkpt lat="37.797900000" lon="-121.975410000"><ele>128.6</ele><time>2026-09-13T00:00:00Z</time></trkpt>
<trkpt lat="37.797830000" lon="-121.975340000"><ele>128.7</ele><time>2026-09-13T00:00:00Z</time></trkpt>
<trkpt lat="37.797745000" lon="-121.975334000"><ele>128.8</ele><time>2026-09-13T00:00:00Z</time></trkpt>
<trkpt lat="37.797657000" lon="-121.975310000"><ele>128.9</ele><time>2026-09-13T00:00:00Z</time></trkpt>
<trkpt lat="37.797600000" lon="-121.975220000"><ele>129.0</ele><time>2026-09-13T00:00:00Z</time></trkpt>
<trkpt lat="37.797565000" lon="-121.975120000"><ele>129.1</ele><time>2026-09-13T00:00:00Z</time></trkpt>
<trkpt lat="37.797546000" lon="-121.975006000"><ele>129.3</ele><time>2026-09-13T00:00:00Z</time></trkpt>
<trkpt lat="37.797466000" lon="-121.974976000"><ele>129.4</ele><time>2026-09-13T00:00:00Z</time></trkpt>
<trkpt lat="37.797380000" lon="-121.974976000"><ele>129.5</ele><time>2026-09-13T00:00:00Z</time></trkpt>
<trkpt lat="37.797356000" lon="-121.974870000"><ele>129.7</ele><time>2026-09-13T00:00:00Z</time></trkpt>
<trkpt lat="37.797420000" lon="-121.974810000"><ele>130.0</ele><time>2026-09-13T00:00:00Z</time></trkpt>
<trkpt lat="37.797480000" lon="-121.974730000"><ele>130.2</ele><time>2026-09-13T00:00:00Z</time></trkpt>
<trkpt lat="37.797510000" lon="-121.974630000"><ele>130.3</ele><time>2026-09-13T00:00:00Z</time></trkpt>
<trkpt lat="37.797520000" lon="-121.974520000"><ele>130.3</ele><time>2026-09-13T00:00:00Z</time></trkpt>
<trkpt lat="37.797516000" lon="-121.974400000"><ele>130.3</ele><time>2026-09-13T00:00:00Z</time></trkpt>
<trkpt lat="37.797516000" lon="-121.974300000"><ele>130.4</ele><time>2026-09-13T00:00:00Z</time></trkpt>
<trkpt lat="37.797523000" lon="-121.974190000"><ele>130.5</ele><time>2026-09-13T00:00:00Z</time></trkpt>
<trkpt lat="37.797523000" lon="-121.974075000"><ele>130.5</ele><time>2026-09-13T00:00:00Z</time></trkpt>
<trkpt lat="37.797554000" lon="-121.973976000"><ele>130.6</ele><time>2026-09-13T00:00:00Z</time></trkpt>
<trkpt lat="37.797615000" lon="-121.973900000"><ele>130.7</ele><time>2026-09-13T00:00:00Z</time></trkpt>
<trkpt lat="37.797695000" lon="-121.973880000"><ele>130.8</ele><time>2026-09-13T00:00:00Z</time></trkpt>
<trkpt lat="37.797787000" lon="-121.973885000"><ele>130.8</ele><time>2026-09-13T00:00:00Z</time></trkpt>
<trkpt lat="37.797870000" lon="-121.973885000"><ele>130.8</ele><time>2026-09-13T00:00:00Z</time></trkpt>
<trkpt lat="37.797955000" lon="-121.973890000"><ele>130.7</ele><time>2026-09-13T00:00:00Z</time></trkpt>
<trkpt lat="37.798046000" lon="-121.973890000"><ele>130.7</ele><time>2026-09-13T00:00:00Z</time></trkpt>
<trkpt lat="37.798130000" lon="-121.973910000"><ele>130.7</ele><time>2026-09-13T00:00:00Z</time></trkpt>
<trkpt lat="37.798214000" lon="-121.973920000"><ele>130.6</ele><time>2026-09-13T00:00:00Z</time></trkpt>
<trkpt lat="37.798218000" lon="-121.974040000"><ele>130.5</ele><time>2026-09-13T00:00:00Z</time></trkpt>
<trkpt lat="37.798230000" lon="-121.974160000"><ele>130.5</ele><time>2026-09-13T00:00:00Z</time></trkpt>
<trkpt lat="37.798220000" lon="-121.974270000"><ele>130.4</ele><time>2026-09-13T00:00:00Z</time></trkpt>
<trkpt lat="37.798218000" lon="-121.974390000"><ele>130.3</ele><time>2026-09-13T00:00:00Z</time></trkpt>
<trkpt lat="37.798218000" lon="-121.974510000"><ele>130.2</ele><time>2026-09-13T00:00:00Z</time></trkpt>
<trkpt lat="37.798214000" lon="-121.974625000"><ele>130.0</ele><time>2026-09-13T00:00:00Z</time></trkpt>
<trkpt lat="37.798214000" lon="-121.974740000"><ele>129.8</ele><time>2026-09-13T00:00:00Z</time></trkpt>
<trkpt lat="37.798214000" lon="-121.974846000"><ele>129.7</ele><time>2026-09-13T00:00:00Z</time></trkpt>
<trkpt lat="37.798218000" lon="-121.974950000"><ele>129.6</ele><time>2026-09-13T00:00:00Z</time></trkpt>
<trkpt lat="37.798218000" lon="-121.975060000"><ele>129.5</ele><time>2026-09-13T00:00:00Z</time></trkpt>
<trkpt lat="37.798214000" lon="-121.975174000"><ele>129.5</ele><time>2026-09-13T00:00:00Z</time></trkpt>
<trkpt lat="37.798206000" lon="-121.975290000"><ele>129.3</ele><time>2026-09-13T00:00:00Z</time></trkpt>
<trkpt lat="37.798225000" lon="-121.975395000"><ele>129.2</ele><time>2026-09-13T00:00:00Z</time></trkpt>
<trkpt lat="37.798164000" lon="-121.975480000"><ele>129.0</ele><time>2026-09-13T00:00:00Z</time></trkpt>
<trkpt lat="37.798077000" lon="-121.975490000"><ele>128.8</ele><time>2026-09-13T00:00:00Z</time></trkpt>
<trkpt lat="37.797985000" lon="-121.975464000"><ele>128.6</ele><time>2026-09-13T00:00:00Z</time></trkpt>
<trkpt lat="37.797900000" lon="-121.975426000"><ele>128.5</ele><time>2026-09-13T00:00:00Z</time></trkpt>
<trkpt lat="37.797832000" lon="-121.975360000"><ele>128.5</ele><time>2026-09-13T00:00:00Z</time></trkpt>
<trkpt lat="37.797740000" lon="-121.975334000"><ele>128.6</ele><time>2026-09-13T00:00:00Z</time></trkpt>
<trkpt lat="37.797657000" lon="-121.975365000"><ele>128.7</ele><time>2026-09-13T00:00:00Z</time></trkpt>
<trkpt lat="37.797607000" lon="-121.975266000"><ele>128.7</ele><time>2026-09-13T00:00:00Z</time></trkpt>
<trkpt lat="37.797570000" lon="-121.975170000"><ele>128.7</ele><time>2026-09-13T00:00:00Z</time></trkpt>
<trkpt lat="37.797550000" lon="-121.975060000"><ele>128.8</ele><time>2026-09-13T00:00:00Z</time></trkpt>
<trkpt lat="37.797485000" lon="-121.974990000"><ele>128.8</ele><time>2026-09-13T00:00:00Z</time></trkpt>
<trkpt lat="37.797400000" lon="-121.974990000"><ele>128.9</ele><time>2026-09-13T00:00:00Z</time></trkpt>
<trkpt lat="37.797380000" lon="-121.975090000"><ele>129.0</ele><time>2026-09-13T00:00:00Z</time></trkpt>
<trkpt lat="37.797320000" lon="-121.975190000"><ele>129.1</ele><time>2026-09-13T00:00:00Z</time></trkpt>
<trkpt lat="37.797276000" lon="-121.975280000"><ele>129.2</ele><time>2026-09-13T00:00:00Z</time></trkpt>
<trkpt lat="37.797314000" lon="-121.975380000"><ele>129.2</ele><time>2026-09-13T00:00:00Z</time></trkpt>
<trkpt lat="37.797363000" lon="-121.975470000"><ele>129.1</ele><time>2026-09-13T00:00:00Z</time></trkpt>
<trkpt lat="37.797420000" lon="-121.975560000"><ele>129.0</ele><time>2026-09-13T00:00:00Z</time></trkpt>
<trkpt lat="37.797485000" lon="-121.975655000"><ele>129.0</ele><time>2026-09-13T00:00:00Z</time></trkpt>
<trkpt lat="37.797577000" lon="-121.975660000"><ele>129.0</ele><time>2026-09-13T00:00:00Z</time></trkpt>
<trkpt lat="37.797665000" lon="-121.975700000"><ele>129.0</ele><time>2026-09-13T00:00:00Z</time></trkpt>
<trkpt lat="37.797737000" lon="-121.975760000"><ele>129.0</ele><time>2026-09-13T00:00:00Z</time></trkpt>
<trkpt lat="37.797802000" lon="-121.975845000"><ele>129.0</ele><time>2026-09-13T00:00:00Z</time></trkpt>
<trkpt lat="37.797870000" lon="-121.975914000"><ele>129.0</ele><time>2026-09-13T00:00:00Z</time></trkpt>
<trkpt lat="37.797943000" lon="-121.975980000"><ele>129.0</ele><time>2026-09-13T00:00:00Z</time></trkpt>
<trkpt lat="37.798016000" lon="-121.976036000"><ele>128.9</ele><time>2026-09-13T00:00:00Z</time></trkpt>
<trkpt lat="37.798096000" lon="-121.976100000"><ele>128.8</ele><time>2026-09-13T00:00:00Z</time></trkpt>
<trkpt lat="37.798180000" lon="-121.976135000"><ele>128.7</ele><time>2026-09-13T00:00:00Z</time></trkpt>
<trkpt lat="37.798260000" lon="-121.976150000"><ele>128.6</ele><time>2026-09-13T00:00:00Z</time></trkpt>
<trkpt lat="37.798350000" lon="-121.976170000"><ele>128.5</ele><time>2026-09-13T00:00:00Z</time></trkpt>
<trkpt lat="37.798447000" lon="-121.976190000"><ele>128.5</ele><time>2026-09-13T00:00:00Z</time></trkpt>
<trkpt lat="37.798540000" lon="-121.976200000"><ele>128.3</ele><time>2026-09-13T00:00:00Z</time></trkpt>
<trkpt lat="37.798626000" lon="-121.976204000"><ele>128.2</ele><time>2026-09-13T00:00:00Z</time></trkpt>
<trkpt lat="37.798710000" lon="-121.976220000"><ele>128.1</ele><time>2026-09-13T00:00:00Z</time></trkpt>
<trkpt lat="37.798790000" lon="-121.976240000"><ele>128.0</ele><time>2026-09-13T00:00:00Z</time></trkpt>
<trkpt lat="37.798880000" lon="-121.976240000"><ele>127.9</ele><time>2026-09-13T00:00:00Z</time></trkpt>
<trkpt lat="37.798912000" lon="-121.976135000"><ele>127.9</ele><time>2026-09-13T00:00:00Z</time></trkpt>
<trkpt lat="37.798916000" lon="-121.976020000"><ele>128.0</ele><time>2026-09-13T00:00:00Z</time></trkpt>
<trkpt lat="37.798960000" lon="-121.975940000"><ele>128.0</ele><time>2026-09-13T00:00:00Z</time></trkpt>
<trkpt lat="37.799046000" lon="-121.975940000"><ele>128.0</ele><time>2026-09-13T00:00:00Z</time></trkpt>
<trkpt lat="37.799130000" lon="-121.975920000"><ele>128.0</ele><time>2026-09-13T00:00:00Z</time></trkpt>
<trkpt lat="37.799213000" lon="-121.975876000"><ele>128.0</ele><time>2026-09-13T00:00:00Z</time></trkpt>
<trkpt lat="37.799286000" lon="-121.975810000"><ele>128.1</ele><time>2026-09-13T00:00:00Z</time></trkpt>
<trkpt lat="37.799360000" lon="-121.975860000"><ele>128.1</ele><time>2026-09-13T00:00:00Z</time></trkpt>
<trkpt lat="37.799430000" lon="-121.975914000"><ele>128.1</ele><time>2026-09-13T00:00:00Z</time></trkpt>
<trkpt lat="37.799500000" lon="-121.975975000"><ele>128.1</ele><time>2026-09-13T00:00:00Z</time></trkpt>
<trkpt lat="37.799587000" lon="-121.975940000"><ele>128.1</ele><time>2026-09-13T00:00:00Z</time></trkpt>
<trkpt lat="37.799670000" lon="-121.975910000"><ele>128.2</ele><time>2026-09-13T00:00:00Z</time></trkpt>
<trkpt lat="37.799744000" lon="-121.975840000"><ele>128.2</ele><time>2026-09-13T00:00:00Z</time></trkpt>
<trkpt lat="37.799790000" lon="-121.975740000"><ele>128.3</ele><time>2026-09-13T00:00:00Z</time></trkpt>
<trkpt lat="37.799800000" lon="-121.975630000"><ele>128.4</ele><time>2026-09-13T00:00:00Z</time></trkpt>
<trkpt lat="37.799810000" lon="-121.975525000"><ele>128.5</ele><time>2026-09-13T00:00:00Z</time></trkpt>
<trkpt lat="37.799824000" lon="-121.975420000"><ele>128.5</ele><time>2026-09-13T00:00:00Z</time></trkpt>
<trkpt lat="37.799840000" lon="-121.975310000"><ele>128.6</ele><time>2026-09-13T00:00:00Z</time></trkpt>
<trkpt lat="37.799847000" lon="-121.975204000"><ele>128.7</ele><time>2026-09-13T00:00:00Z</time></trkpt>
<trkpt lat="37.799850000" lon="-121.975100000"><ele>128.8</ele><time>2026-09-13T00:00:00Z</time></trkpt>
<trkpt lat="37.799847000" lon="-121.974980000"><ele>128.9</ele><time>2026-09-13T00:00:00Z</time></trkpt>
<trkpt lat="37.799816000" lon="-121.974884000"><ele>129.0</ele><time>2026-09-13T00:00:00Z</time></trkpt>
<trkpt lat="37.799810000" lon="-121.974780000"><ele>129.1</ele><time>2026-09-13T00:00:00Z</time></trkpt>
<trkpt lat="37.799800000" lon="-121.974660000"><ele>129.2</ele><time>2026-09-13T00:00:00Z</time></trkpt>
<trkpt lat="37.799790000" lon="-121.974556000"><ele>129.3</ele><time>2026-09-13T00:00:00Z</time></trkpt>
<trkpt lat="37.799778000" lon="-121.974440000"><ele>129.4</ele><time>2026-09-13T00:00:00Z</time></trkpt>
<trkpt lat="37.799694000" lon="-121.974400000"><ele>129.5</ele><time>2026-09-13T00:00:00Z</time></trkpt>
<trkpt lat="37.799614000" lon="-121.974370000"><ele>129.5</ele><time>2026-09-13T00:00:00Z</time></trkpt>
<trkpt lat="37.799526000" lon="-121.974335000"><ele>129.6</ele><time>2026-09-13T00:00:00Z</time></trkpt>
<trkpt lat="37.799446000" lon="-121.974365000"><ele>129.6</ele><time>2026-09-13T00:00:00Z</time></trkpt>
<trkpt lat="37.799423000" lon="-121.974470000"><ele>129.6</ele><time>2026-09-13T00:00:00Z</time></trkpt>
<trkpt lat="37.799416000" lon="-121.974580000"><ele>129.6</ele><time>2026-09-13T00:00:00Z</time></trkpt>
<trkpt lat="37.799400000" lon="-121.974686000"><ele>129.6</ele><time>2026-09-13T00:00:00Z</time></trkpt>
<trkpt lat="37.799385000" lon="-121.974800000"><ele>129.5</ele><time>2026-09-13T00:00:00Z</time></trkpt>
<trkpt lat="37.799374000" lon="-121.974920000"><ele>129.5</ele><time>2026-09-13T00:00:00Z</time></trkpt>
<trkpt lat="37.799366000" lon="-121.975030000"><ele>129.4</ele><time>2026-09-13T00:00:00Z</time></trkpt>
<trkpt lat="37.799360000" lon="-121.975136000"><ele>129.3</ele><time>2026-09-13T00:00:00Z</time></trkpt>
<trkpt lat="37.799355000" lon="-121.975250000"><ele>129.2</ele><time>2026-09-13T00:00:00Z</time></trkpt>
<trkpt lat="37.799350000" lon="-121.975360000"><ele>129.0</ele><time>2026-09-13T00:00:00Z</time></trkpt>
<trkpt lat="37.799360000" lon="-121.975470000"><ele>128.8</ele><time>2026-09-13T00:00:00Z</time></trkpt>
<trkpt lat="37.799347000" lon="-121.975586000"><ele>128.7</ele><time>2026-09-13T00:00:00Z</time></trkpt>
<trkpt lat="37.799328000" lon="-121.975690000"><ele>128.6</ele><time>2026-09-13T00:00:00Z</time></trkpt>
<trkpt lat="37.799290000" lon="-121.975800000"><ele>128.5</ele><time>2026-09-13T00:00:00Z</time></trkpt>
<trkpt lat="37.799225000" lon="-121.975880000"><ele>128.5</ele><time>2026-09-13T00:00:00Z</time></trkpt>
<trkpt lat="37.799150000" lon="-121.975920000"><ele>128.5</ele><time>2026-09-13T00:00:00Z</time></trkpt>
<trkpt lat="37.799065000" lon="-121.975945000"><ele>128.5</ele><time>2026-09-13T00:00:00Z</time></trkpt>
<trkpt lat="37.798980000" lon="-121.975940000"><ele>128.4</ele><time>2026-09-13T00:00:00Z</time></trkpt>
<trkpt lat="37.798904000" lon="-121.975910000"><ele>128.3</ele><time>2026-09-13T00:00:00Z</time></trkpt>
<trkpt lat="37.798862000" lon="-121.975815000"><ele>128.2</ele><time>2026-09-13T00:00:00Z</time></trkpt>
<trkpt lat="37.798900000" lon="-121.975716000"><ele>128.2</ele><time>2026-09-13T00:00:00Z</time></trkpt>
<trkpt lat="37.798893000" lon="-121.975600000"><ele>128.3</ele><time>2026-09-13T00:00:00Z</time></trkpt>
<trkpt lat="37.798893000" lon="-121.975494000"><ele>128.4</ele><time>2026-09-13T00:00:00Z</time></trkpt>
<trkpt lat="37.798923000" lon="-121.975395000"><ele>128.5</ele><time>2026-09-13T00:00:00Z</time></trkpt>
<trkpt lat="37.798930000" lon="-121.975290000"><ele>128.5</ele><time>2026-09-13T00:00:00Z</time></trkpt>
<trkpt lat="37.798946000" lon="-121.975180000"><ele>128.5</ele><time>2026-09-13T00:00:00Z</time></trkpt>
<trkpt lat="37.798950000" lon="-121.975075000"><ele>128.5</ele><time>2026-09-13T00:00:00Z</time></trkpt>
<trkpt lat="37.798954000" lon="-121.974970000"><ele>128.6</ele><time>2026-09-13T00:00:00Z</time></trkpt>
<trkpt lat="37.798958000" lon="-121.974860000"><ele>128.8</ele><time>2026-09-13T00:00:00Z</time></trkpt>
<trkpt lat="37.798960000" lon="-121.974754000"><ele>129.0</ele><time>2026-09-13T00:00:00Z</time></trkpt>
<trkpt lat="37.798970000" lon="-121.974640000"><ele>129.2</ele><time>2026-09-13T00:00:00Z</time></trkpt>
<trkpt lat="37.798977000" lon="-121.974525000"><ele>129.4</ele><time>2026-09-13T00:00:00Z</time></trkpt>
<trkpt lat="37.798980000" lon="-121.974410000"><ele>129.5</ele><time>2026-09-13T00:00:00Z</time></trkpt>
<trkpt lat="37.798996000" lon="-121.974300000"><ele>129.5</ele><time>2026-09-13T00:00:00Z</time></trkpt>
<trkpt lat="37.799007000" lon="-121.974190000"><ele>129.6</ele><time>2026-09-13T00:00:00Z</time></trkpt>
<trkpt lat="37.799090000" lon="-121.974144000"><ele>129.7</ele><time>2026-09-13T00:00:00Z</time></trkpt>
<trkpt lat="37.799175000" lon="-121.974190000"><ele>129.8</ele><time>2026-09-13T00:00:00Z</time></trkpt>
<trkpt lat="37.799260000" lon="-121.974205000"><ele>129.9</ele><time>2026-09-13T00:00:00Z</time></trkpt>
<trkpt lat="37.799340000" lon="-121.974140000"><ele>130.0</ele><time>2026-09-13T00:00:00Z</time></trkpt>
<trkpt lat="37.799423000" lon="-121.974144000"><ele>129.9</ele><time>2026-09-13T00:00:00Z</time></trkpt>
<trkpt lat="37.799510000" lon="-121.974174000"><ele>129.8</ele><time>2026-09-13T00:00:00Z</time></trkpt>
<trkpt lat="37.799587000" lon="-121.974205000"><ele>129.7</ele><time>2026-09-13T00:00:00Z</time></trkpt>
<trkpt lat="37.799675000" lon="-121.974240000"><ele>129.6</ele><time>2026-09-13T00:00:00Z</time></trkpt>
<trkpt lat="37.799767000" lon="-121.974270000"><ele>129.5</ele><time>2026-09-13T00:00:00Z</time></trkpt>
<trkpt lat="37.799843000" lon="-121.974310000"><ele>129.5</ele><time>2026-09-13T00:00:00Z</time></trkpt>
<trkpt lat="37.799930000" lon="-121.974350000"><ele>129.4</ele><time>2026-09-13T00:00:00Z</time></trkpt>
<trkpt lat="37.800014000" lon="-121.974390000"><ele>129.3</ele><time>2026-09-13T00:00:00Z</time></trkpt>
<trkpt lat="37.800100000" lon="-121.974420000"><ele>129.2</ele><time>2026-09-13T00:00:00Z</time></trkpt>
<trkpt lat="37.800180000" lon="-121.974460000"><ele>129.1</ele><time>2026-09-13T00:00:00Z</time></trkpt>
<trkpt lat="37.800260000" lon="-121.974470000"><ele>129.1</ele><time>2026-09-13T00:00:00Z</time></trkpt>
<trkpt lat="37.800346000" lon="-121.974510000"><ele>129.2</ele><time>2026-09-13T00:00:00Z</time></trkpt>
<trkpt lat="37.800426000" lon="-121.974530000"><ele>129.2</ele><time>2026-09-13T00:00:00Z</time></trkpt>
<trkpt lat="37.800518000" lon="-121.974525000"><ele>129.2</ele><time>2026-09-13T00:00:00Z</time></trkpt>
<trkpt lat="37.800540000" lon="-121.974410000"><ele>129.2</ele><time>2026-09-13T00:00:00Z</time></trkpt>
<trkpt lat="37.800552000" lon="-121.974304000"><ele>129.3</ele><time>2026-09-13T00:00:00Z</time></trkpt>
<trkpt lat="37.800552000" lon="-121.974304000"><ele>129.3</ele><time>2026-09-13T00:00:00Z</time></trkpt>
</trkseg>
</trk>
</gpx>
