<?xml version="1.0" encoding="UTF-8"?>
<gpx
  version="1.1"
  creator="Runkeeper - http://www.runkeeper.com"
  xmlns:xsi="http://www.w3.org/2001/XMLSchema-instance"
  xmlns="http://www.topografix.com/GPX/1/1"
  xsi:schemaLocation="http://www.topografix.com/GPX/1/1 http://www.topografix.com/GPX/1/1/gpx.xsd"
  xmlns:gpxtpx="http://www.garmin.com/xmlschemas/TrackPointExtension/v1">
<trk>
  <name><![CDATA[Walking 8/7/26]]></name>
  <time>2026-08-08T00:00:00Z</time>
<trkseg>
<trkpt lat="37.820873000" lon="-121.980230000"><ele>121.3</ele><time>2026-08-08T00:00:00Z</time></trkpt>
<trkpt lat="37.820892000" lon="-121.980130000"><ele>121.3</ele><time>2026-08-08T00:00:00Z</time></trkpt>
<trkpt lat="37.820840000" lon="-121.980200000"><ele>121.2</ele><time>2026-08-08T00:00:00Z</time></trkpt>
<trkpt lat="37.820880000" lon="-121.980110000"><ele>121.2</ele><time>2026-08-08T00:00:00Z</time></trkpt>
<trkpt lat="37.820960000" lon="-121.980070000"><ele>121.2</ele><time>2026-08-08T00:00:00Z</time></trkpt>
<trkpt lat="37.821010000" lon="-121.980160000"><ele>121.2</ele><time>2026-08-08T00:00:00Z</time></trkpt>
<trkpt lat="37.821056000" lon="-121.980260000"><ele>121.1</ele><time>2026-08-08T00:00:00Z</time></trkpt>
<trkpt lat="37.821106000" lon="-121.980354000"><ele>121.1</ele><time>2026-08-08T00:00:00Z</time></trkpt>
<trkpt lat="37.821148000" lon="-121.980450000"><ele>121.0</ele><time>2026-08-08T00:00:00Z</time></trkpt>
<trkpt lat="37.821200000" lon="-121.980550000"><ele>120.9</ele><time>2026-08-08T00:00:00Z</time></trkpt>
<trkpt lat="37.821230000" lon="-121.980660000"><ele>120.8</ele><time>2026-08-08T00:00:00Z</time></trkpt>
<trkpt lat="37.821266000" lon="-121.980774000"><ele>120.7</ele><time>2026-08-08T00:00:00Z</time></trkpt>
<trkpt lat="37.821350000" lon="-121.980804000"><ele>120.6</ele><time>2026-08-08T00:00:00Z</time></trkpt>
<trkpt lat="37.821310000" lon="-121.980900000"><ele>120.5</ele><time>2026-08-08T00:00:00Z</time></trkpt>
<trkpt lat="37.821274000" lon="-121.981020000"><ele>120.3</ele><time>2026-08-08T00:00:00Z</time></trkpt>
<trkpt lat="37.821217000" lon="-121.981110000"><ele>120.1</ele><time>2026-08-08T00:00:00Z</time></trkpt>
<trkpt lat="37.821140000" lon="-121.981170000"><ele>119.9</ele><time>2026-08-08T00:00:00Z</time></trkpt>
<trkpt lat="37.821064000" lon="-121.981230000"><ele>119.8</ele><time>2026-08-08T00:00:00Z</time></trkpt>
<trkpt lat="37.820984000" lon="-121.981260000"><ele>119.7</ele><time>2026-08-08T00:00:00Z</time></trkpt>
<trkpt lat="37.820910000" lon="-121.981310000"><ele>119.6</ele><time>2026-08-08T00:00:00Z</time></trkpt>
<trkpt lat="37.820840000" lon="-121.981370000"><ele>119.7</ele><time>2026-08-08T00:00:00Z</time></trkpt>
<trkpt lat="37.820763000" lon="-121.981420000"><ele>119.8</ele><time>2026-08-08T00:00:00Z</time></trkpt>
<trkpt lat="37.820690000" lon="-121.981470000"><ele>120.0</ele><time>2026-08-08T00:00:00Z</time></trkpt>
<trkpt lat="37.820618000" lon="-121.981520000"><ele>120.3</ele><time>2026-08-08T00:00:00Z</time></trkpt>
<trkpt lat="37.820540000" lon="-121.981590000"><ele>120.7</ele><time>2026-08-08T00:00:00Z</time></trkpt>
<trkpt lat="37.820470000" lon="-121.981660000"><ele>121.2</ele><time>2026-08-08T00:00:00Z</time></trkpt>
<trkpt lat="37.820404000" lon="-121.981720000"><ele>121.7</ele><time>2026-08-08T00:00:00Z</time></trkpt>
<trkpt lat="37.820340000" lon="-121.981800000"><ele>122.4</ele><time>2026-08-08T00:00:00Z</time></trkpt>
<trkpt lat="37.820267000" lon="-121.981860000"><ele>123.0</ele><time>2026-08-08T00:00:00Z</time></trkpt>
<trkpt lat="37.820200000" lon="-121.981930000"><ele>123.6</ele><time>2026-08-08T00:00:00Z</time></trkpt>
<trkpt lat="37.820145000" lon="-121.982000000"><ele>124.3</ele><time>2026-08-08T00:00:00Z</time></trkpt>
<trkpt lat="37.820076000" lon="-121.982056000"><ele>124.8</ele><time>2026-08-08T00:00:00Z</time></trkpt>
<trkpt lat="37.820004000" lon="-121.982120000"><ele>125.4</ele><time>2026-08-08T00:00:00Z</time></trkpt>
<trkpt lat="37.819935000" lon="-121.982170000"><ele>125.8</ele><time>2026-08-08T00:00:00Z</time></trkpt>
<trkpt lat="37.819855000" lon="-121.982210000"><ele>126.1</ele><time>2026-08-08T00:00:00Z</time></trkpt>
<trkpt lat="37.819782000" lon="-121.982254000"><ele>126.3</ele><time>2026-08-08T00:00:00Z</time></trkpt>
<trkpt lat="37.819706000" lon="-121.982330000"><ele>126.4</ele><time>2026-08-08T00:00:00Z</time></trkpt>
<trkpt lat="37.819626000" lon="-121.982376000"><ele>126.4</ele><time>2026-08-08T00:00:00Z</time></trkpt>
<trkpt lat="37.819600000" lon="-121.982480000"><ele>126.2</ele><time>2026-08-08T00:00:00Z</time></trkpt>
<trkpt lat="37.819607000" lon="-121.982590000"><ele>125.9</ele><time>2026-08-08T00:00:00Z</time></trkpt>
<trkpt lat="37.819626000" lon="-121.982690000"><ele>125.6</ele><time>2026-08-08T00:00:00Z</time></trkpt>
<trkpt lat="37.819640000" lon="-121.982800000"><ele>125.3</ele><time>2026-08-08T00:00:00Z</time></trkpt>
<trkpt lat="37.819650000" lon="-121.982900000"><ele>124.9</ele><time>2026-08-08T00:00:00Z</time></trkpt>
<trkpt lat="37.819590000" lon="-121.982990000"><ele>124.5</ele><time>2026-08-08T00:00:00Z</time></trkpt>
<trkpt lat="37.819515000" lon="-121.983040000"><ele>124.0</ele><time>2026-08-08T00:00:00Z</time></trkpt>
<trkpt lat="37.819515000" lon="-121.983154000"><ele>123.6</ele><time>2026-08-08T00:00:00Z</time></trkpt>
<trkpt lat="37.819523000" lon="-121.983260000"><ele>123.3</ele><time>2026-08-08T00:00:00Z</time></trkpt>
<trkpt lat="37.819527000" lon="-121.983370000"><ele>123.0</ele><time>2026-08-08T00:00:00Z</time></trkpt>
<trkpt lat="37.819553000" lon="-121.983470000"><ele>122.9</ele><time>2026-08-08T00:00:00Z</time></trkpt>
<trkpt lat="37.819553000" lon="-121.983574000"><ele>123.0</ele><time>2026-08-08T00:00:00Z</time></trkpt>
<trkpt lat="37.819534000" lon="-121.983670000"><ele>123.3</ele><time>2026-08-08T00:00:00Z</time></trkpt>
<trkpt lat="37.819480000" lon="-121.983770000"><ele>123.6</ele><time>2026-08-08T00:00:00Z</time></trkpt>
<trkpt lat="37.819416000" lon="-121.983840000"><ele>124.1</ele><time>2026-08-08T00:00:00Z</time></trkpt>
<trkpt lat="37.819336000" lon="-121.983894000"><ele>124.5</ele><time>2026-08-08T00:00:00Z</time></trkpt>
<trkpt lat="37.819260000" lon="-121.983920000"><ele>125.2</ele><time>2026-08-08T00:00:00Z</time></trkpt>
<trkpt lat="37.819168000" lon="-121.983930000"><ele>125.9</ele><time>2026-08-08T00:00:00Z</time></trkpt>
<trkpt lat="37.819090000" lon="-121.983970000"><ele>126.6</ele><time>2026-08-08T00:00:00Z</time></trkpt>
<trkpt lat="37.819008000" lon="-121.983930000"><ele>127.3</ele><time>2026-08-08T00:00:00Z</time></trkpt>
<trkpt lat="37.818920000" lon="-121.983950000"><ele>127.9</ele><time>2026-08-08T00:00:00Z</time></trkpt>
<trkpt lat="37.818880000" lon="-121.984040000"><ele>128.3</ele><time>2026-08-08T00:00:00Z</time></trkpt>
<trkpt lat="37.818832000" lon="-121.984130000"><ele>128.5</ele><time>2026-08-08T00:00:00Z</time></trkpt>
<trkpt lat="37.818817000" lon="-121.984230000"><ele>128.5</ele><time>2026-08-08T00:00:00Z</time></trkpt>
<trkpt lat="37.818813000" lon="-121.984344000"><ele>128.5</ele><time>2026-08-08T00:00:00Z</time></trkpt>
<trkpt lat="37.818783000" lon="-121.984460000"><ele>128.4</ele><time>2026-08-08T00:00:00Z</time></trkpt>
<trkpt lat="37.818710000" lon="-121.984540000"><ele>128.2</ele><time>2026-08-08T00:00:00Z</time></trkpt>
<trkpt lat="37.818650000" lon="-121.984610000"><ele>127.9</ele><time>2026-08-08T00:00:00Z</time></trkpt>
<trkpt lat="37.818596000" lon="-121.984700000"><ele>127.5</ele><time>2026-08-08T00:00:00Z</time></trkpt>
<trkpt lat="37.818540000" lon="-121.984795000"><ele>127.2</ele><time>2026-08-08T00:00:00Z</time></trkpt>
<trkpt lat="37.818478000" lon="-121.984886000"><ele>126.9</ele><time>2026-08-08T00:00:00Z</time></trkpt>
<trkpt lat="37.818428000" lon="-121.984980000"><ele>126.6</ele><time>2026-08-08T00:00:00Z</time></trkpt>
<trkpt lat="37.818367000" lon="-121.985070000"><ele>126.5</ele><time>2026-08-08T00:00:00Z</time></trkpt>
<trkpt lat="37.818287000" lon="-121.985130000"><ele>126.3</ele><time>2026-08-08T00:00:00Z</time></trkpt>
<trkpt lat="37.818200000" lon="-121.985110000"><ele>126.2</ele><time>2026-08-08T00:00:00Z</time></trkpt>
<trkpt lat="37.818108000" lon="-121.985115000"><ele>126.1</ele><time>2026-08-08T00:00:00Z</time></trkpt>
<trkpt lat="37.818020000" lon="-121.985120000"><ele>125.9</ele><time>2026-08-08T00:00:00Z</time></trkpt>
<trkpt lat="37.817932000" lon="-121.985115000"><ele>125.8</ele><time>2026-08-08T00:00:00Z</time></trkpt>
<trkpt lat="37.817844000" lon="-121.985110000"><ele>125.7</ele><time>2026-08-08T00:00:00Z</time></trkpt>
<trkpt lat="37.817753000" lon="-121.985130000"><ele>125.6</ele><time>2026-08-08T00:00:00Z</time></trkpt>
<trkpt lat="37.817665000" lon="-121.985170000"><ele>125.5</ele><time>2026-08-08T00:00:00Z</time></trkpt>
<trkpt lat="37.817596000" lon="-121.985245000"><ele>125.4</ele><time>2026-08-08T00:00:00Z</time></trkpt>
<trkpt lat="37.817547000" lon="-121.985330000"><ele>125.2</ele><time>2026-08-08T00:00:00Z</time></trkpt>
<trkpt lat="37.817528000" lon="-121.985430000"><ele>125.0</ele><time>2026-08-08T00:00:00Z</time></trkpt>
<trkpt lat="37.817530000" lon="-121.985535000"><ele>124.8</ele><time>2026-08-08T00:00:00Z</time></trkpt>
<trkpt lat="37.817540000" lon="-121.985640000"><ele>124.6</ele><time>2026-08-08T00:00:00Z</time></trkpt>
<trkpt lat="37.817540000" lon="-121.985750000"><ele>124.5</ele><time>2026-08-08T00:00:00Z</time></trkpt>
<trkpt lat="37.817550000" lon="-121.985855000"><ele>124.4</ele><time>2026-08-08T00:00:00Z</time></trkpt>
<trkpt lat="37.817562000" lon="-121.985960000"><ele>124.3</ele><time>2026-08-08T00:00:00Z</time></trkpt>
<trkpt lat="37.817580000" lon="-121.986080000"><ele>124.1</ele><time>2026-08-08T00:00:00Z</time></trkpt>
<trkpt lat="37.817593000" lon="-121.986180000"><ele>123.9</ele><time>2026-08-08T00:00:00Z</time></trkpt>
<trkpt lat="37.817604000" lon="-121.986300000"><ele>123.7</ele><time>2026-08-08T00:00:00Z</time></trkpt>
<trkpt lat="37.817620000" lon="-121.986410000"><ele>123.6</ele><time>2026-08-08T00:00:00Z</time></trkpt>
<trkpt lat="37.817608000" lon="-121.986520000"><ele>123.5</ele><time>2026-08-08T00:00:00Z</time></trkpt>
<trkpt lat="37.817566000" lon="-121.986600000"><ele>123.5</ele><time>2026-08-08T00:00:00Z</time></trkpt>
<trkpt lat="37.817474000" lon="-121.986610000"><ele>123.4</ele><time>2026-08-08T00:00:00Z</time></trkpt>
<trkpt lat="37.817390000" lon="-121.986610000"><ele>123.3</ele><time>2026-08-08T00:00:00Z</time></trkpt>
<trkpt lat="37.817300000" lon="-121.986600000"><ele>123.2</ele><time>2026-08-08T00:00:00Z</time></trkpt>
<trkpt lat="37.817210000" lon="-121.986610000"><ele>123.2</ele><time>2026-08-08T00:00:00Z</time></trkpt>
<trkpt lat="37.817130000" lon="-121.986620000"><ele>123.2</ele><time>2026-08-08T00:00:00Z</time></trkpt>
<trkpt lat="37.817060000" lon="-121.986570000"><ele>123.3</ele><time>2026-08-08T00:00:00Z</time></trkpt>
<trkpt lat="37.817020000" lon="-121.986465000"><ele>123.4</ele><time>2026-08-08T00:00:00Z</time></trkpt>
<trkpt lat="37.817013000" lon="-121.986360000"><ele>123.5</ele><time>2026-08-08T00:00:00Z</time></trkpt>
<trkpt lat="37.816998000" lon="-121.986250000"><ele>123.6</ele><time>2026-08-08T00:00:00Z</time></trkpt>
<trkpt lat="37.816982000" lon="-121.986145000"><ele>123.8</ele><time>2026-08-08T00:00:00Z</time></trkpt>
<trkpt lat="37.816963000" lon="-121.986030000"><ele>124.0</ele><time>2026-08-08T00:00:00Z</time></trkpt>
<trkpt lat="37.816944000" lon="-121.985920000"><ele>124.2</ele><time>2026-08-08T00:00:00Z</time></trkpt>
<trkpt lat="37.816925000" lon="-121.985820000"><ele>124.4</ele><time>2026-08-08T00:00:00Z</time></trkpt>
<trkpt lat="37.816917000" lon="-121.985700000"><ele>124.5</ele><time>2026-08-08T00:00:00Z</time></trkpt>
<trkpt lat="37.816930000" lon="-121.985590000"><ele>124.6</ele><time>2026-08-08T00:00:00Z</time></trkpt>
<trkpt lat="37.816948000" lon="-121.985480000"><ele>124.8</ele><time>2026-08-08T00:00:00Z</time></trkpt>
<trkpt lat="37.816998000" lon="-121.985380000"><ele>124.9</ele><time>2026-08-08T00:00:00Z</time></trkpt>
<trkpt lat="37.817013000" lon="-121.985275000"><ele>125.0</ele><time>2026-08-08T00:00:00Z</time></trkpt>
<trkpt lat="37.817036000" lon="-121.985160000"><ele>125.2</ele><time>2026-08-08T00:00:00Z</time></trkpt>
<trkpt lat="37.817127000" lon="-121.985120000"><ele>125.3</ele><time>2026-08-08T00:00:00Z</time></trkpt>
<trkpt lat="37.817215000" lon="-121.985120000"><ele>125.4</ele><time>2026-08-08T00:00:00Z</time></trkpt>
<trkpt lat="37.817303000" lon="-121.985140000"><ele>125.5</ele><time>2026-08-08T00:00:00Z</time></trkpt>
<trkpt lat="37.817383000" lon="-121.985140000"><ele>125.5</ele><time>2026-08-08T00:00:00Z</time></trkpt>
<trkpt lat="37.817463000" lon="-121.985110000"><ele>125.7</ele><time>2026-08-08T00:00:00Z</time></trkpt>
<trkpt lat="37.817524000" lon="-121.985040000"><ele>125.9</ele><time>2026-08-08T00:00:00Z</time></trkpt>
<trkpt lat="37.817585000" lon="-121.984960000"><ele>126.1</ele><time>2026-08-08T00:00:00Z</time></trkpt>
<trkpt lat="37.817640000" lon="-121.984870000"><ele>126.2</ele><time>2026-08-08T00:00:00Z</time></trkpt>
<trkpt lat="37.817673000" lon="-121.984770000"><ele>126.5</ele><time>2026-08-08T00:00:00Z</time></trkpt>
<trkpt lat="37.817690000" lon="-121.984665000"><ele>126.7</ele><time>2026-08-08T00:00:00Z</time></trkpt>
<trkpt lat="37.817688000" lon="-121.984560000"><ele>126.9</ele><time>2026-08-08T00:00:00Z</time></trkpt>
<trkpt lat="37.817688000" lon="-121.984450000"><ele>127.1</ele><time>2026-08-08T00:00:00Z</time></trkpt>
<trkpt lat="37.817684000" lon="-121.984340000"><ele>127.3</ele><time>2026-08-08T00:00:00Z</time></trkpt>
<trkpt lat="37.817677000" lon="-121.984230000"><ele>127.5</ele><time>2026-08-08T00:00:00Z</time></trkpt>
<trkpt lat="37.817722000" lon="-121.984130000"><ele>127.6</ele><time>2026-08-08T00:00:00Z</time></trkpt>
<trkpt lat="37.817790000" lon="-121.984080000"><ele>127.8</ele><time>2026-08-08T00:00:00Z</time></trkpt>
<trkpt lat="37.817852000" lon="-121.983990000"><ele>128.0</ele><time>2026-08-08T00:00:00Z</time></trkpt>
<trkpt lat="37.817913000" lon="-121.983920000"><ele>128.1</ele><time>2026-08-08T00:00:00Z</time></trkpt>
<trkpt lat="37.817978000" lon="-121.983840000"><ele>128.2</ele><time>2026-08-08T00:00:00Z</time></trkpt>
<trkpt lat="37.818043000" lon="-121.983770000"><ele>128.2</ele><time>2026-08-08T00:00:00Z</time></trkpt>
<trkpt lat="37.818100000" lon="-121.983690000"><ele>128.2</ele><time>2026-08-08T00:00:00Z</time></trkpt>
<trkpt lat="37.818172000" lon="-121.983630000"><ele>128.2</ele><time>2026-08-08T00:00:00Z</time></trkpt>
<trkpt lat="37.818256000" lon="-121.983580000"><ele>128.1</ele><time>2026-08-08T00:00:00Z</time></trkpt>
<trkpt lat="37.818348000" lon="-121.983570000"><ele>127.9</ele><time>2026-08-08T00:00:00Z</time></trkpt>
<trkpt lat="37.818440000" lon="-121.983570000"><ele>127.7</ele><time>2026-08-08T00:00:00Z</time></trkpt>
<trkpt lat="37.818530000" lon="-121.983570000"><ele>127.5</ele><time>2026-08-08T00:00:00Z</time></trkpt>
<trkpt lat="37.818623000" lon="-121.983574000"><ele>127.0</ele><time>2026-08-08T00:00:00Z</time></trkpt>
<trkpt lat="37.818718000" lon="-121.983580000"><ele>126.5</ele><time>2026-08-08T00:00:00Z</time></trkpt>
<trkpt lat="37.818810000" lon="-121.983580000"><ele>126.0</ele><time>2026-08-08T00:00:00Z</time></trkpt>
<trkpt lat="37.818897000" lon="-121.983590000"><ele>125.5</ele><time>2026-08-08T00:00:00Z</time></trkpt>
<trkpt lat="37.818993000" lon="-121.983600000"><ele>124.9</ele><time>2026-08-08T00:00:00Z</time></trkpt>
<trkpt lat="37.819073000" lon="-121.983604000"><ele>124.4</ele><time>2026-08-08T00:00:00Z</time></trkpt>
<trkpt lat="37.819160000" lon="-121.983620000"><ele>123.8</ele><time>2026-08-08T00:00:00Z</time></trkpt>
<trkpt lat="37.819252000" lon="-121.983620000"><ele>123.5</ele><time>2026-08-08T00:00:00Z</time></trkpt>
<trkpt lat="37.819332000" lon="-121.983600000"><ele>123.2</ele><time>2026-08-08T00:00:00Z</time></trkpt>
<trkpt lat="37.819412000" lon="-121.983570000"><ele>123.0</ele><time>2026-08-08T00:00:00Z</time></trkpt>
<trkpt lat="37.819490000" lon="-121.983500000"><ele>122.9</ele><time>2026-08-08T00:00:00Z</time></trkpt>
<trkpt lat="37.819553000" lon="-121.983440000"><ele>123.0</ele><time>2026-08-08T00:00:00Z</time></trkpt>
<trkpt lat="37.819610000" lon="-121.983345000"><ele>123.2</ele><time>2026-08-08T00:00:00Z</time></trkpt>
<trkpt lat="37.819637000" lon="-121.983246000"><ele>123.5</ele><time>2026-08-08T00:00:00Z</time></trkpt>
<trkpt lat="37.819622000" lon="-121.983140000"><ele>123.9</ele><time>2026-08-08T00:00:00Z</time></trkpt>
<trkpt lat="37.819607000" lon="-121.983025000"><ele>124.4</ele><time>2026-08-08T00:00:00Z</time></trkpt>
<trkpt lat="37.819600000" lon="-121.982920000"><ele>124.8</ele><time>2026-08-08T00:00:00Z</time></trkpt>
<trkpt lat="37.819588000" lon="-121.982800000"><ele>125.4</ele><time>2026-08-08T00:00:00Z</time></trkpt>
<trkpt lat="37.819565000" lon="-121.982680000"><ele>125.7</ele><time>2026-08-08T00:00:00Z</time></trkpt>
<trkpt lat="37.819553000" lon="-121.982580000"><ele>126.1</ele><time>2026-08-08T00:00:00Z</time></trkpt>
<trkpt lat="37.819534000" lon="-121.982470000"><ele>126.4</ele><time>2026-08-08T00:00:00Z</time></trkpt>
<trkpt lat="37.819527000" lon="-121.982350000"><ele>126.5</ele><time>2026-08-08T00:00:00Z</time></trkpt>
<trkpt lat="37.819557000" lon="-121.982254000"><ele>126.5</ele><time>2026-08-08T00:00:00Z</time></trkpt>
<trkpt lat="37.819626000" lon="-121.982180000"><ele>126.5</ele><time>2026-08-08T00:00:00Z</time></trkpt>
<trkpt lat="37.819702000" lon="-121.982120000"><ele>126.4</ele><time>2026-08-08T00:00:00Z</time></trkpt>
<trkpt lat="37.819786000" lon="-121.982050000"><ele>126.1</ele><time>2026-08-08T00:00:00Z</time></trkpt>
<trkpt lat="37.819870000" lon="-121.981995000"><ele>125.7</ele><time>2026-08-08T00:00:00Z</time></trkpt>
<trkpt lat="37.819950000" lon="-121.981930000"><ele>125.3</ele><time>2026-08-08T00:00:00Z</time></trkpt>
<trkpt lat="37.820023000" lon="-121.981865000"><ele>124.6</ele><time>2026-08-08T00:00:00Z</time></trkpt>
<trkpt lat="37.820100000" lon="-121.981800000"><ele>124.1</ele><time>2026-08-08T00:00:00Z</time></trkpt>
<trkpt lat="37.820170000" lon="-121.981730000"><ele>123.5</ele><time>2026-08-08T00:00:00Z</time></trkpt>
<trkpt lat="37.820244000" lon="-121.981660000"><ele>122.8</ele><time>2026-08-08T00:00:00Z</time></trkpt>
<trkpt lat="37.820316000" lon="-121.981580000"><ele>122.2</ele><time>2026-08-08T00:00:00Z</time></trkpt>
<trkpt lat="37.820396000" lon="-121.981520000"><ele>121.6</ele><time>2026-08-08T00:00:00Z</time></trkpt>
<trkpt lat="37.820460000" lon="-121.981445000"><ele>121.1</ele><time>2026-08-08T00:00:00Z</time></trkpt>
<trkpt lat="37.820540000" lon="-121.981410000"><ele>120.7</ele><time>2026-08-08T00:00:00Z</time></trkpt>
<trkpt lat="37.820633000" lon="-121.981410000"><ele>120.4</ele><time>2026-08-08T00:00:00Z</time></trkpt>
<trkpt lat="37.820717000" lon="-121.981370000"><ele>120.1</ele><time>2026-08-08T00:00:00Z</time></trkpt>
<trkpt lat="37.820800000" lon="-121.981310000"><ele>119.9</ele><time>2026-08-08T00:00:00Z</time></trkpt>
<trkpt lat="37.820877000" lon="-121.981255000"><ele>119.8</ele><time>2026-08-08T00:00:00Z</time></trkpt>
<trkpt lat="37.820953000" lon="-121.981210000"><ele>119.8</ele><time>2026-08-08T00:00:00Z</time></trkpt>
<trkpt lat="37.821037000" lon="-121.981140000"><ele>119.9</ele><time>2026-08-08T00:00:00Z</time></trkpt>
<trkpt lat="37.821110000" lon="-121.981090000"><ele>120.0</ele><time>2026-08-08T00:00:00Z</time></trkpt>
<trkpt lat="37.821190000" lon="-121.981030000"><ele>120.2</ele><time>2026-08-08T00:00:00Z</time></trkpt>
<trkpt lat="37.821266000" lon="-121.980970000"><ele>120.4</ele><time>2026-08-08T00:00:00Z</time></trkpt>
<trkpt lat="37.821278000" lon="-121.980860000"><ele>120.5</ele><time>2026-08-08T00:00:00Z</time></trkpt>
<trkpt lat="37.821240000" lon="-121.980750000"><ele>120.6</ele><time>2026-08-08T00:00:00Z</time></trkpt>
<trkpt lat="37.821200000" lon="-121.980644000"><ele>120.8</ele><time>2026-08-08T00:00:00Z</time></trkpt>
<trkpt lat="37.821156000" lon="-121.980550000"><ele>121.0</ele><time>2026-08-08T00:00:00Z</time></trkpt>
<trkpt lat="37.821114000" lon="-121.980450000"><ele>121.2</ele><time>2026-08-08T00:00:00Z</time></trkpt>
<trkpt lat="37.821075000" lon="-121.980350000"><ele>121.4</ele><time>2026-08-08T00:00:00Z</time></trkpt>
<trkpt lat="37.821033000" lon="-121.980255000"><ele>121.5</ele><time>2026-08-08T00:00:00Z</time></trkpt>
<trkpt lat="37.820942000" lon="-121.980230000"><ele>121.5</ele><time>2026-08-08T00:00:00Z</time></trkpt>
<trkpt lat="37.820866000" lon="-121.980286000"><ele>121.6</ele><time>2026-08-08T00:00:00Z</time></trkpt>
<trkpt lat="37.820816000" lon="-121.980370000"><ele>121.7</ele><time>2026-08-08T00:00:00Z</time></trkpt>
<trkpt lat="37.820770000" lon="-121.980280000"><ele>121.8</ele><time>2026-08-08T00:00:00Z</time></trkpt>
<trkpt lat="37.820793000" lon="-121.980170000"><ele>121.9</ele><time>2026-08-08T00:00:00Z</time></trkpt>
<trkpt lat="37.820750000" lon="-121.980225000"><ele>122.0</ele><time>2026-08-08T00:00:00Z</time></trkpt>
</trkseg>
</trk>
</gpx>
