<?xml version="1.0" encoding="UTF-8"?>
<gpx
  version="1.1"
  creator="Runkeeper - http://www.runkeeper.com"
  xmlns:xsi="http://www.w3.org/2001/XMLSchema-instance"
  xmlns="http://www.topografix.com/GPX/1/1"
  xsi:schemaLocation="http://www.topografix.com/GPX/1/1 http://www.topografix.com/GPX/1/1/gpx.xsd"
  xmlns:gpxtpx="http://www.garmin.com/xmlschemas/TrackPointExtension/v1">
<trk>
  <name><![CDATA[Walking 8/15/26]]></name>
  <time>2026-08-15T00:00:00Z</time>
<trkseg>
<trkpt lat="37.812355000" lon="-121.973270000"><ele>128.0</ele><time>2026-08-15T00:00:00Z</time></trkpt>
<trkpt lat="37.812270000" lon="-121.973210000"><ele>128.0</ele><time>2026-08-15T00:00:00Z</time></trkpt>
<trkpt lat="37.812202000" lon="-121.973150000"><ele>128.0</ele><time>2026-08-15T00:00:00Z</time></trkpt>
<trkpt lat="37.812120000" lon="-121.973130000"><ele>128.0</ele><time>2026-08-15T00:00:00Z</time></trkpt>
<trkpt lat="37.812046000" lon="-121.973200000"><ele>128.0</ele><time>2026-08-15T00:00:00Z</time></trkpt>
<trkpt lat="37.811977000" lon="-121.973270000"><ele>128.0</ele><time>2026-08-15T00:00:00Z</time></trkpt>
<trkpt lat="37.811935000" lon="-121.973380000"><ele>127.9</ele><time>2026-08-15T00:00:00Z</time></trkpt>
<trkpt lat="37.811910000" lon="-121.973480000"><ele>127.8</ele><time>2026-08-15T00:00:00Z</time></trkpt>
<trkpt lat="37.811867000" lon="-121.973570000"><ele>127.8</ele><time>2026-08-15T00:00:00Z</time></trkpt>
<trkpt lat="37.811810000" lon="-121.973656000"><ele>127.8</ele><time>2026-08-15T00:00:00Z</time></trkpt>
<trkpt lat="37.811768000" lon="-121.973755000"><ele>127.8</ele><time>2026-08-15T00:00:00Z</time></trkpt>
<trkpt lat="37.811718000" lon="-121.973850000"><ele>127.8</ele><time>2026-08-15T00:00:00Z</time></trkpt>
<trkpt lat="37.811684000" lon="-121.973946000"><ele>127.7</ele><time>2026-08-15T00:00:00Z</time></trkpt>
<trkpt lat="37.811638000" lon="-121.974050000"><ele>127.6</ele><time>2026-08-15T00:00:00Z</time></trkpt>
<trkpt lat="37.811592000" lon="-121.974160000"><ele>127.5</ele><time>2026-08-15T00:00:00Z</time></trkpt>
<trkpt lat="37.811546000" lon="-121.974266000"><ele>127.5</ele><time>2026-08-15T00:00:00Z</time></trkpt>
<trkpt lat="37.811497000" lon="-121.974350000"><ele>127.4</ele><time>2026-08-15T00:00:00Z</time></trkpt>
<trkpt lat="37.811462000" lon="-121.974460000"><ele>127.4</ele><time>2026-08-15T00:00:00Z</time></trkpt>
<trkpt lat="37.811428000" lon="-121.974556000"><ele>127.3</ele><time>2026-08-15T00:00:00Z</time></trkpt>
<trkpt lat="37.811386000" lon="-121.974655000"><ele>127.1</ele><time>2026-08-15T00:00:00Z</time></trkpt>
<trkpt lat="37.811344000" lon="-121.974750000"><ele>126.9</ele><time>2026-08-15T00:00:00Z</time></trkpt>
<trkpt lat="37.811295000" lon="-121.974840000"><ele>126.7</ele><time>2026-08-15T00:00:00Z</time></trkpt>
<trkpt lat="37.811250000" lon="-121.974940000"><ele>126.6</ele><time>2026-08-15T00:00:00Z</time></trkpt>
<trkpt lat="37.811207000" lon="-121.975030000"><ele>126.6</ele><time>2026-08-15T00:00:00Z</time></trkpt>
<trkpt lat="37.811184000" lon="-121.975140000"><ele>126.6</ele><time>2026-08-15T00:00:00Z</time></trkpt>
<trkpt lat="37.811140000" lon="-121.975230000"><ele>126.5</ele><time>2026-08-15T00:00:00Z</time></trkpt>
<trkpt lat="37.811073000" lon="-121.975320000"><ele>126.5</ele><time>2026-08-15T00:00:00Z</time></trkpt>
<trkpt lat="37.811028000" lon="-121.975410000"><ele>126.3</ele><time>2026-08-15T00:00:00Z</time></trkpt>
<trkpt lat="37.810986000" lon="-121.975500000"><ele>126.1</ele><time>2026-08-15T00:00:00Z</time></trkpt>
<trkpt lat="37.810925000" lon="-121.975586000"><ele>126.0</ele><time>2026-08-15T00:00:00Z</time></trkpt>
<trkpt lat="37.810860000" lon="-121.975655000"><ele>125.9</ele><time>2026-08-15T00:00:00Z</time></trkpt>
<trkpt lat="37.810833000" lon="-121.975750000"><ele>125.7</ele><time>2026-08-15T00:00:00Z</time></trkpt>
<trkpt lat="37.810780000" lon="-121.975840000"><ele>125.5</ele><time>2026-08-15T00:00:00Z</time></trkpt>
<trkpt lat="37.810844000" lon="-121.975914000"><ele>125.3</ele><time>2026-08-15T00:00:00Z</time></trkpt>
<trkpt lat="37.810890000" lon="-121.976006000"><ele>125.0</ele><time>2026-08-15T00:00:00Z</time></trkpt>
<trkpt lat="37.810950000" lon="-121.976100000"><ele>124.7</ele><time>2026-08-15T00:00:00Z</time></trkpt>
<trkpt lat="37.811035000" lon="-121.976100000"><ele>124.5</ele><time>2026-08-15T00:00:00Z</time></trkpt>
<trkpt lat="37.811115000" lon="-121.976050000"><ele>124.5</ele><time>2026-08-15T00:00:00Z</time></trkpt>
<trkpt lat="37.811200000" lon="-121.976030000"><ele>124.5</ele><time>2026-08-15T00:00:00Z</time></trkpt>
<trkpt lat="37.811287000" lon="-121.976050000"><ele>124.5</ele><time>2026-08-15T00:00:00Z</time></trkpt>
<trkpt lat="37.811367000" lon="-121.976074000"><ele>124.5</ele><time>2026-08-15T00:00:00Z</time></trkpt>
<trkpt lat="37.811447000" lon="-121.976105000"><ele>124.5</ele><time>2026-08-15T00:00:00Z</time></trkpt>
<trkpt lat="37.811540000" lon="-121.976105000"><ele>124.5</ele><time>2026-08-15T00:00:00Z</time></trkpt>
<trkpt lat="37.811607000" lon="-121.976030000"><ele>124.7</ele><time>2026-08-15T00:00:00Z</time></trkpt>
<trkpt lat="37.811650000" lon="-121.975930000"><ele>124.8</ele><time>2026-08-15T00:00:00Z</time></trkpt>
<trkpt lat="37.811700000" lon="-121.975840000"><ele>124.9</ele><time>2026-08-15T00:00:00Z</time></trkpt>
<trkpt lat="37.811756000" lon="-121.975750000"><ele>125.0</ele><time>2026-08-15T00:00:00Z</time></trkpt>
<trkpt lat="37.811783000" lon="-121.975655000"><ele>125.1</ele><time>2026-08-15T00:00:00Z</time></trkpt>
<trkpt lat="37.811783000" lon="-121.975550000"><ele>125.1</ele><time>2026-08-15T00:00:00Z</time></trkpt>
<trkpt lat="37.811820000" lon="-121.975450000"><ele>125.1</ele><time>2026-08-15T00:00:00Z</time></trkpt>
<trkpt lat="37.811870000" lon="-121.975365000"><ele>125.2</ele><time>2026-08-15T00:00:00Z</time></trkpt>
<trkpt lat="37.811928000" lon="-121.975290000"><ele>125.2</ele><time>2026-08-15T00:00:00Z</time></trkpt>
<trkpt lat="37.811950000" lon="-121.975174000"><ele>125.2</ele><time>2026-08-15T00:00:00Z</time></trkpt>
<trkpt lat="37.812000000" lon="-121.975075000"><ele>125.2</ele><time>2026-08-15T00:00:00Z</time></trkpt>
<trkpt lat="37.812060000" lon="-121.974980000"><ele>125.2</ele><time>2026-08-15T00:00:00Z</time></trkpt>
<trkpt lat="37.812100000" lon="-121.974884000"><ele>125.3</ele><time>2026-08-15T00:00:00Z</time></trkpt>
<trkpt lat="37.812140000" lon="-121.974790000"><ele>125.4</ele><time>2026-08-15T00:00:00Z</time></trkpt>
<trkpt lat="37.812183000" lon="-121.974690000"><ele>125.5</ele><time>2026-08-15T00:00:00Z</time></trkpt>
<trkpt lat="37.812220000" lon="-121.974594000"><ele>125.5</ele><time>2026-08-15T00:00:00Z</time></trkpt>
<trkpt lat="37.812263000" lon="-121.974495000"><ele>125.6</ele><time>2026-08-15T00:00:00Z</time></trkpt>
<trkpt lat="37.812313000" lon="-121.974410000"><ele>125.7</ele><time>2026-08-15T00:00:00Z</time></trkpt>
<trkpt lat="37.812347000" lon="-121.974310000"><ele>125.7</ele><time>2026-08-15T00:00:00Z</time></trkpt>
<trkpt lat="37.812390000" lon="-121.974220000"><ele>125.9</ele><time>2026-08-15T00:00:00Z</time></trkpt>
<trkpt lat="37.812430000" lon="-121.974130000"><ele>126.1</ele><time>2026-08-15T00:00:00Z</time></trkpt>
<trkpt lat="37.812458000" lon="-121.974030000"><ele>126.3</ele><time>2026-08-15T00:00:00Z</time></trkpt>
<trkpt lat="37.812490000" lon="-121.973930000"><ele>126.4</ele><time>2026-08-15T00:00:00Z</time></trkpt>
<trkpt lat="37.812527000" lon="-121.973840000"><ele>126.5</ele><time>2026-08-15T00:00:00Z</time></trkpt>
<trkpt lat="37.812570000" lon="-121.973750000"><ele>126.5</ele><time>2026-08-15T00:00:00Z</time></trkpt>
<trkpt lat="37.812614000" lon="-121.973640000"><ele>126.6</ele><time>2026-08-15T00:00:00Z</time></trkpt>
<trkpt lat="37.812653000" lon="-121.973540000"><ele>126.8</ele><time>2026-08-15T00:00:00Z</time></trkpt>
<trkpt lat="37.812687000" lon="-121.973440000"><ele>126.9</ele><time>2026-08-15T00:00:00Z</time></trkpt>
<trkpt lat="37.812730000" lon="-121.973350000"><ele>127.0</ele><time>2026-08-15T00:00:00Z</time></trkpt>
<trkpt lat="37.812794000" lon="-121.973280000"><ele>127.1</ele><time>2026-08-15T00:00:00Z</time></trkpt>
<trkpt lat="37.812843000" lon="-121.973206000"><ele>127.1</ele><time>2026-08-15T00:00:00Z</time></trkpt>
<trkpt lat="37.812893000" lon="-121.973114000"><ele>127.2</ele><time>2026-08-15T00:00:00Z</time></trkpt>
<trkpt lat="37.812943000" lon="-121.973030000"><ele>127.3</ele><time>2026-08-15T00:00:00Z</time></trkpt>
<trkpt lat="37.812990000" lon="-121.972940000"><ele>127.4</ele><time>2026-08-15T00:00:00Z</time></trkpt>
<trkpt lat="37.813040000" lon="-121.972855000"><ele>127.5</ele><time>2026-08-15T00:00:00Z</time></trkpt>
<trkpt lat="37.813100000" lon="-121.972780000"><ele>127.6</ele><time>2026-08-15T00:00:00Z</time></trkpt>
<trkpt lat="37.813156000" lon="-121.972700000"><ele>127.8</ele><time>2026-08-15T00:00:00Z</time></trkpt>
<trkpt lat="37.813210000" lon="-121.972600000"><ele>127.9</ele><time>2026-08-15T00:00:00Z</time></trkpt>
<trkpt lat="37.813240000" lon="-121.972500000"><ele>128.1</ele><time>2026-08-15T00:00:00Z</time></trkpt>
<trkpt lat="37.813293000" lon="-121.972410000"><ele>128.3</ele><time>2026-08-15T00:00:00Z</time></trkpt>
<trkpt lat="37.813350000" lon="-121.972320000"><ele>128.5</ele><time>2026-08-15T00:00:00Z</time></trkpt>
<trkpt lat="37.813390000" lon="-121.972230000"><ele>128.7</ele><time>2026-08-15T00:00:00Z</time></trkpt>
<trkpt lat="37.813442000" lon="-121.972130000"><ele>128.9</ele><time>2026-08-15T00:00:00Z</time></trkpt>
<trkpt lat="37.813503000" lon="-121.972040000"><ele>129.1</ele><time>2026-08-15T00:00:00Z</time></trkpt>
<trkpt lat="37.813560000" lon="-121.971954000"><ele>129.3</ele><time>2026-08-15T00:00:00Z</time></trkpt>
<trkpt lat="37.813618000" lon="-121.971880000"><ele>129.5</ele><time>2026-08-15T00:00:00Z</time></trkpt>
<trkpt lat="37.813675000" lon="-121.971794000"><ele>129.5</ele><time>2026-08-15T00:00:00Z</time></trkpt>
<trkpt lat="37.813732000" lon="-121.971710000"><ele>129.7</ele><time>2026-08-15T00:00:00Z</time></trkpt>
<trkpt lat="37.813780000" lon="-121.971630000"><ele>129.9</ele><time>2026-08-15T00:00:00Z</time></trkpt>
<trkpt lat="37.813820000" lon="-121.971535000"><ele>130.1</ele><time>2026-08-15T00:00:00Z</time></trkpt>
<trkpt lat="37.813873000" lon="-121.971436000"><ele>130.2</ele><time>2026-08-15T00:00:00Z</time></trkpt>
<trkpt lat="37.813934000" lon="-121.971350000"><ele>130.3</ele><time>2026-08-15T00:00:00Z</time></trkpt>
<trkpt lat="37.813980000" lon="-121.971250000"><ele>130.3</ele><time>2026-08-15T00:00:00Z</time></trkpt>
<trkpt lat="37.814053000" lon="-121.971200000"><ele>130.3</ele><time>2026-08-15T00:00:00Z</time></trkpt>
<trkpt lat="37.814014000" lon="-121.971290000"><ele>130.3</ele><time>2026-08-15T00:00:00Z</time></trkpt>
<trkpt lat="37.813957000" lon="-121.971380000"><ele>130.3</ele><time>2026-08-15T00:00:00Z</time></trkpt>
<trkpt lat="37.813904000" lon="-121.971470000"><ele>130.2</ele><time>2026-08-15T00:00:00Z</time></trkpt>
<trkpt lat="37.813850000" lon="-121.971550000"><ele>130.1</ele><time>2026-08-15T00:00:00Z</time></trkpt>
<trkpt lat="37.813797000" lon="-121.971640000"><ele>130.0</ele><time>2026-08-15T00:00:00Z</time></trkpt>
<trkpt lat="37.813747000" lon="-121.971740000"><ele>129.9</ele><time>2026-08-15T00:00:00Z</time></trkpt>
<trkpt lat="37.813690000" lon="-121.971825000"><ele>129.7</ele><time>2026-08-15T00:00:00Z</time></trkpt>
<trkpt lat="37.813637000" lon="-121.971924000"><ele>129.6</ele><time>2026-08-15T00:00:00Z</time></trkpt>
<trkpt lat="37.813602000" lon="-121.972015000"><ele>129.5</ele><time>2026-08-15T00:00:00Z</time></trkpt>
<trkpt lat="37.813553000" lon="-121.972110000"><ele>129.3</ele><time>2026-08-15T00:00:00Z</time></trkpt>
<trkpt lat="37.813503000" lon="-121.972200000"><ele>129.1</ele><time>2026-08-15T00:00:00Z</time></trkpt>
<trkpt lat="37.813450000" lon="-121.972280000"><ele>128.9</ele><time>2026-08-15T00:00:00Z</time></trkpt>
<trkpt lat="37.813404000" lon="-121.972374000"><ele>128.6</ele><time>2026-08-15T00:00:00Z</time></trkpt>
<trkpt lat="37.813354000" lon="-121.972466000"><ele>128.5</ele><time>2026-08-15T00:00:00Z</time></trkpt>
<trkpt lat="37.813297000" lon="-121.972560000"><ele>128.3</ele><time>2026-08-15T00:00:00Z</time></trkpt>
<trkpt lat="37.813244000" lon="-121.972640000"><ele>128.0</ele><time>2026-08-15T00:00:00Z</time></trkpt>
<trkpt lat="37.813187000" lon="-121.972730000"><ele>127.8</ele><time>2026-08-15T00:00:00Z</time></trkpt>
<trkpt lat="37.813126000" lon="-121.972820000"><ele>127.6</ele><time>2026-08-15T00:00:00Z</time></trkpt>
<trkpt lat="37.813050000" lon="-121.972870000"><ele>127.5</ele><time>2026-08-15T00:00:00Z</time></trkpt>
<trkpt lat="37.812984000" lon="-121.972950000"><ele>127.5</ele><time>2026-08-15T00:00:00Z</time></trkpt>
<trkpt lat="37.812940000" lon="-121.973040000"><ele>127.5</ele><time>2026-08-15T00:00:00Z</time></trkpt>
<trkpt lat="37.812897000" lon="-121.973130000"><ele>127.4</ele><time>2026-08-15T00:00:00Z</time></trkpt>
<trkpt lat="37.812862000" lon="-121.973230000"><ele>127.3</ele><time>2026-08-15T00:00:00Z</time></trkpt>
<trkpt lat="37.812910000" lon="-121.973335000"><ele>127.3</ele><time>2026-08-15T00:00:00Z</time></trkpt>
<trkpt lat="37.812973000" lon="-121.973410000"><ele>127.3</ele><time>2026-08-15T00:00:00Z</time></trkpt>
<trkpt lat="37.813057000" lon="-121.973460000"><ele>127.3</ele><time>2026-08-15T00:00:00Z</time></trkpt>
<trkpt lat="37.813137000" lon="-121.973520000"><ele>127.4</ele><time>2026-08-15T00:00:00Z</time></trkpt>
<trkpt lat="37.813225000" lon="-121.973540000"><ele>127.4</ele><time>2026-08-15T00:00:00Z</time></trkpt>
<trkpt lat="37.813280000" lon="-121.973450000"><ele>127.5</ele><time>2026-08-15T00:00:00Z</time></trkpt>
<trkpt lat="37.813316000" lon="-121.973350000"><ele>127.5</ele><time>2026-08-15T00:00:00Z</time></trkpt>
<trkpt lat="37.813362000" lon="-121.973260000"><ele>127.5</ele><time>2026-08-15T00:00:00Z</time></trkpt>
<trkpt lat="37.813423000" lon="-121.973180000"><ele>127.5</ele><time>2026-08-15T00:00:00Z</time></trkpt>
<trkpt lat="37.813473000" lon="-121.973100000"><ele>127.6</ele><time>2026-08-15T00:00:00Z</time></trkpt>
<trkpt lat="37.813526000" lon="-121.973000000"><ele>127.7</ele><time>2026-08-15T00:00:00Z</time></trkpt>
<trkpt lat="37.813580000" lon="-121.972910000"><ele>127.8</ele><time>2026-08-15T00:00:00Z</time></trkpt>
<trkpt lat="37.813625000" lon="-121.972824000"><ele>127.9</ele><time>2026-08-15T00:00:00Z</time></trkpt>
<trkpt lat="37.813675000" lon="-121.972730000"><ele>128.1</ele><time>2026-08-15T00:00:00Z</time></trkpt>
<trkpt lat="37.813725000" lon="-121.972640000"><ele>128.2</ele><time>2026-08-15T00:00:00Z</time></trkpt>
<trkpt lat="37.813778000" lon="-121.972550000"><ele>128.3</ele><time>2026-08-15T00:00:00Z</time></trkpt>
<trkpt lat="37.813830000" lon="-121.972466000"><ele>128.4</ele><time>2026-08-15T00:00:00Z</time></trkpt>
<trkpt lat="37.813880000" lon="-121.972380000"><ele>128.5</ele><time>2026-08-15T00:00:00Z</time></trkpt>
<trkpt lat="37.813930000" lon="-121.972300000"><ele>128.5</ele><time>2026-08-15T00:00:00Z</time></trkpt>
<trkpt lat="37.813980000" lon="-121.972206000"><ele>128.6</ele><time>2026-08-15T00:00:00Z</time></trkpt>
<trkpt lat="37.814037000" lon="-121.972110000"><ele>128.8</ele><time>2026-08-15T00:00:00Z</time></trkpt>
<trkpt lat="37.814087000" lon="-121.972020000"><ele>129.0</ele><time>2026-08-15T00:00:00Z</time></trkpt>
<trkpt lat="37.814150000" lon="-121.971940000"><ele>129.1</ele><time>2026-08-15T00:00:00Z</time></trkpt>
<trkpt lat="37.814198000" lon="-121.971840000"><ele>129.2</ele><time>2026-08-15T00:00:00Z</time></trkpt>
<trkpt lat="37.814243000" lon="-121.971740000"><ele>129.3</ele><time>2026-08-15T00:00:00Z</time></trkpt>
<trkpt lat="37.814297000" lon="-121.971650000"><ele>129.4</ele><time>2026-08-15T00:00:00Z</time></trkpt>
<trkpt lat="37.814342000" lon="-121.971550000"><ele>129.5</ele><time>2026-08-15T00:00:00Z</time></trkpt>
<trkpt lat="37.814396000" lon="-121.971450000"><ele>129.5</ele><time>2026-08-15T00:00:00Z</time></trkpt>
<trkpt lat="37.814445000" lon="-121.971350000"><ele>129.5</ele><time>2026-08-15T00:00:00Z</time></trkpt>
<trkpt lat="37.814503000" lon="-121.971270000"><ele>129.5</ele><time>2026-08-15T00:00:00Z</time></trkpt>
<trkpt lat="37.814520000" lon="-121.971170000"><ele>129.5</ele><time>2026-08-15T00:00:00Z</time></trkpt>
<trkpt lat="37.814580000" lon="-121.971085000"><ele>129.5</ele><time>2026-08-15T00:00:00Z</time></trkpt>
<trkpt lat="37.814640000" lon="-121.970990000"><ele>129.4</ele><time>2026-08-15T00:00:00Z</time></trkpt>
<trkpt lat="37.814693000" lon="-121.970910000"><ele>129.4</ele><time>2026-08-15T00:00:00Z</time></trkpt>
<trkpt lat="37.814747000" lon="-121.970830000"><ele>129.5</ele><time>2026-08-15T00:00:00Z</time></trkpt>
<trkpt lat="37.814804000" lon="-121.970750000"><ele>129.5</ele><time>2026-08-15T00:00:00Z</time></trkpt>
<trkpt lat="37.814865000" lon="-121.970670000"><ele>129.5</ele><time>2026-08-15T00:00:00Z</time></trkpt>
<trkpt lat="37.814907000" lon="-121.970570000"><ele>129.5</ele><time>2026-08-15T00:00:00Z</time></trkpt>
<trkpt lat="37.814960000" lon="-121.970480000"><ele>129.5</ele><time>2026-08-15T00:00:00Z</time></trkpt>
<trkpt lat="37.815014000" lon="-121.970390000"><ele>129.5</ele><time>2026-08-15T00:00:00Z</time></trkpt>
<trkpt lat="37.815060000" lon="-121.970290000"><ele>129.6</ele><time>2026-08-15T00:00:00Z</time></trkpt>
<trkpt lat="37.815110000" lon="-121.970200000"><ele>129.7</ele><time>2026-08-15T00:00:00Z</time></trkpt>
<trkpt lat="37.815160000" lon="-121.970100000"><ele>129.8</ele><time>2026-08-15T00:00:00Z</time></trkpt>
<trkpt lat="37.815212000" lon="-121.970000000"><ele>129.9</ele><time>2026-08-15T00:00:00Z</time></trkpt>
<trkpt lat="37.815260000" lon="-121.969920000"><ele>130.0</ele><time>2026-08-15T00:00:00Z</time></trkpt>
<trkpt lat="37.815320000" lon="-121.969820000"><ele>130.0</ele><time>2026-08-15T00:00:00Z</time></trkpt>
<trkpt lat="37.815365000" lon="-121.969734000"><ele>130.1</ele><time>2026-08-15T00:00:00Z</time></trkpt>
<trkpt lat="37.815420000" lon="-121.969635000"><ele>130.2</ele><time>2026-08-15T00:00:00Z</time></trkpt>
<trkpt lat="37.815470000" lon="-121.969540000"><ele>130.2</ele><time>2026-08-15T00:00:00Z</time></trkpt>
<trkpt lat="37.815514000" lon="-121.969450000"><ele>130.2</ele><time>2026-08-15T00:00:00Z</time></trkpt>
<trkpt lat="37.815563000" lon="-121.969350000"><ele>130.2</ele><time>2026-08-15T00:00:00Z</time></trkpt>
<trkpt lat="37.815605000" lon="-121.969270000"><ele>130.2</ele><time>2026-08-15T00:00:00Z</time></trkpt>
<trkpt lat="37.815660000" lon="-121.969180000"><ele>130.2</ele><time>2026-08-15T00:00:00Z</time></trkpt>
<trkpt lat="37.815693000" lon="-121.969080000"><ele>130.2</ele><time>2026-08-15T00:00:00Z</time></trkpt>
<trkpt lat="37.815730000" lon="-121.968970000"><ele>130.2</ele><time>2026-08-15T00:00:00Z</time></trkpt>
<trkpt lat="37.815765000" lon="-121.968864000"><ele>130.3</ele><time>2026-08-15T00:00:00Z</time></trkpt>
<trkpt lat="37.815826000" lon="-121.968790000"><ele>130.4</ele><time>2026-08-15T00:00:00Z</time></trkpt>
<trkpt lat="37.815790000" lon="-121.968880000"><ele>130.3</ele><time>2026-08-15T00:00:00Z</time></trkpt>
<trkpt lat="37.815735000" lon="-121.968970000"><ele>130.2</ele><time>2026-08-15T00:00:00Z</time></trkpt>
<trkpt lat="37.815693000" lon="-121.969060000"><ele>130.2</ele><time>2026-08-15T00:00:00Z</time></trkpt>
<trkpt lat="37.815643000" lon="-121.969160000"><ele>130.2</ele><time>2026-08-15T00:00:00Z</time></trkpt>
<trkpt lat="37.815600000" lon="-121.969260000"><ele>130.2</ele><time>2026-08-15T00:00:00Z</time></trkpt>
<trkpt lat="37.815556000" lon="-121.969360000"><ele>130.2</ele><time>2026-08-15T00:00:00Z</time></trkpt>
<trkpt lat="37.815514000" lon="-121.969444000"><ele>130.2</ele><time>2026-08-15T00:00:00Z</time></trkpt>
<trkpt lat="37.815464000" lon="-121.969550000"><ele>130.2</ele><time>2026-08-15T00:00:00Z</time></trkpt>
<trkpt lat="37.815410000" lon="-121.969635000"><ele>130.2</ele><time>2026-08-15T00:00:00Z</time></trkpt>
<trkpt lat="37.815365000" lon="-121.969730000"><ele>130.1</ele><time>2026-08-15T00:00:00Z</time></trkpt>
<trkpt lat="37.815310000" lon="-121.969810000"><ele>130.0</ele><time>2026-08-15T00:00:00Z</time></trkpt>
<trkpt lat="37.815270000" lon="-121.969900000"><ele>130.0</ele><time>2026-08-15T00:00:00Z</time></trkpt>
<trkpt lat="37.815210000" lon="-121.969990000"><ele>129.9</ele><time>2026-08-15T00:00:00Z</time></trkpt>
<trkpt lat="37.815155000" lon="-121.970090000"><ele>129.8</ele><time>2026-08-15T00:00:00Z</time></trkpt>
<trkpt lat="37.815105000" lon="-121.970190000"><ele>129.7</ele><time>2026-08-15T00:00:00Z</time></trkpt>
<trkpt lat="37.815063000" lon="-121.970280000"><ele>129.6</ele><time>2026-08-15T00:00:00Z</time></trkpt>
<trkpt lat="37.815006000" lon="-121.970375000"><ele>129.5</ele><time>2026-08-15T00:00:00Z</time></trkpt>
<trkpt lat="37.814953000" lon="-121.970474000"><ele>129.5</ele><time>2026-08-15T00:00:00Z</time></trkpt>
<trkpt lat="37.814903000" lon="-121.970570000"><ele>129.5</ele><time>2026-08-15T00:00:00Z</time></trkpt>
<trkpt lat="37.814865000" lon="-121.970670000"><ele>129.5</ele><time>2026-08-15T00:00:00Z</time></trkpt>
<trkpt lat="37.814796000" lon="-121.970760000"><ele>129.5</ele><time>2026-08-15T00:00:00Z</time></trkpt>
<trkpt lat="37.814743000" lon="-121.970840000"><ele>129.5</ele><time>2026-08-15T00:00:00Z</time></trkpt>
<trkpt lat="37.814690000" lon="-121.970940000"><ele>129.4</ele><time>2026-08-15T00:00:00Z</time></trkpt>
<trkpt lat="37.814636000" lon="-121.971040000"><ele>129.4</ele><time>2026-08-15T00:00:00Z</time></trkpt>
<trkpt lat="37.814587000" lon="-121.971130000"><ele>129.5</ele><time>2026-08-15T00:00:00Z</time></trkpt>
<trkpt lat="37.814526000" lon="-121.971230000"><ele>129.5</ele><time>2026-08-15T00:00:00Z</time></trkpt>
<trkpt lat="37.814465000" lon="-121.971306000"><ele>129.5</ele><time>2026-08-15T00:00:00Z</time></trkpt>
<trkpt lat="37.814410000" lon="-121.971390000"><ele>129.5</ele><time>2026-08-15T00:00:00Z</time></trkpt>
<trkpt lat="37.814365000" lon="-121.971490000"><ele>129.5</ele><time>2026-08-15T00:00:00Z</time></trkpt>
<trkpt lat="37.814323000" lon="-121.971580000"><ele>129.5</ele><time>2026-08-15T00:00:00Z</time></trkpt>
<trkpt lat="37.814270000" lon="-121.971664000"><ele>129.4</ele><time>2026-08-15T00:00:00Z</time></trkpt>
<trkpt lat="37.814217000" lon="-121.971756000"><ele>129.3</ele><time>2026-08-15T00:00:00Z</time></trkpt>
<trkpt lat="37.814156000" lon="-121.971850000"><ele>129.1</ele><time>2026-08-15T00:00:00Z</time></trkpt>
<trkpt lat="37.814106000" lon="-121.971950000"><ele>129.0</ele><time>2026-08-15T00:00:00Z</time></trkpt>
<trkpt lat="37.814064000" lon="-121.972046000"><ele>128.9</ele><time>2026-08-15T00:00:00Z</time></trkpt>
<trkpt lat="37.814022000" lon="-121.972140000"><ele>128.7</ele><time>2026-08-15T00:00:00Z</time></trkpt>
<trkpt lat="37.813965000" lon="-121.972230000"><ele>128.5</ele><time>2026-08-15T00:00:00Z</time></trkpt>
<trkpt lat="37.813923000" lon="-121.972320000"><ele>128.5</ele><time>2026-08-15T00:00:00Z</time></trkpt>
<trkpt lat="37.813858000" lon="-121.972404000"><ele>128.4</ele><time>2026-08-15T00:00:00Z</time></trkpt>
<trkpt lat="37.813810000" lon="-121.972490000"><ele>128.3</ele><time>2026-08-15T00:00:00Z</time></trkpt>
<trkpt lat="37.813755000" lon="-121.972580000"><ele>128.2</ele><time>2026-08-15T00:00:00Z</time></trkpt>
<trkpt lat="37.813694000" lon="-121.972670000"><ele>128.1</ele><time>2026-08-15T00:00:00Z</time></trkpt>
<trkpt lat="37.813644000" lon="-121.972760000"><ele>127.9</ele><time>2026-08-15T00:00:00Z</time></trkpt>
<trkpt lat="37.813595000" lon="-121.972860000"><ele>127.8</ele><time>2026-08-15T00:00:00Z</time></trkpt>
<trkpt lat="37.813538000" lon="-121.972950000"><ele>127.7</ele><time>2026-08-15T00:00:00Z</time></trkpt>
<trkpt lat="37.813477000" lon="-121.973040000"><ele>127.6</ele><time>2026-08-15T00:00:00Z</time></trkpt>
<trkpt lat="37.813430000" lon="-121.973140000"><ele>127.5</ele><time>2026-08-15T00:00:00Z</time></trkpt>
<trkpt lat="37.813377000" lon="-121.973230000"><ele>127.5</ele><time>2026-08-15T00:00:00Z</time></trkpt>
<trkpt lat="37.813324000" lon="-121.973320000"><ele>127.5</ele><time>2026-08-15T00:00:00Z</time></trkpt>
<trkpt lat="37.813274000" lon="-121.973410000"><ele>127.4</ele><time>2026-08-15T00:00:00Z</time></trkpt>
<trkpt lat="37.813232000" lon="-121.973510000"><ele>127.3</ele><time>2026-08-15T00:00:00Z</time></trkpt>
<trkpt lat="37.813140000" lon="-121.973520000"><ele>127.2</ele><time>2026-08-15T00:00:00Z</time></trkpt>
<trkpt lat="37.813070000" lon="-121.973460000"><ele>127.1</ele><time>2026-08-15T00:00:00Z</time></trkpt>
<trkpt lat="37.812980000" lon="-121.973430000"><ele>127.1</ele><time>2026-08-15T00:00:00Z</time></trkpt>
<trkpt lat="37.812900000" lon="-121.973495000"><ele>127.1</ele><time>2026-08-15T00:00:00Z</time></trkpt>
<trkpt lat="37.812810000" lon="-121.973495000"><ele>127.1</ele><time>2026-08-15T00:00:00Z</time></trkpt>
<trkpt lat="37.812720000" lon="-121.973490000"><ele>127.1</ele><time>2026-08-15T00:00:00Z</time></trkpt>
<trkpt lat="37.812645000" lon="-121.973430000"><ele>127.1</ele><time>2026-08-15T00:00:00Z</time></trkpt>
<trkpt lat="37.812565000" lon="-121.973370000"><ele>127.0</ele><time>2026-08-15T00:00:00Z</time></trkpt>
<trkpt lat="37.812492000" lon="-121.973310000"><ele>127.0</ele><time>2026-08-15T00:00:00Z</time></trkpt>
<trkpt lat="37.812458000" lon="-121.973350000"><ele>127.0</ele><time>2026-08-15T00:00:00Z</time></trkpt>
</trkseg>
</trk>
</gpx>
