<?xml version="1.0" encoding="UTF-8"?>
<gpx
  version="1.1"
  creator="Runkeeper - http://www.runkeeper.com"
  xmlns:xsi="http://www.w3.org/2001/XMLSchema-instance"
  xmlns="http://www.topografix.com/GPX/1/1"
  xsi:schemaLocation="http://www.topografix.com/GPX/1/1 http://www.topografix.com/GPX/1/1/gpx.xsd"
  xmlns:gpxtpx="http://www.garmin.com/xmlschemas/TrackPointExtension/v1">
<trk>
  <name><![CDATA[Walking 7/26/26]]></name>
  <time>2026-07-27T00:00:00Z</time>
<trkseg>
<trkpt lat="37.804180000" lon="-121.938780000"><ele>173.0</ele><time>2026-07-27T00:00:00Z</time></trkpt>
<trkpt lat="37.804120000" lon="-121.938710000"><ele>173.0</ele><time>2026-07-27T00:00:00Z</time></trkpt>
<trkpt lat="37.804043000" lon="-121.938660000"><ele>173.0</ele><time>2026-07-27T00:00:00Z</time></trkpt>
<trkpt lat="37.804016000" lon="-121.938570000"><ele>173.1</ele><time>2026-07-27T00:00:00Z</time></trkpt>
<trkpt lat="37.804010000" lon="-121.938460000"><ele>173.2</ele><time>2026-07-27T00:00:00Z</time></trkpt>
<trkpt lat="37.804012000" lon="-121.938350000"><ele>173.3</ele><time>2026-07-27T00:00:00Z</time></trkpt>
<trkpt lat="37.804020000" lon="-121.938230000"><ele>173.4</ele><time>2026-07-27T00:00:00Z</time></trkpt>
<trkpt lat="37.804016000" lon="-121.938120000"><ele>173.5</ele><time>2026-07-27T00:00:00Z</time></trkpt>
<trkpt lat="37.804030000" lon="-121.938000000"><ele>173.5</ele><time>2026-07-27T00:00:00Z</time></trkpt>
<trkpt lat="37.804043000" lon="-121.937900000"><ele>173.6</ele><time>2026-07-27T00:00:00Z</time></trkpt>
<trkpt lat="37.804028000" lon="-121.937790000"><ele>173.8</ele><time>2026-07-27T00:00:00Z</time></trkpt>
<trkpt lat="37.803997000" lon="-121.937680000"><ele>174.0</ele><time>2026-07-27T00:00:00Z</time></trkpt>
<trkpt lat="37.803970000" lon="-121.937584000"><ele>174.2</ele><time>2026-07-27T00:00:00Z</time></trkpt>
<trkpt lat="37.803898000" lon="-121.937515000"><ele>174.3</ele><time>2026-07-27T00:00:00Z</time></trkpt>
<trkpt lat="37.803806000" lon="-121.937510000"><ele>174.3</ele><time>2026-07-27T00:00:00Z</time></trkpt>
<trkpt lat="37.803715000" lon="-121.937510000"><ele>174.3</ele><time>2026-07-27T00:00:00Z</time></trkpt>
<trkpt lat="37.803627000" lon="-121.937540000"><ele>174.4</ele><time>2026-07-27T00:00:00Z</time></trkpt>
<trkpt lat="37.803715000" lon="-121.937510000"><ele>174.5</ele><time>2026-07-27T00:00:00Z</time></trkpt>
<trkpt lat="37.803802000" lon="-121.937485000"><ele>174.5</ele><time>2026-07-27T00:00:00Z</time></trkpt>
<trkpt lat="37.803886000" lon="-121.937480000"><ele>174.6</ele><time>2026-07-27T00:00:00Z</time></trkpt>
<trkpt lat="37.803967000" lon="-121.937450000"><ele>174.7</ele><time>2026-07-27T00:00:00Z</time></trkpt>
<trkpt lat="37.803980000" lon="-121.937330000"><ele>174.6</ele><time>2026-07-27T00:00:00Z</time></trkpt>
<trkpt lat="37.803950000" lon="-121.937225000"><ele>174.5</ele><time>2026-07-27T00:00:00Z</time></trkpt>
<trkpt lat="37.803950000" lon="-121.937120000"><ele>174.5</ele><time>2026-07-27T00:00:00Z</time></trkpt>
<trkpt lat="37.803940000" lon="-121.937004000"><ele>174.5</ele><time>2026-07-27T00:00:00Z</time></trkpt>
<trkpt lat="37.803913000" lon="-121.936900000"><ele>174.5</ele><time>2026-07-27T00:00:00Z</time></trkpt>
<trkpt lat="37.803886000" lon="-121.936800000"><ele>174.4</ele><time>2026-07-27T00:00:00Z</time></trkpt>
<trkpt lat="37.803864000" lon="-121.936690000"><ele>174.2</ele><time>2026-07-27T00:00:00Z</time></trkpt>
<trkpt lat="37.803825000" lon="-121.936600000"><ele>173.9</ele><time>2026-07-27T00:00:00Z</time></trkpt>
<trkpt lat="37.803772000" lon="-121.936516000"><ele>173.6</ele><time>2026-07-27T00:00:00Z</time></trkpt>
<trkpt lat="37.803745000" lon="-121.936420000"><ele>173.4</ele><time>2026-07-27T00:00:00Z</time></trkpt>
<trkpt lat="37.803690000" lon="-121.936325000"><ele>173.1</ele><time>2026-07-27T00:00:00Z</time></trkpt>
<trkpt lat="37.803660000" lon="-121.936226000"><ele>172.9</ele><time>2026-07-27T00:00:00Z</time></trkpt>
<trkpt lat="37.803580000" lon="-121.936195000"><ele>172.7</ele><time>2026-07-27T00:00:00Z</time></trkpt>
<trkpt lat="37.803505000" lon="-121.936230000"><ele>172.5</ele><time>2026-07-27T00:00:00Z</time></trkpt>
<trkpt lat="37.803432000" lon="-121.936290000"><ele>172.4</ele><time>2026-07-27T00:00:00Z</time></trkpt>
<trkpt lat="37.803356000" lon="-121.936320000"><ele>172.2</ele><time>2026-07-27T00:00:00Z</time></trkpt>
<trkpt lat="37.803280000" lon="-121.936360000"><ele>172.1</ele><time>2026-07-27T00:00:00Z</time></trkpt>
<trkpt lat="37.803207000" lon="-121.936420000"><ele>171.9</ele><time>2026-07-27T00:00:00Z</time></trkpt>
<trkpt lat="37.803135000" lon="-121.936470000"><ele>171.8</ele><time>2026-07-27T00:00:00Z</time></trkpt>
<trkpt lat="37.803055000" lon="-121.936516000"><ele>171.7</ele><time>2026-07-27T00:00:00Z</time></trkpt>
<trkpt lat="37.802980000" lon="-121.936570000"><ele>171.6</ele><time>2026-07-27T00:00:00Z</time></trkpt>
<trkpt lat="37.802902000" lon="-121.936615000"><ele>171.6</ele><time>2026-07-27T00:00:00Z</time></trkpt>
<trkpt lat="37.802830000" lon="-121.936670000"><ele>171.6</ele><time>2026-07-27T00:00:00Z</time></trkpt>
<trkpt lat="37.802780000" lon="-121.936750000"><ele>171.6</ele><time>2026-07-27T00:00:00Z</time></trkpt>
<trkpt lat="37.802810000" lon="-121.936650000"><ele>171.6</ele><time>2026-07-27T00:00:00Z</time></trkpt>
<trkpt lat="37.802883000" lon="-121.936615000"><ele>171.6</ele><time>2026-07-27T00:00:00Z</time></trkpt>
<trkpt lat="37.802975000" lon="-121.936584000"><ele>171.6</ele><time>2026-07-27T00:00:00Z</time></trkpt>
<trkpt lat="37.803055000" lon="-121.936530000"><ele>171.6</ele><time>2026-07-27T00:00:00Z</time></trkpt>
<trkpt lat="37.803127000" lon="-121.936485000"><ele>171.7</ele><time>2026-07-27T00:00:00Z</time></trkpt>
<trkpt lat="37.803200000" lon="-121.936440000"><ele>171.8</ele><time>2026-07-27T00:00:00Z</time></trkpt>
<trkpt lat="37.803276000" lon="-121.936386000"><ele>171.9</ele><time>2026-07-27T00:00:00Z</time></trkpt>
<trkpt lat="37.803356000" lon="-121.936350000"><ele>172.1</ele><time>2026-07-27T00:00:00Z</time></trkpt>
<trkpt lat="37.803420000" lon="-121.936280000"><ele>172.3</ele><time>2026-07-27T00:00:00Z</time></trkpt>
<trkpt lat="37.803490000" lon="-121.936226000"><ele>172.5</ele><time>2026-07-27T00:00:00Z</time></trkpt>
<trkpt lat="37.803566000" lon="-121.936170000"><ele>172.6</ele><time>2026-07-27T00:00:00Z</time></trkpt>
<trkpt lat="37.803654000" lon="-121.936130000"><ele>172.8</ele><time>2026-07-27T00:00:00Z</time></trkpt>
<trkpt lat="37.803734000" lon="-121.936080000"><ele>173.0</ele><time>2026-07-27T00:00:00Z</time></trkpt>
<trkpt lat="37.803814000" lon="-121.936035000"><ele>173.3</ele><time>2026-07-27T00:00:00Z</time></trkpt>
<trkpt lat="37.803898000" lon="-121.936010000"><ele>173.6</ele><time>2026-07-27T00:00:00Z</time></trkpt>
<trkpt lat="37.803986000" lon="-121.935970000"><ele>174.1</ele><time>2026-07-27T00:00:00Z</time></trkpt>
<trkpt lat="37.804070000" lon="-121.935936000"><ele>174.5</ele><time>2026-07-27T00:00:00Z</time></trkpt>
<trkpt lat="37.804153000" lon="-121.935936000"><ele>174.9</ele><time>2026-07-27T00:00:00Z</time></trkpt>
<trkpt lat="37.804237000" lon="-121.935920000"><ele>175.2</ele><time>2026-07-27T00:00:00Z</time></trkpt>
<trkpt lat="37.804317000" lon="-121.935900000"><ele>175.4</ele><time>2026-07-27T00:00:00Z</time></trkpt>
<trkpt lat="37.804398000" lon="-121.935850000"><ele>175.5</ele><time>2026-07-27T00:00:00Z</time></trkpt>
<trkpt lat="37.804400000" lon="-121.935745000"><ele>175.7</ele><time>2026-07-27T00:00:00Z</time></trkpt>
<trkpt lat="37.804413000" lon="-121.935640000"><ele>175.9</ele><time>2026-07-27T00:00:00Z</time></trkpt>
<trkpt lat="37.804410000" lon="-121.935524000"><ele>176.1</ele><time>2026-07-27T00:00:00Z</time></trkpt>
<trkpt lat="37.804400000" lon="-121.935420000"><ele>176.2</ele><time>2026-07-27T00:00:00Z</time></trkpt>
<trkpt lat="37.804380000" lon="-121.935320000"><ele>176.2</ele><time>2026-07-27T00:00:00Z</time></trkpt>
<trkpt lat="37.804410000" lon="-121.935220000"><ele>175.9</ele><time>2026-07-27T00:00:00Z</time></trkpt>
<trkpt lat="37.804398000" lon="-121.935120000"><ele>175.6</ele><time>2026-07-27T00:00:00Z</time></trkpt>
<trkpt lat="37.804380000" lon="-121.935010000"><ele>175.5</ele><time>2026-07-27T00:00:00Z</time></trkpt>
<trkpt lat="37.804333000" lon="-121.934930000"><ele>175.2</ele><time>2026-07-27T00:00:00Z</time></trkpt>
<trkpt lat="37.804264000" lon="-121.934860000"><ele>174.9</ele><time>2026-07-27T00:00:00Z</time></trkpt>
<trkpt lat="37.804180000" lon="-121.934850000"><ele>174.6</ele><time>2026-07-27T00:00:00Z</time></trkpt>
<trkpt lat="37.804092000" lon="-121.934890000"><ele>174.3</ele><time>2026-07-27T00:00:00Z</time></trkpt>
<trkpt lat="37.804012000" lon="-121.934920000"><ele>173.9</ele><time>2026-07-27T00:00:00Z</time></trkpt>
<trkpt lat="37.803932000" lon="-121.934950000"><ele>173.5</ele><time>2026-07-27T00:00:00Z</time></trkpt>
<trkpt lat="37.803850000" lon="-121.934990000"><ele>173.2</ele><time>2026-07-27T00:00:00Z</time></trkpt>
<trkpt lat="37.803772000" lon="-121.935020000"><ele>172.8</ele><time>2026-07-27T00:00:00Z</time></trkpt>
<trkpt lat="37.803684000" lon="-121.935036000"><ele>172.6</ele><time>2026-07-27T00:00:00Z</time></trkpt>
<trkpt lat="37.803596000" lon="-121.935070000"><ele>172.5</ele><time>2026-07-27T00:00:00Z</time></trkpt>
<trkpt lat="37.803513000" lon="-121.935110000"><ele>172.3</ele><time>2026-07-27T00:00:00Z</time></trkpt>
<trkpt lat="37.803436000" lon="-121.935160000"><ele>172.2</ele><time>2026-07-27T00:00:00Z</time></trkpt>
<trkpt lat="37.803352000" lon="-121.935200000"><ele>172.1</ele><time>2026-07-27T00:00:00Z</time></trkpt>
<trkpt lat="37.803272000" lon="-121.935260000"><ele>172.0</ele><time>2026-07-27T00:00:00Z</time></trkpt>
<trkpt lat="37.803210000" lon="-121.935340000"><ele>172.0</ele><time>2026-07-27T00:00:00Z</time></trkpt>
<trkpt lat="37.803140000" lon="-121.935394000"><ele>172.0</ele><time>2026-07-27T00:00:00Z</time></trkpt>
<trkpt lat="37.803060000" lon="-121.935440000"><ele>172.0</ele><time>2026-07-27T00:00:00Z</time></trkpt>
<trkpt lat="37.802980000" lon="-121.935486000"><ele>172.0</ele><time>2026-07-27T00:00:00Z</time></trkpt>
<trkpt lat="37.802906000" lon="-121.935540000"><ele>172.0</ele><time>2026-07-27T00:00:00Z</time></trkpt>
<trkpt lat="37.802830000" lon="-121.935590000"><ele>172.0</ele><time>2026-07-27T00:00:00Z</time></trkpt>
<trkpt lat="37.802742000" lon="-121.935640000"><ele>172.0</ele><time>2026-07-27T00:00:00Z</time></trkpt>
<trkpt lat="37.802660000" lon="-121.935684000"><ele>172.0</ele><time>2026-07-27T00:00:00Z</time></trkpt>
<trkpt lat="37.802580000" lon="-121.935745000"><ele>172.0</ele><time>2026-07-27T00:00:00Z</time></trkpt>
<trkpt lat="37.802500000" lon="-121.935800000"><ele>172.0</ele><time>2026-07-27T00:00:00Z</time></trkpt>
<trkpt lat="37.802536000" lon="-121.935700000"><ele>172.0</ele><time>2026-07-27T00:00:00Z</time></trkpt>
<trkpt lat="37.802612000" lon="-121.935646000"><ele>172.0</ele><time>2026-07-27T00:00:00Z</time></trkpt>
<trkpt lat="37.802690000" lon="-121.935600000"><ele>171.9</ele><time>2026-07-27T00:00:00Z</time></trkpt>
<trkpt lat="37.802773000" lon="-121.935550000"><ele>171.8</ele><time>2026-07-27T00:00:00Z</time></trkpt>
<trkpt lat="37.802856000" lon="-121.935500000"><ele>171.8</ele><time>2026-07-27T00:00:00Z</time></trkpt>
<trkpt lat="37.802944000" lon="-121.935460000"><ele>171.8</ele><time>2026-07-27T00:00:00Z</time></trkpt>
<trkpt lat="37.803017000" lon="-121.935410000"><ele>171.8</ele><time>2026-07-27T00:00:00Z</time></trkpt>
<trkpt lat="37.803085000" lon="-121.935350000"><ele>171.8</ele><time>2026-07-27T00:00:00Z</time></trkpt>
<trkpt lat="37.803165000" lon="-121.935295000"><ele>171.8</ele><time>2026-07-27T00:00:00Z</time></trkpt>
<trkpt lat="37.803234000" lon="-121.935230000"><ele>171.8</ele><time>2026-07-27T00:00:00Z</time></trkpt>
<trkpt lat="37.803220000" lon="-121.935130000"><ele>171.8</ele><time>2026-07-27T00:00:00Z</time></trkpt>
<trkpt lat="37.803180000" lon="-121.935030000"><ele>171.8</ele><time>2026-07-27T00:00:00Z</time></trkpt>
<trkpt lat="37.803143000" lon="-121.934940000"><ele>171.8</ele><time>2026-07-27T00:00:00Z</time></trkpt>
<trkpt lat="37.803110000" lon="-121.934840000"><ele>171.9</ele><time>2026-07-27T00:00:00Z</time></trkpt>
<trkpt lat="37.803055000" lon="-121.934750000"><ele>172.0</ele><time>2026-07-27T00:00:00Z</time></trkpt>
<trkpt lat="37.803017000" lon="-121.934654000"><ele>172.0</ele><time>2026-07-27T00:00:00Z</time></trkpt>
<trkpt lat="37.802990000" lon="-121.934550000"><ele>172.1</ele><time>2026-07-27T00:00:00Z</time></trkpt>
<trkpt lat="37.802967000" lon="-121.934430000"><ele>172.2</ele><time>2026-07-27T00:00:00Z</time></trkpt>
<trkpt lat="37.802883000" lon="-121.934430000"><ele>172.3</ele><time>2026-07-27T00:00:00Z</time></trkpt>
<trkpt lat="37.802790000" lon="-121.934456000"><ele>172.4</ele><time>2026-07-27T00:00:00Z</time></trkpt>
<trkpt lat="37.802708000" lon="-121.934490000"><ele>172.5</ele><time>2026-07-27T00:00:00Z</time></trkpt>
<trkpt lat="37.802635000" lon="-121.934530000"><ele>172.5</ele><time>2026-07-27T00:00:00Z</time></trkpt>
<trkpt lat="37.802560000" lon="-121.934586000"><ele>172.6</ele><time>2026-07-27T00:00:00Z</time></trkpt>
<trkpt lat="37.802483000" lon="-121.934620000"><ele>172.7</ele><time>2026-07-27T00:00:00Z</time></trkpt>
<trkpt lat="37.802410000" lon="-121.934685000"><ele>172.8</ele><time>2026-07-27T00:00:00Z</time></trkpt>
<trkpt lat="37.802322000" lon="-121.934720000"><ele>172.9</ele><time>2026-07-27T00:00:00Z</time></trkpt>
<trkpt lat="37.802242000" lon="-121.934750000"><ele>173.0</ele><time>2026-07-27T00:00:00Z</time></trkpt>
<trkpt lat="37.802160000" lon="-121.934790000"><ele>173.0</ele><time>2026-07-27T00:00:00Z</time></trkpt>
<trkpt lat="37.802216000" lon="-121.934700000"><ele>173.0</ele><time>2026-07-27T00:00:00Z</time></trkpt>
<trkpt lat="37.802296000" lon="-121.934660000"><ele>172.9</ele><time>2026-07-27T00:00:00Z</time></trkpt>
<trkpt lat="37.802383000" lon="-121.934616000"><ele>172.8</ele><time>2026-07-27T00:00:00Z</time></trkpt>
<trkpt lat="37.802467000" lon="-121.934560000"><ele>172.7</ele><time>2026-07-27T00:00:00Z</time></trkpt>
<trkpt lat="37.802547000" lon="-121.934510000"><ele>172.6</ele><time>2026-07-27T00:00:00Z</time></trkpt>
<trkpt lat="37.802630000" lon="-121.934470000"><ele>172.5</ele><time>2026-07-27T00:00:00Z</time></trkpt>
<trkpt lat="37.802708000" lon="-121.934440000"><ele>172.5</ele><time>2026-07-27T00:00:00Z</time></trkpt>
<trkpt lat="37.802790000" lon="-121.934395000"><ele>172.5</ele><time>2026-07-27T00:00:00Z</time></trkpt>
<trkpt lat="37.802870000" lon="-121.934330000"><ele>172.5</ele><time>2026-07-27T00:00:00Z</time></trkpt>
<trkpt lat="37.802948000" lon="-121.934296000"><ele>172.5</ele><time>2026-07-27T00:00:00Z</time></trkpt>
<trkpt lat="37.803036000" lon="-121.934260000"><ele>172.5</ele><time>2026-07-27T00:00:00Z</time></trkpt>
<trkpt lat="37.803127000" lon="-121.934220000"><ele>172.6</ele><time>2026-07-27T00:00:00Z</time></trkpt>
<trkpt lat="37.803207000" lon="-121.934200000"><ele>172.8</ele><time>2026-07-27T00:00:00Z</time></trkpt>
<trkpt lat="37.803290000" lon="-121.934150000"><ele>173.1</ele><time>2026-07-27T00:00:00Z</time></trkpt>
<trkpt lat="37.803375000" lon="-121.934120000"><ele>173.4</ele><time>2026-07-27T00:00:00Z</time></trkpt>
<trkpt lat="37.803450000" lon="-121.934074000"><ele>173.7</ele><time>2026-07-27T00:00:00Z</time></trkpt>
<trkpt lat="37.803530000" lon="-121.934020000"><ele>174.1</ele><time>2026-07-27T00:00:00Z</time></trkpt>
<trkpt lat="37.803610000" lon="-121.933990000"><ele>174.5</ele><time>2026-07-27T00:00:00Z</time></trkpt>
<trkpt lat="37.803684000" lon="-121.933945000"><ele>174.7</ele><time>2026-07-27T00:00:00Z</time></trkpt>
<trkpt lat="37.803660000" lon="-121.933846000"><ele>175.1</ele><time>2026-07-27T00:00:00Z</time></trkpt>
<trkpt lat="37.803616000" lon="-121.933754000"><ele>175.5</ele><time>2026-07-27T00:00:00Z</time></trkpt>
<trkpt lat="37.803574000" lon="-121.933655000"><ele>175.7</ele><time>2026-07-27T00:00:00Z</time></trkpt>
<trkpt lat="37.803493000" lon="-121.933620000"><ele>175.9</ele><time>2026-07-27T00:00:00Z</time></trkpt>
<trkpt lat="37.803474000" lon="-121.933510000"><ele>176.0</ele><time>2026-07-27T00:00:00Z</time></trkpt>
<trkpt lat="37.803467000" lon="-121.933395000"><ele>176.0</ele><time>2026-07-27T00:00:00Z</time></trkpt>
<trkpt lat="37.803460000" lon="-121.933280000"><ele>176.0</ele><time>2026-07-27T00:00:00Z</time></trkpt>
<trkpt lat="37.803455000" lon="-121.933170000"><ele>175.9</ele><time>2026-07-27T00:00:00Z</time></trkpt>
<trkpt lat="37.803370000" lon="-121.933110000"><ele>175.8</ele><time>2026-07-27T00:00:00Z</time></trkpt>
<trkpt lat="37.803290000" lon="-121.933174000"><ele>175.6</ele><time>2026-07-27T00:00:00Z</time></trkpt>
<trkpt lat="37.803220000" lon="-121.933230000"><ele>175.5</ele><time>2026-07-27T00:00:00Z</time></trkpt>
<trkpt lat="37.803135000" lon="-121.933260000"><ele>175.2</ele><time>2026-07-27T00:00:00Z</time></trkpt>
<trkpt lat="37.803055000" lon="-121.933300000"><ele>175.0</ele><time>2026-07-27T00:00:00Z</time></trkpt>
<trkpt lat="37.802963000" lon="-121.933334000"><ele>174.8</ele><time>2026-07-27T00:00:00Z</time></trkpt>
<trkpt lat="37.802876000" lon="-121.933365000"><ele>174.7</ele><time>2026-07-27T00:00:00Z</time></trkpt>
<trkpt lat="37.802790000" lon="-121.933390000"><ele>174.7</ele><time>2026-07-27T00:00:00Z</time></trkpt>
<trkpt lat="37.802700000" lon="-121.933420000"><ele>174.6</ele><time>2026-07-27T00:00:00Z</time></trkpt>
<trkpt lat="37.802616000" lon="-121.933450000"><ele>174.5</ele><time>2026-07-27T00:00:00Z</time></trkpt>
<trkpt lat="37.802525000" lon="-121.933490000"><ele>174.5</ele><time>2026-07-27T00:00:00Z</time></trkpt>
<trkpt lat="37.802444000" lon="-121.933525000"><ele>174.4</ele><time>2026-07-27T00:00:00Z</time></trkpt>
<trkpt lat="37.802357000" lon="-121.933556000"><ele>174.4</ele><time>2026-07-27T00:00:00Z</time></trkpt>
<trkpt lat="37.802273000" lon="-121.933590000"><ele>174.4</ele><time>2026-07-27T00:00:00Z</time></trkpt>
<trkpt lat="37.802190000" lon="-121.933624000"><ele>174.4</ele><time>2026-07-27T00:00:00Z</time></trkpt>
<trkpt lat="37.802105000" lon="-121.933655000"><ele>174.3</ele><time>2026-07-27T00:00:00Z</time></trkpt>
<trkpt lat="37.802020000" lon="-121.933716000"><ele>174.2</ele><time>2026-07-27T00:00:00Z</time></trkpt>
<trkpt lat="37.801933000" lon="-121.933760000"><ele>174.1</ele><time>2026-07-27T00:00:00Z</time></trkpt>
<trkpt lat="37.801857000" lon="-121.933800000"><ele>174.0</ele><time>2026-07-27T00:00:00Z</time></trkpt>
<trkpt lat="37.801903000" lon="-121.933710000"><ele>174.1</ele><time>2026-07-27T00:00:00Z</time></trkpt>
<trkpt lat="37.801990000" lon="-121.933660000"><ele>174.2</ele><time>2026-07-27T00:00:00Z</time></trkpt>
<trkpt lat="37.802060000" lon="-121.933610000"><ele>174.3</ele><time>2026-07-27T00:00:00Z</time></trkpt>
<trkpt lat="37.802140000" lon="-121.933580000"><ele>174.4</ele><time>2026-07-27T00:00:00Z</time></trkpt>
<trkpt lat="37.802227000" lon="-121.933550000"><ele>174.4</ele><time>2026-07-27T00:00:00Z</time></trkpt>
<trkpt lat="37.802307000" lon="-121.933510000"><ele>174.4</ele><time>2026-07-27T00:00:00Z</time></trkpt>
<trkpt lat="37.802383000" lon="-121.933464000"><ele>174.5</ele><time>2026-07-27T00:00:00Z</time></trkpt>
<trkpt lat="37.802470000" lon="-121.933426000"><ele>174.5</ele><time>2026-07-27T00:00:00Z</time></trkpt>
<trkpt lat="37.802550000" lon="-121.933395000"><ele>174.6</ele><time>2026-07-27T00:00:00Z</time></trkpt>
<trkpt lat="37.802640000" lon="-121.933350000"><ele>174.7</ele><time>2026-07-27T00:00:00Z</time></trkpt>
<trkpt lat="37.802692000" lon="-121.933266000"><ele>174.8</ele><time>2026-07-27T00:00:00Z</time></trkpt>
<trkpt lat="37.802640000" lon="-121.933180000"><ele>174.8</ele><time>2026-07-27T00:00:00Z</time></trkpt>
<trkpt lat="37.802635000" lon="-121.933075000"><ele>174.8</ele><time>2026-07-27T00:00:00Z</time></trkpt>
<trkpt lat="37.802612000" lon="-121.932970000"><ele>174.8</ele><time>2026-07-27T00:00:00Z</time></trkpt>
<trkpt lat="37.802563000" lon="-121.932880000"><ele>174.8</ele><time>2026-07-27T00:00:00Z</time></trkpt>
<trkpt lat="37.802475000" lon="-121.932900000"><ele>174.8</ele><time>2026-07-27T00:00:00Z</time></trkpt>
<trkpt lat="37.802387000" lon="-121.932910000"><ele>174.8</ele><time>2026-07-27T00:00:00Z</time></trkpt>
<trkpt lat="37.802300000" lon="-121.932945000"><ele>174.7</ele><time>2026-07-27T00:00:00Z</time></trkpt>
<trkpt lat="37.802220000" lon="-121.932980000"><ele>174.6</ele><time>2026-07-27T00:00:00Z</time></trkpt>
<trkpt lat="37.802130000" lon="-121.933010000"><ele>174.5</ele><time>2026-07-27T00:00:00Z</time></trkpt>
<trkpt lat="37.802044000" lon="-121.933030000"><ele>174.5</ele><time>2026-07-27T00:00:00Z</time></trkpt>
<trkpt lat="37.801968000" lon="-121.933070000"><ele>174.4</ele><time>2026-07-27T00:00:00Z</time></trkpt>
<trkpt lat="37.801888000" lon="-121.933120000"><ele>174.3</ele><time>2026-07-27T00:00:00Z</time></trkpt>
<trkpt lat="37.801810000" lon="-121.933160000"><ele>174.2</ele><time>2026-07-27T00:00:00Z</time></trkpt>
<trkpt lat="37.801723000" lon="-121.933180000"><ele>174.1</ele><time>2026-07-27T00:00:00Z</time></trkpt>
<trkpt lat="37.801643000" lon="-121.933220000"><ele>174.0</ele><time>2026-07-27T00:00:00Z</time></trkpt>
<trkpt lat="37.801560000" lon="-121.933260000"><ele>174.0</ele><time>2026-07-27T00:00:00Z</time></trkpt>
<trkpt lat="37.801476000" lon="-121.933310000"><ele>174.0</ele><time>2026-07-27T00:00:00Z</time></trkpt>
<trkpt lat="37.801426000" lon="-121.933395000"><ele>174.0</ele><time>2026-07-27T00:00:00Z</time></trkpt>
<trkpt lat="37.801514000" lon="-121.933380000"><ele>174.0</ele><time>2026-07-27T00:00:00Z</time></trkpt>
<trkpt lat="37.801586000" lon="-121.933330000"><ele>174.0</ele><time>2026-07-27T00:00:00Z</time></trkpt>
<trkpt lat="37.801650000" lon="-121.933260000"><ele>174.0</ele><time>2026-07-27T00:00:00Z</time></trkpt>
<trkpt lat="37.801730000" lon="-121.933200000"><ele>174.0</ele><time>2026-07-27T00:00:00Z</time></trkpt>
<trkpt lat="37.801810000" lon="-121.933150000"><ele>174.1</ele><time>2026-07-27T00:00:00Z</time></trkpt>
<trkpt lat="37.801884000" lon="-121.933090000"><ele>174.2</ele><time>2026-07-27T00:00:00Z</time></trkpt>
<trkpt lat="37.801968000" lon="-121.933060000"><ele>174.3</ele><time>2026-07-27T00:00:00Z</time></trkpt>
<trkpt lat="37.802040000" lon="-121.932990000"><ele>174.4</ele><time>2026-07-27T00:00:00Z</time></trkpt>
<trkpt lat="37.802124000" lon="-121.932980000"><ele>174.5</ele><time>2026-07-27T00:00:00Z</time></trkpt>
<trkpt lat="37.802200000" lon="-121.932950000"><ele>174.5</ele><time>2026-07-27T00:00:00Z</time></trkpt>
<trkpt lat="37.802280000" lon="-121.932920000"><ele>174.6</ele><time>2026-07-27T00:00:00Z</time></trkpt>
<trkpt lat="37.802357000" lon="-121.932884000"><ele>174.7</ele><time>2026-07-27T00:00:00Z</time></trkpt>
<trkpt lat="37.802440000" lon="-121.932860000"><ele>174.8</ele><time>2026-07-27T00:00:00Z</time></trkpt>
<trkpt lat="37.802530000" lon="-121.932880000"><ele>174.8</ele><time>2026-07-27T00:00:00Z</time></trkpt>
<trkpt lat="37.802616000" lon="-121.932900000"><ele>174.8</ele><time>2026-07-27T00:00:00Z</time></trkpt>
<trkpt lat="37.802660000" lon="-121.932990000"><ele>174.7</ele><time>2026-07-27T00:00:00Z</time></trkpt>
<trkpt lat="37.802680000" lon="-121.933100000"><ele>174.6</ele><time>2026-07-27T00:00:00Z</time></trkpt>
<trkpt lat="37.802677000" lon="-121.933210000"><ele>174.5</ele><time>2026-07-27T00:00:00Z</time></trkpt>
<trkpt lat="37.802690000" lon="-121.933310000"><ele>174.5</ele><time>2026-07-27T00:00:00Z</time></trkpt>
<trkpt lat="37.802715000" lon="-121.933430000"><ele>174.4</ele><time>2026-07-27T00:00:00Z</time></trkpt>
<trkpt lat="37.802734000" lon="-121.933540000"><ele>174.2</ele><time>2026-07-27T00:00:00Z</time></trkpt>
<trkpt lat="37.802765000" lon="-121.933650000"><ele>174.0</ele><time>2026-07-27T00:00:00Z</time></trkpt>
<trkpt lat="37.802770000" lon="-121.933754000"><ele>173.8</ele><time>2026-07-27T00:00:00Z</time></trkpt>
<trkpt lat="37.802795000" lon="-121.933850000"><ele>173.5</ele><time>2026-07-27T00:00:00Z</time></trkpt>
<trkpt lat="37.802810000" lon="-121.933950000"><ele>173.4</ele><time>2026-07-27T00:00:00Z</time></trkpt>
<trkpt lat="37.802814000" lon="-121.934060000"><ele>173.2</ele><time>2026-07-27T00:00:00Z</time></trkpt>
<trkpt lat="37.802780000" lon="-121.934160000"><ele>173.0</ele><time>2026-07-27T00:00:00Z</time></trkpt>
<trkpt lat="37.802837000" lon="-121.934250000"><ele>172.8</ele><time>2026-07-27T00:00:00Z</time></trkpt>
<trkpt lat="37.802890000" lon="-121.934330000"><ele>172.6</ele><time>2026-07-27T00:00:00Z</time></trkpt>
<trkpt lat="37.802937000" lon="-121.934425000"><ele>172.5</ele><time>2026-07-27T00:00:00Z</time></trkpt>
<trkpt lat="37.802986000" lon="-121.934520000"><ele>172.3</ele><time>2026-07-27T00:00:00Z</time></trkpt>
<trkpt lat="37.803010000" lon="-121.934616000"><ele>172.2</ele><time>2026-07-27T00:00:00Z</time></trkpt>
<trkpt lat="37.803040000" lon="-121.934720000"><ele>172.1</ele><time>2026-07-27T00:00:00Z</time></trkpt>
<trkpt lat="37.803078000" lon="-121.934830000"><ele>172.0</ele><time>2026-07-27T00:00:00Z</time></trkpt>
<trkpt lat="37.803116000" lon="-121.934930000"><ele>172.0</ele><time>2026-07-27T00:00:00Z</time></trkpt>
<trkpt lat="37.803160000" lon="-121.935036000"><ele>172.0</ele><time>2026-07-27T00:00:00Z</time></trkpt>
<trkpt lat="37.803207000" lon="-121.935130000"><ele>172.1</ele><time>2026-07-27T00:00:00Z</time></trkpt>
<trkpt lat="37.803253000" lon="-121.935234000"><ele>172.2</ele><time>2026-07-27T00:00:00Z</time></trkpt>
<trkpt lat="37.803284000" lon="-121.935356000"><ele>172.3</ele><time>2026-07-27T00:00:00Z</time></trkpt>
<trkpt lat="37.803320000" lon="-121.935455000"><ele>172.4</ele><time>2026-07-27T00:00:00Z</time></trkpt>
<trkpt lat="37.803368000" lon="-121.935555000"><ele>172.4</ele><time>2026-07-27T00:00:00Z</time></trkpt>
<trkpt lat="37.803406000" lon="-121.935650000"><ele>172.4</ele><time>2026-07-27T00:00:00Z</time></trkpt>
<trkpt lat="37.803440000" lon="-121.935750000"><ele>172.5</ele><time>2026-07-27T00:00:00Z</time></trkpt>
<trkpt lat="37.803467000" lon="-121.935860000"><ele>172.5</ele><time>2026-07-27T00:00:00Z</time></trkpt>
<trkpt lat="37.803510000" lon="-121.935950000"><ele>172.7</ele><time>2026-07-27T00:00:00Z</time></trkpt>
<trkpt lat="37.803555000" lon="-121.936050000"><ele>172.9</ele><time>2026-07-27T00:00:00Z</time></trkpt>
<trkpt lat="37.803596000" lon="-121.936140000"><ele>173.1</ele><time>2026-07-27T00:00:00Z</time></trkpt>
<trkpt lat="37.803650000" lon="-121.936240000"><ele>173.2</ele><time>2026-07-27T00:00:00Z</time></trkpt>
<trkpt lat="37.803700000" lon="-121.936325000"><ele>173.4</ele><time>2026-07-27T00:00:00Z</time></trkpt>
<trkpt lat="37.803738000" lon="-121.936430000"><ele>173.5</ele><time>2026-07-27T00:00:00Z</time></trkpt>
<trkpt lat="37.803770000" lon="-121.936530000"><ele>173.7</ele><time>2026-07-27T00:00:00Z</time></trkpt>
<trkpt lat="37.803818000" lon="-121.936615000"><ele>174.0</ele><time>2026-07-27T00:00:00Z</time></trkpt>
<trkpt lat="37.803864000" lon="-121.936714000"><ele>174.3</ele><time>2026-07-27T00:00:00Z</time></trkpt>
<trkpt lat="37.803898000" lon="-121.936806000"><ele>174.5</ele><time>2026-07-27T00:00:00Z</time></trkpt>
<trkpt lat="37.803925000" lon="-121.936905000"><ele>174.5</ele><time>2026-07-27T00:00:00Z</time></trkpt>
<trkpt lat="37.803947000" lon="-121.937004000"><ele>174.5</ele><time>2026-07-27T00:00:00Z</time></trkpt>
<trkpt lat="37.803960000" lon="-121.937120000"><ele>174.5</ele><time>2026-07-27T00:00:00Z</time></trkpt>
<trkpt lat="37.803970000" lon="-121.937220000"><ele>174.5</ele><time>2026-07-27T00:00:00Z</time></trkpt>
<trkpt lat="37.803978000" lon="-121.937340000"><ele>174.5</ele><time>2026-07-27T00:00:00Z</time></trkpt>
<trkpt lat="37.803980000" lon="-121.937460000"><ele>174.4</ele><time>2026-07-27T00:00:00Z</time></trkpt>
<trkpt lat="37.803978000" lon="-121.937570000"><ele>174.2</ele><time>2026-07-27T00:00:00Z</time></trkpt>
<trkpt lat="37.803980000" lon="-121.937680000"><ele>174.0</ele><time>2026-07-27T00:00:00Z</time></trkpt>
<trkpt lat="37.803974000" lon="-121.937800000"><ele>173.8</ele><time>2026-07-27T00:00:00Z</time></trkpt>
<trkpt lat="37.803963000" lon="-121.937904000"><ele>173.6</ele><time>2026-07-27T00:00:00Z</time></trkpt>
<trkpt lat="37.803963000" lon="-121.938020000"><ele>173.5</ele><time>2026-07-27T00:00:00Z</time></trkpt>
<trkpt lat="37.803990000" lon="-121.938126000"><ele>173.4</ele><time>2026-07-27T00:00:00Z</time></trkpt>
<trkpt lat="37.804020000" lon="-121.938230000"><ele>173.3</ele><time>2026-07-27T00:00:00Z</time></trkpt>
<trkpt lat="37.804020000" lon="-121.938340000"><ele>173.2</ele><time>2026-07-27T00:00:00Z</time></trkpt>
<trkpt lat="37.804010000" lon="-121.938446000"><ele>173.1</ele><time>2026-07-27T00:00:00Z</time></trkpt>
<trkpt lat="37.804005000" lon="-121.938560000"><ele>173.0</ele><time>2026-07-27T00:00:00Z</time></trkpt>
<trkpt lat="37.804047000" lon="-121.938675000"><ele>173.0</ele><time>2026-07-27T00:00:00Z</time></trkpt>
<trkpt lat="37.804090000" lon="-121.938774000"><ele>173.0</ele><time>2026-07-27T00:00:00Z</time></trkpt>
<trkpt lat="37.804170000" lon="-121.938805000"><ele>173.0</ele><time>2026-07-27T00:00:00Z</time></trkpt>
<trkpt lat="37.804130000" lon="-121.938840000"><ele>173.0</ele><time>2026-07-27T00:00:00Z</time></trkpt>
</trkseg>
</trk>
</gpx>
