<?xml version="1.0" encoding="UTF-8"?>
<gpx
  version="1.1"
  creator="Runkeeper - http://www.runkeeper.com"
  xmlns:xsi="http://www.w3.org/2001/XMLSchema-instance"
  xmlns="http://www.topografix.com/GPX/1/1"
  xsi:schemaLocation="http://www.topografix.com/GPX/1/1 http://www.topografix.com/GPX/1/1/gpx.xsd"
  xmlns:gpxtpx="http://www.garmin.com/xmlschemas/TrackPointExtension/v1">
<trk>
  <name><![CDATA[Walking 8/6/26]]></name>
  <time>2026-08-06T00:00:00Z</time>
<trkseg>
<trkpt lat="37.815773000" lon="-121.968630000"><ele>130.2</ele><time>2026-08-06T00:00:00Z</time></trkpt>
<trkpt lat="37.815710000" lon="-121.968704000"><ele>130.1</ele><time>2026-08-06T00:00:00Z</time></trkpt>
<trkpt lat="37.815640000" lon="-121.968760000"><ele>130.2</ele><time>2026-08-06T00:00:00Z</time></trkpt>
<trkpt lat="37.815575000" lon="-121.968670000"><ele>130.3</ele><time>2026-08-06T00:00:00Z</time></trkpt>
<trkpt lat="37.815495000" lon="-121.968660000"><ele>130.4</ele><time>2026-08-06T00:00:00Z</time></trkpt>
<trkpt lat="37.815414000" lon="-121.968620000"><ele>130.5</ele><time>2026-08-06T00:00:00Z</time></trkpt>
<trkpt lat="37.815334000" lon="-121.968610000"><ele>130.5</ele><time>2026-08-06T00:00:00Z</time></trkpt>
<trkpt lat="37.815370000" lon="-121.968475000"><ele>130.6</ele><time>2026-08-06T00:00:00Z</time></trkpt>
<trkpt lat="37.815357000" lon="-121.968350000"><ele>130.7</ele><time>2026-08-06T00:00:00Z</time></trkpt>
<trkpt lat="37.815334000" lon="-121.968250000"><ele>130.7</ele><time>2026-08-06T00:00:00Z</time></trkpt>
<trkpt lat="37.815308000" lon="-121.968130000"><ele>130.8</ele><time>2026-08-06T00:00:00Z</time></trkpt>
<trkpt lat="37.815327000" lon="-121.968020000"><ele>130.9</ele><time>2026-08-06T00:00:00Z</time></trkpt>
<trkpt lat="37.815372000" lon="-121.967926000"><ele>131.0</ele><time>2026-08-06T00:00:00Z</time></trkpt>
<trkpt lat="37.815414000" lon="-121.967830000"><ele>131.0</ele><time>2026-08-06T00:00:00Z</time></trkpt>
<trkpt lat="37.815422000" lon="-121.967705000"><ele>131.0</ele><time>2026-08-06T00:00:00Z</time></trkpt>
<trkpt lat="37.815414000" lon="-121.967580000"><ele>131.0</ele><time>2026-08-06T00:00:00Z</time></trkpt>
<trkpt lat="37.815414000" lon="-121.967476000"><ele>131.1</ele><time>2026-08-06T00:00:00Z</time></trkpt>
<trkpt lat="37.815422000" lon="-121.967380000"><ele>131.2</ele><time>2026-08-06T00:00:00Z</time></trkpt>
<trkpt lat="37.815407000" lon="-121.967270000"><ele>131.3</ele><time>2026-08-06T00:00:00Z</time></trkpt>
<trkpt lat="37.815360000" lon="-121.967160000"><ele>131.3</ele><time>2026-08-06T00:00:00Z</time></trkpt>
<trkpt lat="37.815320000" lon="-121.967064000"><ele>131.4</ele><time>2026-08-06T00:00:00Z</time></trkpt>
<trkpt lat="37.815277000" lon="-121.966965000"><ele>131.5</ele><time>2026-08-06T00:00:00Z</time></trkpt>
<trkpt lat="37.815243000" lon="-121.966870000"><ele>131.5</ele><time>2026-08-06T00:00:00Z</time></trkpt>
<trkpt lat="37.815212000" lon="-121.966774000"><ele>131.6</ele><time>2026-08-06T00:00:00Z</time></trkpt>
<trkpt lat="37.815190000" lon="-121.966670000"><ele>131.7</ele><time>2026-08-06T00:00:00Z</time></trkpt>
<trkpt lat="37.815178000" lon="-121.966545000"><ele>131.8</ele><time>2026-08-06T00:00:00Z</time></trkpt>
<trkpt lat="37.815174000" lon="-121.966440000"><ele>131.9</ele><time>2026-08-06T00:00:00Z</time></trkpt>
<trkpt lat="37.815144000" lon="-121.966330000"><ele>132.0</ele><time>2026-08-06T00:00:00Z</time></trkpt>
<trkpt lat="37.815086000" lon="-121.966255000"><ele>132.1</ele><time>2026-08-06T00:00:00Z</time></trkpt>
<trkpt lat="37.815010000" lon="-121.966200000"><ele>132.2</ele><time>2026-08-06T00:00:00Z</time></trkpt>
<trkpt lat="37.814926000" lon="-121.966200000"><ele>132.4</ele><time>2026-08-06T00:00:00Z</time></trkpt>
<trkpt lat="37.814842000" lon="-121.966200000"><ele>132.5</ele><time>2026-08-06T00:00:00Z</time></trkpt>
<trkpt lat="37.814760000" lon="-121.966150000"><ele>132.5</ele><time>2026-08-06T00:00:00Z</time></trkpt>
<trkpt lat="37.814700000" lon="-121.966080000"><ele>132.6</ele><time>2026-08-06T00:00:00Z</time></trkpt>
<trkpt lat="37.814648000" lon="-121.965980000"><ele>132.7</ele><time>2026-08-06T00:00:00Z</time></trkpt>
<trkpt lat="37.814620000" lon="-121.965866000"><ele>132.9</ele><time>2026-08-06T00:00:00Z</time></trkpt>
<trkpt lat="37.814600000" lon="-121.965760000"><ele>133.1</ele><time>2026-08-06T00:00:00Z</time></trkpt>
<trkpt lat="37.814583000" lon="-121.965650000"><ele>133.3</ele><time>2026-08-06T00:00:00Z</time></trkpt>
<trkpt lat="37.814540000" lon="-121.965550000"><ele>133.4</ele><time>2026-08-06T00:00:00Z</time></trkpt>
<trkpt lat="37.814510000" lon="-121.965450000"><ele>133.5</ele><time>2026-08-06T00:00:00Z</time></trkpt>
<trkpt lat="37.814490000" lon="-121.965330000"><ele>133.6</ele><time>2026-08-06T00:00:00Z</time></trkpt>
<trkpt lat="37.814476000" lon="-121.965225000"><ele>133.8</ele><time>2026-08-06T00:00:00Z</time></trkpt>
<trkpt lat="37.814465000" lon="-121.965120000"><ele>134.0</ele><time>2026-08-06T00:00:00Z</time></trkpt>
<trkpt lat="37.814457000" lon="-121.965004000"><ele>134.2</ele><time>2026-08-06T00:00:00Z</time></trkpt>
<trkpt lat="37.814470000" lon="-121.964900000"><ele>134.4</ele><time>2026-08-06T00:00:00Z</time></trkpt>
<trkpt lat="37.814487000" lon="-121.964780000"><ele>134.5</ele><time>2026-08-06T00:00:00Z</time></trkpt>
<trkpt lat="37.814472000" lon="-121.964676000"><ele>134.6</ele><time>2026-08-06T00:00:00Z</time></trkpt>
<trkpt lat="37.814450000" lon="-121.964560000"><ele>134.7</ele><time>2026-08-06T00:00:00Z</time></trkpt>
<trkpt lat="37.814415000" lon="-121.964460000"><ele>134.8</ele><time>2026-08-06T00:00:00Z</time></trkpt>
<trkpt lat="37.814392000" lon="-121.964355000"><ele>134.9</ele><time>2026-08-06T00:00:00Z</time></trkpt>
<trkpt lat="37.814410000" lon="-121.964240000"><ele>135.0</ele><time>2026-08-06T00:00:00Z</time></trkpt>
<trkpt lat="37.814490000" lon="-121.964200000"><ele>135.0</ele><time>2026-08-06T00:00:00Z</time></trkpt>
<trkpt lat="37.814575000" lon="-121.964170000"><ele>135.0</ele><time>2026-08-06T00:00:00Z</time></trkpt>
<trkpt lat="37.814650000" lon="-121.964110000"><ele>135.0</ele><time>2026-08-06T00:00:00Z</time></trkpt>
<trkpt lat="37.814697000" lon="-121.964005000"><ele>135.0</ele><time>2026-08-06T00:00:00Z</time></trkpt>
<trkpt lat="37.814705000" lon="-121.963900000"><ele>135.0</ele><time>2026-08-06T00:00:00Z</time></trkpt>
<trkpt lat="37.814680000" lon="-121.963780000"><ele>134.9</ele><time>2026-08-06T00:00:00Z</time></trkpt>
<trkpt lat="37.814640000" lon="-121.963680000"><ele>134.9</ele><time>2026-08-06T00:00:00Z</time></trkpt>
<trkpt lat="37.814620000" lon="-121.963580000"><ele>134.9</ele><time>2026-08-06T00:00:00Z</time></trkpt>
<trkpt lat="37.814620000" lon="-121.963460000"><ele>134.9</ele><time>2026-08-06T00:00:00Z</time></trkpt>
<trkpt lat="37.814610000" lon="-121.963356000"><ele>134.9</ele><time>2026-08-06T00:00:00Z</time></trkpt>
<trkpt lat="37.814533000" lon="-121.963310000"><ele>134.9</ele><time>2026-08-06T00:00:00Z</time></trkpt>
<trkpt lat="37.814460000" lon="-121.963250000"><ele>134.9</ele><time>2026-08-06T00:00:00Z</time></trkpt>
<trkpt lat="37.814396000" lon="-121.963165000"><ele>134.9</ele><time>2026-08-06T00:00:00Z</time></trkpt>
<trkpt lat="37.814360000" lon="-121.963066000"><ele>135.0</ele><time>2026-08-06T00:00:00Z</time></trkpt>
<trkpt lat="37.814350000" lon="-121.962960000"><ele>135.1</ele><time>2026-08-06T00:00:00Z</time></trkpt>
<trkpt lat="37.814340000" lon="-121.962845000"><ele>135.2</ele><time>2026-08-06T00:00:00Z</time></trkpt>
<trkpt lat="37.814304000" lon="-121.962746000"><ele>135.5</ele><time>2026-08-06T00:00:00Z</time></trkpt>
<trkpt lat="37.814255000" lon="-121.962660000"><ele>135.6</ele><time>2026-08-06T00:00:00Z</time></trkpt>
<trkpt lat="37.814200000" lon="-121.962555000"><ele>135.8</ele><time>2026-08-06T00:00:00Z</time></trkpt>
<trkpt lat="37.814148000" lon="-121.962470000"><ele>136.0</ele><time>2026-08-06T00:00:00Z</time></trkpt>
<trkpt lat="37.814102000" lon="-121.962370000"><ele>136.2</ele><time>2026-08-06T00:00:00Z</time></trkpt>
<trkpt lat="37.814144000" lon="-121.962265000"><ele>136.4</ele><time>2026-08-06T00:00:00Z</time></trkpt>
<trkpt lat="37.814180000" lon="-121.962166000"><ele>136.5</ele><time>2026-08-06T00:00:00Z</time></trkpt>
<trkpt lat="37.814114000" lon="-121.962090000"><ele>136.7</ele><time>2026-08-06T00:00:00Z</time></trkpt>
<trkpt lat="37.814056000" lon="-121.961990000"><ele>136.8</ele><time>2026-08-06T00:00:00Z</time></trkpt>
<trkpt lat="37.814007000" lon="-121.961900000"><ele>136.9</ele><time>2026-08-06T00:00:00Z</time></trkpt>
<trkpt lat="37.813957000" lon="-121.961810000"><ele>137.0</ele><time>2026-08-06T00:00:00Z</time></trkpt>
<trkpt lat="37.813900000" lon="-121.961716000"><ele>137.0</ele><time>2026-08-06T00:00:00Z</time></trkpt>
<trkpt lat="37.813843000" lon="-121.961630000"><ele>137.0</ele><time>2026-08-06T00:00:00Z</time></trkpt>
<trkpt lat="37.813797000" lon="-121.961540000"><ele>137.0</ele><time>2026-08-06T00:00:00Z</time></trkpt>
<trkpt lat="37.813747000" lon="-121.961450000"><ele>137.0</ele><time>2026-08-06T00:00:00Z</time></trkpt>
<trkpt lat="37.813690000" lon="-121.961360000"><ele>137.0</ele><time>2026-08-06T00:00:00Z</time></trkpt>
<trkpt lat="37.813625000" lon="-121.961270000"><ele>137.0</ele><time>2026-08-06T00:00:00Z</time></trkpt>
<trkpt lat="37.813570000" lon="-121.961190000"><ele>137.0</ele><time>2026-08-06T00:00:00Z</time></trkpt>
<trkpt lat="37.813522000" lon="-121.961100000"><ele>137.0</ele><time>2026-08-06T00:00:00Z</time></trkpt>
<trkpt lat="37.813477000" lon="-121.960990000"><ele>137.0</ele><time>2026-08-06T00:00:00Z</time></trkpt>
<trkpt lat="37.813420000" lon="-121.960900000"><ele>137.0</ele><time>2026-08-06T00:00:00Z</time></trkpt>
<trkpt lat="37.813477000" lon="-121.960990000"><ele>137.0</ele><time>2026-08-06T00:00:00Z</time></trkpt>
<trkpt lat="37.813515000" lon="-121.961100000"><ele>137.0</ele><time>2026-08-06T00:00:00Z</time></trkpt>
<trkpt lat="37.813564000" lon="-121.961205000"><ele>137.0</ele><time>2026-08-06T00:00:00Z</time></trkpt>
<trkpt lat="37.813618000" lon="-121.961280000"><ele>137.0</ele><time>2026-08-06T00:00:00Z</time></trkpt>
<trkpt lat="37.813686000" lon="-121.961360000"><ele>137.0</ele><time>2026-08-06T00:00:00Z</time></trkpt>
<trkpt lat="37.813740000" lon="-121.961440000"><ele>137.0</ele><time>2026-08-06T00:00:00Z</time></trkpt>
<trkpt lat="37.813786000" lon="-121.961540000"><ele>136.9</ele><time>2026-08-06T00:00:00Z</time></trkpt>
<trkpt lat="37.813835000" lon="-121.961624000"><ele>136.9</ele><time>2026-08-06T00:00:00Z</time></trkpt>
<trkpt lat="37.813904000" lon="-121.961700000"><ele>136.9</ele><time>2026-08-06T00:00:00Z</time></trkpt>
<trkpt lat="37.813965000" lon="-121.961784000"><ele>136.9</ele><time>2026-08-06T00:00:00Z</time></trkpt>
<trkpt lat="37.814010000" lon="-121.961880000"><ele>136.9</ele><time>2026-08-06T00:00:00Z</time></trkpt>
<trkpt lat="37.814045000" lon="-121.961990000"><ele>136.8</ele><time>2026-08-06T00:00:00Z</time></trkpt>
<trkpt lat="37.814090000" lon="-121.962090000"><ele>136.7</ele><time>2026-08-06T00:00:00Z</time></trkpt>
<trkpt lat="37.814148000" lon="-121.962180000"><ele>136.6</ele><time>2026-08-06T00:00:00Z</time></trkpt>
<trkpt lat="37.814213000" lon="-121.962265000"><ele>136.5</ele><time>2026-08-06T00:00:00Z</time></trkpt>
<trkpt lat="37.814285000" lon="-121.962340000"><ele>136.5</ele><time>2026-08-06T00:00:00Z</time></trkpt>
<trkpt lat="37.814342000" lon="-121.962440000"><ele>136.4</ele><time>2026-08-06T00:00:00Z</time></trkpt>
<trkpt lat="37.814392000" lon="-121.962530000"><ele>136.4</ele><time>2026-08-06T00:00:00Z</time></trkpt>
<trkpt lat="37.814450000" lon="-121.962610000"><ele>136.3</ele><time>2026-08-06T00:00:00Z</time></trkpt>
<trkpt lat="37.814500000" lon="-121.962690000"><ele>136.2</ele><time>2026-08-06T00:00:00Z</time></trkpt>
<trkpt lat="37.814556000" lon="-121.962790000"><ele>136.0</ele><time>2026-08-06T00:00:00Z</time></trkpt>
<trkpt lat="37.814613000" lon="-121.962875000"><ele>135.8</ele><time>2026-08-06T00:00:00Z</time></trkpt>
<trkpt lat="37.814667000" lon="-121.962950000"><ele>135.7</ele><time>2026-08-06T00:00:00Z</time></trkpt>
<trkpt lat="37.814728000" lon="-121.963040000"><ele>135.6</ele><time>2026-08-06T00:00:00Z</time></trkpt>
<trkpt lat="37.814777000" lon="-121.963135000"><ele>135.5</ele><time>2026-08-06T00:00:00Z</time></trkpt>
<trkpt lat="37.814823000" lon="-121.963220000"><ele>135.5</ele><time>2026-08-06T00:00:00Z</time></trkpt>
<trkpt lat="37.814870000" lon="-121.963310000"><ele>135.4</ele><time>2026-08-06T00:00:00Z</time></trkpt>
<trkpt lat="37.814934000" lon="-121.963394000"><ele>135.3</ele><time>2026-08-06T00:00:00Z</time></trkpt>
<trkpt lat="37.814990000" lon="-121.963480000"><ele>135.2</ele><time>2026-08-06T00:00:00Z</time></trkpt>
<trkpt lat="37.815044000" lon="-121.963560000"><ele>135.1</ele><time>2026-08-06T00:00:00Z</time></trkpt>
<trkpt lat="37.815033000" lon="-121.963670000"><ele>135.0</ele><time>2026-08-06T00:00:00Z</time></trkpt>
<trkpt lat="37.814957000" lon="-121.963720000"><ele>135.0</ele><time>2026-08-06T00:00:00Z</time></trkpt>
<trkpt lat="37.814877000" lon="-121.963770000"><ele>135.0</ele><time>2026-08-06T00:00:00Z</time></trkpt>
<trkpt lat="37.814796000" lon="-121.963820000"><ele>135.0</ele><time>2026-08-06T00:00:00Z</time></trkpt>
<trkpt lat="37.814747000" lon="-121.963730000"><ele>135.0</ele><time>2026-08-06T00:00:00Z</time></trkpt>
<trkpt lat="37.814716000" lon="-121.963615000"><ele>135.0</ele><time>2026-08-06T00:00:00Z</time></trkpt>
<trkpt lat="37.814760000" lon="-121.963720000"><ele>135.0</ele><time>2026-08-06T00:00:00Z</time></trkpt>
<trkpt lat="37.814766000" lon="-121.963830000"><ele>135.0</ele><time>2026-08-06T00:00:00Z</time></trkpt>
<trkpt lat="37.814747000" lon="-121.963940000"><ele>135.0</ele><time>2026-08-06T00:00:00Z</time></trkpt>
<trkpt lat="37.814762000" lon="-121.964060000"><ele>135.0</ele><time>2026-08-06T00:00:00Z</time></trkpt>
<trkpt lat="37.814785000" lon="-121.964160000"><ele>135.0</ele><time>2026-08-06T00:00:00Z</time></trkpt>
<trkpt lat="37.814827000" lon="-121.964260000"><ele>135.0</ele><time>2026-08-06T00:00:00Z</time></trkpt>
<trkpt lat="37.814857000" lon="-121.964355000"><ele>135.0</ele><time>2026-08-06T00:00:00Z</time></trkpt>
<trkpt lat="37.814890000" lon="-121.964455000"><ele>135.0</ele><time>2026-08-06T00:00:00Z</time></trkpt>
<trkpt lat="37.814940000" lon="-121.964554000"><ele>135.0</ele><time>2026-08-06T00:00:00Z</time></trkpt>
<trkpt lat="37.814940000" lon="-121.964670000"><ele>134.9</ele><time>2026-08-06T00:00:00Z</time></trkpt>
<trkpt lat="37.814950000" lon="-121.964780000"><ele>134.8</ele><time>2026-08-06T00:00:00Z</time></trkpt>
<trkpt lat="37.814953000" lon="-121.964890000"><ele>134.7</ele><time>2026-08-06T00:00:00Z</time></trkpt>
<trkpt lat="37.814964000" lon="-121.965000000"><ele>134.7</ele><time>2026-08-06T00:00:00Z</time></trkpt>
<trkpt lat="37.815000000" lon="-121.965100000"><ele>134.6</ele><time>2026-08-06T00:00:00Z</time></trkpt>
<trkpt lat="37.815020000" lon="-121.965220000"><ele>134.5</ele><time>2026-08-06T00:00:00Z</time></trkpt>
<trkpt lat="37.815052000" lon="-121.965320000"><ele>134.4</ele><time>2026-08-06T00:00:00Z</time></trkpt>
<trkpt lat="37.815086000" lon="-121.965416000"><ele>134.2</ele><time>2026-08-06T00:00:00Z</time></trkpt>
<trkpt lat="37.815113000" lon="-121.965520000"><ele>134.0</ele><time>2026-08-06T00:00:00Z</time></trkpt>
<trkpt lat="37.815147000" lon="-121.965640000"><ele>133.8</ele><time>2026-08-06T00:00:00Z</time></trkpt>
<trkpt lat="37.815190000" lon="-121.965730000"><ele>133.6</ele><time>2026-08-06T00:00:00Z</time></trkpt>
<trkpt lat="37.815240000" lon="-121.965805000"><ele>133.5</ele><time>2026-08-06T00:00:00Z</time></trkpt>
<trkpt lat="37.815315000" lon="-121.965870000"><ele>133.5</ele><time>2026-08-06T00:00:00Z</time></trkpt>
<trkpt lat="37.815388000" lon="-121.965940000"><ele>133.4</ele><time>2026-08-06T00:00:00Z</time></trkpt>
<trkpt lat="37.815468000" lon="-121.966020000"><ele>133.2</ele><time>2026-08-06T00:00:00Z</time></trkpt>
<trkpt lat="37.815544000" lon="-121.966080000"><ele>133.0</ele><time>2026-08-06T00:00:00Z</time></trkpt>
<trkpt lat="37.815600000" lon="-121.966180000"><ele>132.9</ele><time>2026-08-06T00:00:00Z</time></trkpt>
<trkpt lat="37.815640000" lon="-121.966270000"><ele>132.9</ele><time>2026-08-06T00:00:00Z</time></trkpt>
<trkpt lat="37.815685000" lon="-121.966380000"><ele>132.9</ele><time>2026-08-06T00:00:00Z</time></trkpt>
<trkpt lat="37.815723000" lon="-121.966484000"><ele>132.9</ele><time>2026-08-06T00:00:00Z</time></trkpt>
<trkpt lat="37.815765000" lon="-121.966576000"><ele>132.8</ele><time>2026-08-06T00:00:00Z</time></trkpt>
<trkpt lat="37.815807000" lon="-121.966470000"><ele>132.7</ele><time>2026-08-06T00:00:00Z</time></trkpt>
<trkpt lat="37.815820000" lon="-121.966360000"><ele>132.6</ele><time>2026-08-06T00:00:00Z</time></trkpt>
<trkpt lat="37.815857000" lon="-121.966270000"><ele>132.5</ele><time>2026-08-06T00:00:00Z</time></trkpt>
<trkpt lat="37.815933000" lon="-121.966310000"><ele>132.5</ele><time>2026-08-06T00:00:00Z</time></trkpt>
<trkpt lat="37.815964000" lon="-121.966415000"><ele>132.4</ele><time>2026-08-06T00:00:00Z</time></trkpt>
<trkpt lat="37.815987000" lon="-121.966520000"><ele>132.4</ele><time>2026-08-06T00:00:00Z</time></trkpt>
<trkpt lat="37.815983000" lon="-121.966640000"><ele>132.3</ele><time>2026-08-06T00:00:00Z</time></trkpt>
<trkpt lat="37.815990000" lon="-121.966736000"><ele>132.2</ele><time>2026-08-06T00:00:00Z</time></trkpt>
<trkpt lat="37.816006000" lon="-121.966850000"><ele>132.1</ele><time>2026-08-06T00:00:00Z</time></trkpt>
<trkpt lat="37.816017000" lon="-121.966970000"><ele>131.9</ele><time>2026-08-06T00:00:00Z</time></trkpt>
<trkpt lat="37.816032000" lon="-121.967070000"><ele>131.8</ele><time>2026-08-06T00:00:00Z</time></trkpt>
<trkpt lat="37.816025000" lon="-121.967186000"><ele>131.7</ele><time>2026-08-06T00:00:00Z</time></trkpt>
<trkpt lat="37.816010000" lon="-121.967300000"><ele>131.6</ele><time>2026-08-06T00:00:00Z</time></trkpt>
<trkpt lat="37.815998000" lon="-121.967415000"><ele>131.5</ele><time>2026-08-06T00:00:00Z</time></trkpt>
<trkpt lat="37.815990000" lon="-121.967530000"><ele>131.5</ele><time>2026-08-06T00:00:00Z</time></trkpt>
<trkpt lat="37.815987000" lon="-121.967636000"><ele>131.4</ele><time>2026-08-06T00:00:00Z</time></trkpt>
<trkpt lat="37.815983000" lon="-121.967750000"><ele>131.3</ele><time>2026-08-06T00:00:00Z</time></trkpt>
<trkpt lat="37.815983000" lon="-121.967865000"><ele>131.2</ele><time>2026-08-06T00:00:00Z</time></trkpt>
<trkpt lat="37.815970000" lon="-121.967980000"><ele>131.0</ele><time>2026-08-06T00:00:00Z</time></trkpt>
<trkpt lat="37.815950000" lon="-121.968090000"><ele>130.8</ele><time>2026-08-06T00:00:00Z</time></trkpt>
<trkpt lat="37.815918000" lon="-121.968190000"><ele>130.7</ele><time>2026-08-06T00:00:00Z</time></trkpt>
<trkpt lat="37.815903000" lon="-121.968315000"><ele>130.7</ele><time>2026-08-06T00:00:00Z</time></trkpt>
<trkpt lat="37.815876000" lon="-121.968420000"><ele>130.7</ele><time>2026-08-06T00:00:00Z</time></trkpt>
<trkpt lat="37.815826000" lon="-121.968510000"><ele>130.6</ele><time>2026-08-06T00:00:00Z</time></trkpt>
<trkpt lat="37.815773000" lon="-121.968605000"><ele>130.6</ele><time>2026-08-06T00:00:00Z</time></trkpt>
<trkpt lat="37.815823000" lon="-121.968650000"><ele>130.5</ele><time>2026-08-06T00:00:00Z</time></trkpt>
</trkseg>
</trk>
</gpx>
