<?xml version="1.0" encoding="UTF-8"?>
<gpx
  version="1.1"
  creator="Runkeeper - http://www.runkeeper.com"
  xmlns:xsi="http://www.w3.org/2001/XMLSchema-instance"
  xmlns="http://www.topografix.com/GPX/1/1"
  xsi:schemaLocation="http://www.topografix.com/GPX/1/1 http://www.topografix.com/GPX/1/1/gpx.xsd"
  xmlns:gpxtpx="http://www.garmin.com/xmlschemas/TrackPointExtension/v1">
<trk>
  <name><![CDATA[Walking 8/10/26]]></name>
  <time>2026-08-11T00:00:00Z</time>
<trkseg>
<trkpt lat="37.810646000" lon="-121.980736000"><ele>121.0</ele><time>2026-08-11T00:00:00Z</time></trkpt>
<trkpt lat="37.810700000" lon="-121.980650000"><ele>121.0</ele><time>2026-08-11T00:00:00Z</time></trkpt>
<trkpt lat="37.810738000" lon="-121.980545000"><ele>121.0</ele><time>2026-08-11T00:00:00Z</time></trkpt>
<trkpt lat="37.810753000" lon="-121.980440000"><ele>121.0</ele><time>2026-08-11T00:00:00Z</time></trkpt>
<trkpt lat="37.810710000" lon="-121.980340000"><ele>121.0</ele><time>2026-08-11T00:00:00Z</time></trkpt>
<trkpt lat="37.810750000" lon="-121.980240000"><ele>121.0</ele><time>2026-08-11T00:00:00Z</time></trkpt>
<trkpt lat="37.810757000" lon="-121.980130000"><ele>121.0</ele><time>2026-08-11T00:00:00Z</time></trkpt>
<trkpt lat="37.810753000" lon="-121.980030000"><ele>121.0</ele><time>2026-08-11T00:00:00Z</time></trkpt>
<trkpt lat="37.810734000" lon="-121.979920000"><ele>121.0</ele><time>2026-08-11T00:00:00Z</time></trkpt>
<trkpt lat="37.810720000" lon="-121.979810000"><ele>121.0</ele><time>2026-08-11T00:00:00Z</time></trkpt>
<trkpt lat="37.810703000" lon="-121.979700000"><ele>121.0</ele><time>2026-08-11T00:00:00Z</time></trkpt>
<trkpt lat="37.810673000" lon="-121.979600000"><ele>121.1</ele><time>2026-08-11T00:00:00Z</time></trkpt>
<trkpt lat="37.810650000" lon="-121.979490000"><ele>121.2</ele><time>2026-08-11T00:00:00Z</time></trkpt>
<trkpt lat="37.810635000" lon="-121.979380000"><ele>121.3</ele><time>2026-08-11T00:00:00Z</time></trkpt>
<trkpt lat="37.810627000" lon="-121.979270000"><ele>121.4</ele><time>2026-08-11T00:00:00Z</time></trkpt>
<trkpt lat="37.810620000" lon="-121.979160000"><ele>121.4</ele><time>2026-08-11T00:00:00Z</time></trkpt>
<trkpt lat="37.810623000" lon="-121.979060000"><ele>121.4</ele><time>2026-08-11T00:00:00Z</time></trkpt>
<trkpt lat="37.810640000" lon="-121.978940000"><ele>121.4</ele><time>2026-08-11T00:00:00Z</time></trkpt>
<trkpt lat="37.810700000" lon="-121.979020000"><ele>121.4</ele><time>2026-08-11T00:00:00Z</time></trkpt>
<trkpt lat="37.810688000" lon="-121.979126000"><ele>121.4</ele><time>2026-08-11T00:00:00Z</time></trkpt>
<trkpt lat="37.810684000" lon="-121.979230000"><ele>121.4</ele><time>2026-08-11T00:00:00Z</time></trkpt>
<trkpt lat="37.810684000" lon="-121.979350000"><ele>121.4</ele><time>2026-08-11T00:00:00Z</time></trkpt>
<trkpt lat="37.810700000" lon="-121.979450000"><ele>121.3</ele><time>2026-08-11T00:00:00Z</time></trkpt>
<trkpt lat="37.810730000" lon="-121.979550000"><ele>121.2</ele><time>2026-08-11T00:00:00Z</time></trkpt>
<trkpt lat="37.810760000" lon="-121.979650000"><ele>121.1</ele><time>2026-08-11T00:00:00Z</time></trkpt>
<trkpt lat="37.810776000" lon="-121.979770000"><ele>121.0</ele><time>2026-08-11T00:00:00Z</time></trkpt>
<trkpt lat="37.810802000" lon="-121.979870000"><ele>121.0</ele><time>2026-08-11T00:00:00Z</time></trkpt>
<trkpt lat="37.810820000" lon="-121.979980000"><ele>121.0</ele><time>2026-08-11T00:00:00Z</time></trkpt>
<trkpt lat="37.810837000" lon="-121.980090000"><ele>121.0</ele><time>2026-08-11T00:00:00Z</time></trkpt>
<trkpt lat="37.810837000" lon="-121.980200000"><ele>121.0</ele><time>2026-08-11T00:00:00Z</time></trkpt>
<trkpt lat="37.810833000" lon="-121.980316000"><ele>121.0</ele><time>2026-08-11T00:00:00Z</time></trkpt>
<trkpt lat="37.810830000" lon="-121.980430000"><ele>121.0</ele><time>2026-08-11T00:00:00Z</time></trkpt>
<trkpt lat="37.810810000" lon="-121.980545000"><ele>121.0</ele><time>2026-08-11T00:00:00Z</time></trkpt>
<trkpt lat="37.810787000" lon="-121.980650000"><ele>121.0</ele><time>2026-08-11T00:00:00Z</time></trkpt>
<trkpt lat="37.810750000" lon="-121.980740000"><ele>121.0</ele><time>2026-08-11T00:00:00Z</time></trkpt>
<trkpt lat="37.810707000" lon="-121.980835000"><ele>121.0</ele><time>2026-08-11T00:00:00Z</time></trkpt>
<trkpt lat="37.810650000" lon="-121.980930000"><ele>121.0</ele><time>2026-08-11T00:00:00Z</time></trkpt>
<trkpt lat="37.810677000" lon="-121.981030000"><ele>121.0</ele><time>2026-08-11T00:00:00Z</time></trkpt>
<trkpt lat="37.810730000" lon="-121.981110000"><ele>121.0</ele><time>2026-08-11T00:00:00Z</time></trkpt>
<trkpt lat="37.810790000" lon="-121.981190000"><ele>121.0</ele><time>2026-08-11T00:00:00Z</time></trkpt>
<trkpt lat="37.810875000" lon="-121.981220000"><ele>121.0</ele><time>2026-08-11T00:00:00Z</time></trkpt>
<trkpt lat="37.810947000" lon="-121.981280000"><ele>121.0</ele><time>2026-08-11T00:00:00Z</time></trkpt>
<trkpt lat="37.811030000" lon="-121.981316000"><ele>121.0</ele><time>2026-08-11T00:00:00Z</time></trkpt>
<trkpt lat="37.811123000" lon="-121.981340000"><ele>120.9</ele><time>2026-08-11T00:00:00Z</time></trkpt>
<trkpt lat="37.811190000" lon="-121.981250000"><ele>120.8</ele><time>2026-08-11T00:00:00Z</time></trkpt>
<trkpt lat="37.811110000" lon="-121.981290000"><ele>120.7</ele><time>2026-08-11T00:00:00Z</time></trkpt>
<trkpt lat="37.811030000" lon="-121.981290000"><ele>120.6</ele><time>2026-08-11T00:00:00Z</time></trkpt>
<trkpt lat="37.810974000" lon="-121.981380000"><ele>120.5</ele><time>2026-08-11T00:00:00Z</time></trkpt>
<trkpt lat="37.810898000" lon="-121.981430000"><ele>120.5</ele><time>2026-08-11T00:00:00Z</time></trkpt>
<trkpt lat="37.810818000" lon="-121.981476000"><ele>120.4</ele><time>2026-08-11T00:00:00Z</time></trkpt>
<trkpt lat="37.810780000" lon="-121.981575000"><ele>120.3</ele><time>2026-08-11T00:00:00Z</time></trkpt>
<trkpt lat="37.810764000" lon="-121.981680000"><ele>120.2</ele><time>2026-08-11T00:00:00Z</time></trkpt>
<trkpt lat="37.810750000" lon="-121.981780000"><ele>120.1</ele><time>2026-08-11T00:00:00Z</time></trkpt>
<trkpt lat="37.810750000" lon="-121.981890000"><ele>120.0</ele><time>2026-08-11T00:00:00Z</time></trkpt>
<trkpt lat="37.810757000" lon="-121.982000000"><ele>120.0</ele><time>2026-08-11T00:00:00Z</time></trkpt>
<trkpt lat="37.810772000" lon="-121.982100000"><ele>120.0</ele><time>2026-08-11T00:00:00Z</time></trkpt>
<trkpt lat="37.810787000" lon="-121.982210000"><ele>120.0</ele><time>2026-08-11T00:00:00Z</time></trkpt>
<trkpt lat="37.810814000" lon="-121.982320000"><ele>120.0</ele><time>2026-08-11T00:00:00Z</time></trkpt>
<trkpt lat="37.810837000" lon="-121.982430000"><ele>120.0</ele><time>2026-08-11T00:00:00Z</time></trkpt>
<trkpt lat="37.810856000" lon="-121.982540000"><ele>120.0</ele><time>2026-08-11T00:00:00Z</time></trkpt>
<trkpt lat="37.810863000" lon="-121.982660000"><ele>120.0</ele><time>2026-08-11T00:00:00Z</time></trkpt>
<trkpt lat="37.810867000" lon="-121.982770000"><ele>120.0</ele><time>2026-08-11T00:00:00Z</time></trkpt>
<trkpt lat="37.810867000" lon="-121.982895000"><ele>120.0</ele><time>2026-08-11T00:00:00Z</time></trkpt>
<trkpt lat="37.810850000" lon="-121.982994000"><ele>120.0</ele><time>2026-08-11T00:00:00Z</time></trkpt>
<trkpt lat="37.810850000" lon="-121.983100000"><ele>120.0</ele><time>2026-08-11T00:00:00Z</time></trkpt>
<trkpt lat="37.810856000" lon="-121.983210000"><ele>120.0</ele><time>2026-08-11T00:00:00Z</time></trkpt>
<trkpt lat="37.810844000" lon="-121.983315000"><ele>120.0</ele><time>2026-08-11T00:00:00Z</time></trkpt>
<trkpt lat="37.810810000" lon="-121.983210000"><ele>120.0</ele><time>2026-08-11T00:00:00Z</time></trkpt>
<trkpt lat="37.810802000" lon="-121.983100000"><ele>120.0</ele><time>2026-08-11T00:00:00Z</time></trkpt>
<trkpt lat="37.810802000" lon="-121.982990000"><ele>120.0</ele><time>2026-08-11T00:00:00Z</time></trkpt>
<trkpt lat="37.810800000" lon="-121.982870000"><ele>120.0</ele><time>2026-08-11T00:00:00Z</time></trkpt>
<trkpt lat="37.810783000" lon="-121.982770000"><ele>120.0</ele><time>2026-08-11T00:00:00Z</time></trkpt>
<trkpt lat="37.810787000" lon="-121.982666000"><ele>120.1</ele><time>2026-08-11T00:00:00Z</time></trkpt>
<trkpt lat="37.810772000" lon="-121.982550000"><ele>120.2</ele><time>2026-08-11T00:00:00Z</time></trkpt>
<trkpt lat="37.810753000" lon="-121.982445000"><ele>120.3</ele><time>2026-08-11T00:00:00Z</time></trkpt>
<trkpt lat="37.810730000" lon="-121.982340000"><ele>120.4</ele><time>2026-08-11T00:00:00Z</time></trkpt>
<trkpt lat="37.810707000" lon="-121.982230000"><ele>120.5</ele><time>2026-08-11T00:00:00Z</time></trkpt>
<trkpt lat="37.810680000" lon="-121.982124000"><ele>120.5</ele><time>2026-08-11T00:00:00Z</time></trkpt>
<trkpt lat="37.810660000" lon="-121.982010000"><ele>120.5</ele><time>2026-08-11T00:00:00Z</time></trkpt>
<trkpt lat="37.810642000" lon="-121.981895000"><ele>120.5</ele><time>2026-08-11T00:00:00Z</time></trkpt>
<trkpt lat="37.810642000" lon="-121.981790000"><ele>120.6</ele><time>2026-08-11T00:00:00Z</time></trkpt>
<trkpt lat="37.810658000" lon="-121.981680000"><ele>120.7</ele><time>2026-08-11T00:00:00Z</time></trkpt>
<trkpt lat="37.810677000" lon="-121.981575000"><ele>120.8</ele><time>2026-08-11T00:00:00Z</time></trkpt>
<trkpt lat="37.810700000" lon="-121.981460000"><ele>120.8</ele><time>2026-08-11T00:00:00Z</time></trkpt>
<trkpt lat="37.810726000" lon="-121.981350000"><ele>120.8</ele><time>2026-08-11T00:00:00Z</time></trkpt>
<trkpt lat="37.810673000" lon="-121.981260000"><ele>120.8</ele><time>2026-08-11T00:00:00Z</time></trkpt>
<trkpt lat="37.810616000" lon="-121.981180000"><ele>120.8</ele><time>2026-08-11T00:00:00Z</time></trkpt>
<trkpt lat="37.810562000" lon="-121.981090000"><ele>120.7</ele><time>2026-08-11T00:00:00Z</time></trkpt>
<trkpt lat="37.810500000" lon="-121.981000000"><ele>120.6</ele><time>2026-08-11T00:00:00Z</time></trkpt>
<trkpt lat="37.810440000" lon="-121.980920000"><ele>120.6</ele><time>2026-08-11T00:00:00Z</time></trkpt>
<trkpt lat="37.810387000" lon="-121.980820000"><ele>120.6</ele><time>2026-08-11T00:00:00Z</time></trkpt>
<trkpt lat="37.810333000" lon="-121.980736000"><ele>120.5</ele><time>2026-08-11T00:00:00Z</time></trkpt>
<trkpt lat="37.810280000" lon="-121.980644000"><ele>120.5</ele><time>2026-08-11T00:00:00Z</time></trkpt>
<trkpt lat="37.810226000" lon="-121.980560000"><ele>120.4</ele><time>2026-08-11T00:00:00Z</time></trkpt>
<trkpt lat="37.810158000" lon="-121.980484000"><ele>120.4</ele><time>2026-08-11T00:00:00Z</time></trkpt>
<trkpt lat="37.810093000" lon="-121.980410000"><ele>120.3</ele><time>2026-08-11T00:00:00Z</time></trkpt>
<trkpt lat="37.810020000" lon="-121.980330000"><ele>120.3</ele><time>2026-08-11T00:00:00Z</time></trkpt>
<trkpt lat="37.809956000" lon="-121.980255000"><ele>120.2</ele><time>2026-08-11T00:00:00Z</time></trkpt>
<trkpt lat="37.809880000" lon="-121.980200000"><ele>120.3</ele><time>2026-08-11T00:00:00Z</time></trkpt>
<trkpt lat="37.809800000" lon="-121.980156000"><ele>120.4</ele><time>2026-08-11T00:00:00Z</time></trkpt>
<trkpt lat="37.809715000" lon="-121.980120000"><ele>120.5</ele><time>2026-08-11T00:00:00Z</time></trkpt>
<trkpt lat="37.809628000" lon="-121.980090000"><ele>120.5</ele><time>2026-08-11T00:00:00Z</time></trkpt>
<trkpt lat="37.809600000" lon="-121.979990000"><ele>120.6</ele><time>2026-08-11T00:00:00Z</time></trkpt>
<trkpt lat="37.809620000" lon="-121.979880000"><ele>120.7</ele><time>2026-08-11T00:00:00Z</time></trkpt>
<trkpt lat="37.809647000" lon="-121.979780000"><ele>120.9</ele><time>2026-08-11T00:00:00Z</time></trkpt>
<trkpt lat="37.809666000" lon="-121.979675000"><ele>121.0</ele><time>2026-08-11T00:00:00Z</time></trkpt>
<trkpt lat="37.809685000" lon="-121.979570000"><ele>121.3</ele><time>2026-08-11T00:00:00Z</time></trkpt>
<trkpt lat="37.809710000" lon="-121.979460000"><ele>121.5</ele><time>2026-08-11T00:00:00Z</time></trkpt>
<trkpt lat="37.809734000" lon="-121.979360000"><ele>121.9</ele><time>2026-08-11T00:00:00Z</time></trkpt>
<trkpt lat="37.809753000" lon="-121.979256000"><ele>122.3</ele><time>2026-08-11T00:00:00Z</time></trkpt>
<trkpt lat="37.809772000" lon="-121.979150000"><ele>122.6</ele><time>2026-08-11T00:00:00Z</time></trkpt>
<trkpt lat="37.809776000" lon="-121.979034000"><ele>123.0</ele><time>2026-08-11T00:00:00Z</time></trkpt>
<trkpt lat="37.809770000" lon="-121.978920000"><ele>123.4</ele><time>2026-08-11T00:00:00Z</time></trkpt>
<trkpt lat="37.809753000" lon="-121.978810000"><ele>123.7</ele><time>2026-08-11T00:00:00Z</time></trkpt>
<trkpt lat="37.809734000" lon="-121.978690000"><ele>124.1</ele><time>2026-08-11T00:00:00Z</time></trkpt>
<trkpt lat="37.809727000" lon="-121.978580000"><ele>124.4</ele><time>2026-08-11T00:00:00Z</time></trkpt>
<trkpt lat="37.809696000" lon="-121.978480000"><ele>124.6</ele><time>2026-08-11T00:00:00Z</time></trkpt>
<trkpt lat="37.809670000" lon="-121.978370000"><ele>124.7</ele><time>2026-08-11T00:00:00Z</time></trkpt>
<trkpt lat="37.809673000" lon="-121.978264000"><ele>124.7</ele><time>2026-08-11T00:00:00Z</time></trkpt>
<trkpt lat="37.809680000" lon="-121.978150000"><ele>124.7</ele><time>2026-08-11T00:00:00Z</time></trkpt>
<trkpt lat="37.809690000" lon="-121.978035000"><ele>124.6</ele><time>2026-08-11T00:00:00Z</time></trkpt>
<trkpt lat="37.809696000" lon="-121.977920000"><ele>124.5</ele><time>2026-08-11T00:00:00Z</time></trkpt>
<trkpt lat="37.809757000" lon="-121.977840000"><ele>124.5</ele><time>2026-08-11T00:00:00Z</time></trkpt>
<trkpt lat="37.809830000" lon="-121.977776000"><ele>124.4</ele><time>2026-08-11T00:00:00Z</time></trkpt>
<trkpt lat="37.809925000" lon="-121.977770000"><ele>124.3</ele><time>2026-08-11T00:00:00Z</time></trkpt>
<trkpt lat="37.810005000" lon="-121.977776000"><ele>124.2</ele><time>2026-08-11T00:00:00Z</time></trkpt>
<trkpt lat="37.810090000" lon="-121.977770000"><ele>124.1</ele><time>2026-08-11T00:00:00Z</time></trkpt>
<trkpt lat="37.810173000" lon="-121.977770000"><ele>124.0</ele><time>2026-08-11T00:00:00Z</time></trkpt>
<trkpt lat="37.810260000" lon="-121.977770000"><ele>124.0</ele><time>2026-08-11T00:00:00Z</time></trkpt>
<trkpt lat="37.810350000" lon="-121.977790000"><ele>124.0</ele><time>2026-08-11T00:00:00Z</time></trkpt>
<trkpt lat="37.810436000" lon="-121.977780000"><ele>124.0</ele><time>2026-08-11T00:00:00Z</time></trkpt>
<trkpt lat="37.810528000" lon="-121.977790000"><ele>124.0</ele><time>2026-08-11T00:00:00Z</time></trkpt>
<trkpt lat="37.810610000" lon="-121.977780000"><ele>124.1</ele><time>2026-08-11T00:00:00Z</time></trkpt>
<trkpt lat="37.810696000" lon="-121.977780000"><ele>124.1</ele><time>2026-08-11T00:00:00Z</time></trkpt>
<trkpt lat="37.810776000" lon="-121.977776000"><ele>124.1</ele><time>2026-08-11T00:00:00Z</time></trkpt>
<trkpt lat="37.810856000" lon="-121.977740000"><ele>124.1</ele><time>2026-08-11T00:00:00Z</time></trkpt>
<trkpt lat="37.810913000" lon="-121.977646000"><ele>124.1</ele><time>2026-08-11T00:00:00Z</time></trkpt>
<trkpt lat="37.810960000" lon="-121.977540000"><ele>124.2</ele><time>2026-08-11T00:00:00Z</time></trkpt>
<trkpt lat="37.810993000" lon="-121.977430000"><ele>124.3</ele><time>2026-08-11T00:00:00Z</time></trkpt>
<trkpt lat="37.811035000" lon="-121.977350000"><ele>124.4</ele><time>2026-08-11T00:00:00Z</time></trkpt>
<trkpt lat="37.811077000" lon="-121.977250000"><ele>124.5</ele><time>2026-08-11T00:00:00Z</time></trkpt>
<trkpt lat="37.811120000" lon="-121.977160000"><ele>124.5</ele><time>2026-08-11T00:00:00Z</time></trkpt>
<trkpt lat="37.811176000" lon="-121.977070000"><ele>124.6</ele><time>2026-08-11T00:00:00Z</time></trkpt>
<trkpt lat="37.811234000" lon="-121.977000000"><ele>124.5</ele><time>2026-08-11T00:00:00Z</time></trkpt>
<trkpt lat="37.811280000" lon="-121.976910000"><ele>124.5</ele><time>2026-08-11T00:00:00Z</time></trkpt>
<trkpt lat="37.811310000" lon="-121.976814000"><ele>124.5</ele><time>2026-08-11T00:00:00Z</time></trkpt>
<trkpt lat="37.811310000" lon="-121.976700000"><ele>124.5</ele><time>2026-08-11T00:00:00Z</time></trkpt>
<trkpt lat="37.811306000" lon="-121.976590000"><ele>124.5</ele><time>2026-08-11T00:00:00Z</time></trkpt>
<trkpt lat="37.811300000" lon="-121.976490000"><ele>124.5</ele><time>2026-08-11T00:00:00Z</time></trkpt>
<trkpt lat="37.811382000" lon="-121.976480000"><ele>124.4</ele><time>2026-08-11T00:00:00Z</time></trkpt>
<trkpt lat="37.811462000" lon="-121.976524000"><ele>124.4</ele><time>2026-08-11T00:00:00Z</time></trkpt>
<trkpt lat="37.811543000" lon="-121.976580000"><ele>124.4</ele><time>2026-08-11T00:00:00Z</time></trkpt>
<trkpt lat="37.811615000" lon="-121.976630000"><ele>124.3</ele><time>2026-08-11T00:00:00Z</time></trkpt>
<trkpt lat="37.811690000" lon="-121.976685000"><ele>124.2</ele><time>2026-08-11T00:00:00Z</time></trkpt>
<trkpt lat="37.811745000" lon="-121.976770000"><ele>124.2</ele><time>2026-08-11T00:00:00Z</time></trkpt>
<trkpt lat="37.811756000" lon="-121.976875000"><ele>124.2</ele><time>2026-08-11T00:00:00Z</time></trkpt>
<trkpt lat="37.811726000" lon="-121.976974000"><ele>124.2</ele><time>2026-08-11T00:00:00Z</time></trkpt>
<trkpt lat="37.811680000" lon="-121.977080000"><ele>124.2</ele><time>2026-08-11T00:00:00Z</time></trkpt>
<trkpt lat="37.811640000" lon="-121.977180000"><ele>124.2</ele><time>2026-08-11T00:00:00Z</time></trkpt>
<trkpt lat="37.811620000" lon="-121.977280000"><ele>124.2</ele><time>2026-08-11T00:00:00Z</time></trkpt>
<trkpt lat="37.811573000" lon="-121.977380000"><ele>124.2</ele><time>2026-08-11T00:00:00Z</time></trkpt>
<trkpt lat="37.811540000" lon="-121.977480000"><ele>124.1</ele><time>2026-08-11T00:00:00Z</time></trkpt>
<trkpt lat="37.811500000" lon="-121.977580000"><ele>124.0</ele><time>2026-08-11T00:00:00Z</time></trkpt>
<trkpt lat="37.811466000" lon="-121.977680000"><ele>124.0</ele><time>2026-08-11T00:00:00Z</time></trkpt>
<trkpt lat="37.811436000" lon="-121.977790000"><ele>124.0</ele><time>2026-08-11T00:00:00Z</time></trkpt>
<trkpt lat="37.811405000" lon="-121.977890000"><ele>123.9</ele><time>2026-08-11T00:00:00Z</time></trkpt>
<trkpt lat="37.811382000" lon="-121.977990000"><ele>123.8</ele><time>2026-08-11T00:00:00Z</time></trkpt>
<trkpt lat="37.811363000" lon="-121.978096000"><ele>123.7</ele><time>2026-08-11T00:00:00Z</time></trkpt>
<trkpt lat="37.811337000" lon="-121.978195000"><ele>123.6</ele><time>2026-08-11T00:00:00Z</time></trkpt>
<trkpt lat="37.811314000" lon="-121.978310000"><ele>123.5</ele><time>2026-08-11T00:00:00Z</time></trkpt>
<trkpt lat="37.811300000" lon="-121.978420000"><ele>123.4</ele><time>2026-08-11T00:00:00Z</time></trkpt>
<trkpt lat="37.811280000" lon="-121.978530000"><ele>123.2</ele><time>2026-08-11T00:00:00Z</time></trkpt>
<trkpt lat="37.811270000" lon="-121.978640000"><ele>123.0</ele><time>2026-08-11T00:00:00Z</time></trkpt>
<trkpt lat="37.811256000" lon="-121.978750000"><ele>122.8</ele><time>2026-08-11T00:00:00Z</time></trkpt>
<trkpt lat="37.811253000" lon="-121.978860000"><ele>122.6</ele><time>2026-08-11T00:00:00Z</time></trkpt>
<trkpt lat="37.811240000" lon="-121.978970000"><ele>122.5</ele><time>2026-08-11T00:00:00Z</time></trkpt>
<trkpt lat="37.811240000" lon="-121.979090000"><ele>122.4</ele><time>2026-08-11T00:00:00Z</time></trkpt>
<trkpt lat="37.811245000" lon="-121.979195000"><ele>122.3</ele><time>2026-08-11T00:00:00Z</time></trkpt>
<trkpt lat="37.811253000" lon="-121.979310000"><ele>122.2</ele><time>2026-08-11T00:00:00Z</time></trkpt>
<trkpt lat="37.811240000" lon="-121.979420000"><ele>122.1</ele><time>2026-08-11T00:00:00Z</time></trkpt>
<trkpt lat="37.811240000" lon="-121.979540000"><ele>122.0</ele><time>2026-08-11T00:00:00Z</time></trkpt>
<trkpt lat="37.811230000" lon="-121.979645000"><ele>122.0</ele><time>2026-08-11T00:00:00Z</time></trkpt>
<trkpt lat="37.811230000" lon="-121.979770000"><ele>122.0</ele><time>2026-08-11T00:00:00Z</time></trkpt>
<trkpt lat="37.811230000" lon="-121.979870000"><ele>122.0</ele><time>2026-08-11T00:00:00Z</time></trkpt>
<trkpt lat="37.811234000" lon="-121.979970000"><ele>122.0</ele><time>2026-08-11T00:00:00Z</time></trkpt>
<trkpt lat="37.811237000" lon="-121.980080000"><ele>122.0</ele><time>2026-08-11T00:00:00Z</time></trkpt>
<trkpt lat="37.811237000" lon="-121.980194000"><ele>122.0</ele><time>2026-08-11T00:00:00Z</time></trkpt>
<trkpt lat="37.811240000" lon="-121.980300000"><ele>122.0</ele><time>2026-08-11T00:00:00Z</time></trkpt>
<trkpt lat="37.811234000" lon="-121.980410000"><ele>122.0</ele><time>2026-08-11T00:00:00Z</time></trkpt>
<trkpt lat="37.811234000" lon="-121.980510000"><ele>121.9</ele><time>2026-08-11T00:00:00Z</time></trkpt>
<trkpt lat="37.811234000" lon="-121.980610000"><ele>121.8</ele><time>2026-08-11T00:00:00Z</time></trkpt>
<trkpt lat="37.811234000" lon="-121.980730000"><ele>121.7</ele><time>2026-08-11T00:00:00Z</time></trkpt>
<trkpt lat="37.811237000" lon="-121.980840000"><ele>121.6</ele><time>2026-08-11T00:00:00Z</time></trkpt>
<trkpt lat="37.811237000" lon="-121.980940000"><ele>121.5</ele><time>2026-08-11T00:00:00Z</time></trkpt>
<trkpt lat="37.811226000" lon="-121.981050000"><ele>121.5</ele><time>2026-08-11T00:00:00Z</time></trkpt>
<trkpt lat="37.811226000" lon="-121.981160000"><ele>121.4</ele><time>2026-08-11T00:00:00Z</time></trkpt>
<trkpt lat="37.811222000" lon="-121.981270000"><ele>121.3</ele><time>2026-08-11T00:00:00Z</time></trkpt>
<trkpt lat="37.811150000" lon="-121.981340000"><ele>121.2</ele><time>2026-08-11T00:00:00Z</time></trkpt>
<trkpt lat="37.811066000" lon="-121.981340000"><ele>121.1</ele><time>2026-08-11T00:00:00Z</time></trkpt>
<trkpt lat="37.810970000" lon="-121.981316000"><ele>121.0</ele><time>2026-08-11T00:00:00Z</time></trkpt>
<trkpt lat="37.810886000" lon="-121.981270000"><ele>120.9</ele><time>2026-08-11T00:00:00Z</time></trkpt>
<trkpt lat="37.810814000" lon="-121.981224000"><ele>120.9</ele><time>2026-08-11T00:00:00Z</time></trkpt>
<trkpt lat="37.810738000" lon="-121.981155000"><ele>120.9</ele><time>2026-08-11T00:00:00Z</time></trkpt>
<trkpt lat="37.810684000" lon="-121.981064000"><ele>120.9</ele><time>2026-08-11T00:00:00Z</time></trkpt>
<trkpt lat="37.810650000" lon="-121.980970000"><ele>120.9</ele><time>2026-08-11T00:00:00Z</time></trkpt>
<trkpt lat="37.810665000" lon="-121.980860000"><ele>120.9</ele><time>2026-08-11T00:00:00Z</time></trkpt>
<trkpt lat="37.810677000" lon="-121.980770000"><ele>120.8</ele><time>2026-08-11T00:00:00Z</time></trkpt>
</trkseg>
</trk>
</gpx>
