<?xml version="1.0" encoding="UTF-8"?>
<gpx
  version="1.1"
  creator="Runkeeper - http://www.runkeeper.com"
  xmlns:xsi="http://www.w3.org/2001/XMLSchema-instance"
  xmlns="http://www.topografix.com/GPX/1/1"
  xsi:schemaLocation="http://www.topografix.com/GPX/1/1 http://www.topografix.com/GPX/1/1/gpx.xsd"
  xmlns:gpxtpx="http://www.garmin.com/xmlschemas/TrackPointExtension/v1">
<trk>
  <name><![CDATA[Walking 9/12/26]]></name>
  <time>2026-09-13T00:00:00Z</time>
<trkseg>
<trkpt lat="37.800606000" lon="-121.973950000"><ele>132.8</ele><time>2026-09-13T00:00:00Z</time></trkpt>
<trkpt lat="37.800630000" lon="-121.973840000"><ele>133.0</ele><time>2026-09-13T00:00:00Z</time></trkpt>
<trkpt lat="37.800587000" lon="-121.973750000"><ele>133.1</ele><time>2026-09-13T00:00:00Z</time></trkpt>
<trkpt lat="37.800507000" lon="-121.973724000"><ele>133.2</ele><time>2026-09-13T00:00:00Z</time></trkpt>
<trkpt lat="37.800430000" lon="-121.973650000"><ele>133.3</ele><time>2026-09-13T00:00:00Z</time></trkpt>
<trkpt lat="37.800340000" lon="-121.973620000"><ele>133.4</ele><time>2026-09-13T00:00:00Z</time></trkpt>
<trkpt lat="37.800262000" lon="-121.973590000"><ele>133.5</ele><time>2026-09-13T00:00:00Z</time></trkpt>
<trkpt lat="37.800186000" lon="-121.973530000"><ele>133.7</ele><time>2026-09-13T00:00:00Z</time></trkpt>
<trkpt lat="37.800106000" lon="-121.973480000"><ele>133.9</ele><time>2026-09-13T00:00:00Z</time></trkpt>
<trkpt lat="37.800026000" lon="-121.973450000"><ele>134.1</ele><time>2026-09-13T00:00:00Z</time></trkpt>
<trkpt lat="37.799953000" lon="-121.973404000"><ele>134.3</ele><time>2026-09-13T00:00:00Z</time></trkpt>
<trkpt lat="37.799870000" lon="-121.973360000"><ele>134.5</ele><time>2026-09-13T00:00:00Z</time></trkpt>
<trkpt lat="37.799870000" lon="-121.973250000"><ele>134.6</ele><time>2026-09-13T00:00:00Z</time></trkpt>
<trkpt lat="37.799866000" lon="-121.973130000"><ele>134.8</ele><time>2026-09-13T00:00:00Z</time></trkpt>
<trkpt lat="37.799873000" lon="-121.973020000"><ele>135.1</ele><time>2026-09-13T00:00:00Z</time></trkpt>
<trkpt lat="37.799896000" lon="-121.972920000"><ele>135.4</ele><time>2026-09-13T00:00:00Z</time></trkpt>
<trkpt lat="37.799976000" lon="-121.972900000"><ele>135.6</ele><time>2026-09-13T00:00:00Z</time></trkpt>
<trkpt lat="37.799988000" lon="-121.972800000"><ele>135.9</ele><time>2026-09-13T00:00:00Z</time></trkpt>
<trkpt lat="37.800026000" lon="-121.972700000"><ele>136.3</ele><time>2026-09-13T00:00:00Z</time></trkpt>
<trkpt lat="37.800102000" lon="-121.972640000"><ele>136.5</ele><time>2026-09-13T00:00:00Z</time></trkpt>
<trkpt lat="37.800170000" lon="-121.972565000"><ele>136.8</ele><time>2026-09-13T00:00:00Z</time></trkpt>
<trkpt lat="37.800255000" lon="-121.972520000"><ele>137.1</ele><time>2026-09-13T00:00:00Z</time></trkpt>
<trkpt lat="37.800340000" lon="-121.972530000"><ele>137.3</ele><time>2026-09-13T00:00:00Z</time></trkpt>
<trkpt lat="37.800426000" lon="-121.972480000"><ele>137.5</ele><time>2026-09-13T00:00:00Z</time></trkpt>
<trkpt lat="37.800510000" lon="-121.972480000"><ele>137.6</ele><time>2026-09-13T00:00:00Z</time></trkpt>
<trkpt lat="37.800600000" lon="-121.972510000"><ele>137.7</ele><time>2026-09-13T00:00:00Z</time></trkpt>
<trkpt lat="37.800680000" lon="-121.972520000"><ele>137.9</ele><time>2026-09-13T00:00:00Z</time></trkpt>
<trkpt lat="37.800766000" lon="-121.972520000"><ele>138.1</ele><time>2026-09-13T00:00:00Z</time></trkpt>
<trkpt lat="37.800858000" lon="-121.972540000"><ele>138.4</ele><time>2026-09-13T00:00:00Z</time></trkpt>
<trkpt lat="37.800945000" lon="-121.972565000"><ele>138.5</ele><time>2026-09-13T00:00:00Z</time></trkpt>
<trkpt lat="37.801025000" lon="-121.972620000"><ele>138.8</ele><time>2026-09-13T00:00:00Z</time></trkpt>
<trkpt lat="37.801098000" lon="-121.972570000"><ele>139.3</ele><time>2026-09-13T00:00:00Z</time></trkpt>
<trkpt lat="37.801117000" lon="-121.972470000"><ele>139.8</ele><time>2026-09-13T00:00:00Z</time></trkpt>
<trkpt lat="37.801140000" lon="-121.972360000"><ele>140.5</ele><time>2026-09-13T00:00:00Z</time></trkpt>
<trkpt lat="37.801163000" lon="-121.972260000"><ele>141.1</ele><time>2026-09-13T00:00:00Z</time></trkpt>
<trkpt lat="37.801180000" lon="-121.972150000"><ele>141.7</ele><time>2026-09-13T00:00:00Z</time></trkpt>
<trkpt lat="37.801178000" lon="-121.972046000"><ele>142.4</ele><time>2026-09-13T00:00:00Z</time></trkpt>
<trkpt lat="37.801186000" lon="-121.971940000"><ele>142.8</ele><time>2026-09-13T00:00:00Z</time></trkpt>
<trkpt lat="37.801190000" lon="-121.971825000"><ele>143.3</ele><time>2026-09-13T00:00:00Z</time></trkpt>
<trkpt lat="37.801190000" lon="-121.971720000"><ele>143.6</ele><time>2026-09-13T00:00:00Z</time></trkpt>
<trkpt lat="37.801110000" lon="-121.971680000"><ele>144.0</ele><time>2026-09-13T00:00:00Z</time></trkpt>
<trkpt lat="37.801030000" lon="-121.971680000"><ele>144.3</ele><time>2026-09-13T00:00:00Z</time></trkpt>
<trkpt lat="37.800938000" lon="-121.971650000"><ele>144.3</ele><time>2026-09-13T00:00:00Z</time></trkpt>
<trkpt lat="37.800854000" lon="-121.971630000"><ele>144.2</ele><time>2026-09-13T00:00:00Z</time></trkpt>
<trkpt lat="37.800766000" lon="-121.971600000"><ele>144.0</ele><time>2026-09-13T00:00:00Z</time></trkpt>
<trkpt lat="37.800686000" lon="-121.971580000"><ele>143.8</ele><time>2026-09-13T00:00:00Z</time></trkpt>
<trkpt lat="37.800600000" lon="-121.971535000"><ele>143.7</ele><time>2026-09-13T00:00:00Z</time></trkpt>
<trkpt lat="37.800514000" lon="-121.971490000"><ele>143.6</ele><time>2026-09-13T00:00:00Z</time></trkpt>
<trkpt lat="37.800440000" lon="-121.971436000"><ele>143.6</ele><time>2026-09-13T00:00:00Z</time></trkpt>
<trkpt lat="37.800365000" lon="-121.971375000"><ele>143.6</ele><time>2026-09-13T00:00:00Z</time></trkpt>
<trkpt lat="37.800316000" lon="-121.971280000"><ele>143.7</ele><time>2026-09-13T00:00:00Z</time></trkpt>
<trkpt lat="37.800266000" lon="-121.971190000"><ele>143.9</ele><time>2026-09-13T00:00:00Z</time></trkpt>
<trkpt lat="37.800340000" lon="-121.971130000"><ele>144.1</ele><time>2026-09-13T00:00:00Z</time></trkpt>
<trkpt lat="37.800370000" lon="-121.971020000"><ele>144.5</ele><time>2026-09-13T00:00:00Z</time></trkpt>
<trkpt lat="37.800426000" lon="-121.970930000"><ele>144.9</ele><time>2026-09-13T00:00:00Z</time></trkpt>
<trkpt lat="37.800460000" lon="-121.970830000"><ele>145.5</ele><time>2026-09-13T00:00:00Z</time></trkpt>
<trkpt lat="37.800503000" lon="-121.970740000"><ele>146.0</ele><time>2026-09-13T00:00:00Z</time></trkpt>
<trkpt lat="37.800575000" lon="-121.970695000"><ele>146.5</ele><time>2026-09-13T00:00:00Z</time></trkpt>
<trkpt lat="37.800648000" lon="-121.970630000"><ele>147.1</ele><time>2026-09-13T00:00:00Z</time></trkpt>
<trkpt lat="37.800710000" lon="-121.970540000"><ele>147.6</ele><time>2026-09-13T00:00:00Z</time></trkpt>
<trkpt lat="37.800777000" lon="-121.970474000"><ele>148.2</ele><time>2026-09-13T00:00:00Z</time></trkpt>
<trkpt lat="37.800750000" lon="-121.970370000"><ele>148.6</ele><time>2026-09-13T00:00:00Z</time></trkpt>
<trkpt lat="37.800700000" lon="-121.970276000"><ele>149.0</ele><time>2026-09-13T00:00:00Z</time></trkpt>
<trkpt lat="37.800620000" lon="-121.970215000"><ele>149.4</ele><time>2026-09-13T00:00:00Z</time></trkpt>
<trkpt lat="37.800560000" lon="-121.970130000"><ele>149.6</ele><time>2026-09-13T00:00:00Z</time></trkpt>
<trkpt lat="37.800490000" lon="-121.970060000"><ele>149.8</ele><time>2026-09-13T00:00:00Z</time></trkpt>
<trkpt lat="37.800423000" lon="-121.970010000"><ele>149.9</ele><time>2026-09-13T00:00:00Z</time></trkpt>
<trkpt lat="37.800350000" lon="-121.969955000"><ele>150.0</ele><time>2026-09-13T00:00:00Z</time></trkpt>
<trkpt lat="37.800270000" lon="-121.969900000"><ele>150.0</ele><time>2026-09-13T00:00:00Z</time></trkpt>
<trkpt lat="37.800194000" lon="-121.969850000"><ele>149.9</ele><time>2026-09-13T00:00:00Z</time></trkpt>
<trkpt lat="37.800114000" lon="-121.969790000"><ele>149.8</ele><time>2026-09-13T00:00:00Z</time></trkpt>
<trkpt lat="37.800045000" lon="-121.969730000"><ele>149.7</ele><time>2026-09-13T00:00:00Z</time></trkpt>
<trkpt lat="37.799976000" lon="-121.969660000"><ele>149.6</ele><time>2026-09-13T00:00:00Z</time></trkpt>
<trkpt lat="37.799890000" lon="-121.969650000"><ele>149.5</ele><time>2026-09-13T00:00:00Z</time></trkpt>
<trkpt lat="37.799816000" lon="-121.969710000"><ele>149.5</ele><time>2026-09-13T00:00:00Z</time></trkpt>
<trkpt lat="37.799736000" lon="-121.969780000"><ele>149.3</ele><time>2026-09-13T00:00:00Z</time></trkpt>
<trkpt lat="37.799660000" lon="-121.969830000"><ele>149.0</ele><time>2026-09-13T00:00:00Z</time></trkpt>
<trkpt lat="37.799576000" lon="-121.969870000"><ele>148.7</ele><time>2026-09-13T00:00:00Z</time></trkpt>
<trkpt lat="37.799484000" lon="-121.969900000"><ele>148.4</ele><time>2026-09-13T00:00:00Z</time></trkpt>
<trkpt lat="37.799400000" lon="-121.969910000"><ele>148.0</ele><time>2026-09-13T00:00:00Z</time></trkpt>
<trkpt lat="37.799310000" lon="-121.969920000"><ele>147.6</ele><time>2026-09-13T00:00:00Z</time></trkpt>
<trkpt lat="37.799217000" lon="-121.969920000"><ele>147.3</ele><time>2026-09-13T00:00:00Z</time></trkpt>
<trkpt lat="37.799126000" lon="-121.969920000"><ele>146.8</ele><time>2026-09-13T00:00:00Z</time></trkpt>
<trkpt lat="37.799034000" lon="-121.969940000"><ele>146.4</ele><time>2026-09-13T00:00:00Z</time></trkpt>
<trkpt lat="37.798946000" lon="-121.969960000"><ele>145.9</ele><time>2026-09-13T00:00:00Z</time></trkpt>
<trkpt lat="37.798862000" lon="-121.970000000"><ele>145.4</ele><time>2026-09-13T00:00:00Z</time></trkpt>
<trkpt lat="37.798786000" lon="-121.970050000"><ele>144.9</ele><time>2026-09-13T00:00:00Z</time></trkpt>
<trkpt lat="37.798706000" lon="-121.970085000"><ele>144.5</ele><time>2026-09-13T00:00:00Z</time></trkpt>
<trkpt lat="37.798620000" lon="-121.970080000"><ele>144.1</ele><time>2026-09-13T00:00:00Z</time></trkpt>
<trkpt lat="37.798534000" lon="-121.970050000"><ele>143.5</ele><time>2026-09-13T00:00:00Z</time></trkpt>
<trkpt lat="37.798550000" lon="-121.970150000"><ele>142.9</ele><time>2026-09-13T00:00:00Z</time></trkpt>
<trkpt lat="37.798496000" lon="-121.970230000"><ele>142.4</ele><time>2026-09-13T00:00:00Z</time></trkpt>
<trkpt lat="37.798428000" lon="-121.970290000"><ele>141.7</ele><time>2026-09-13T00:00:00Z</time></trkpt>
<trkpt lat="37.798424000" lon="-121.970400000"><ele>141.1</ele><time>2026-09-13T00:00:00Z</time></trkpt>
<trkpt lat="37.798443000" lon="-121.970505000"><ele>140.5</ele><time>2026-09-13T00:00:00Z</time></trkpt>
<trkpt lat="37.798440000" lon="-121.970630000"><ele>140.1</ele><time>2026-09-13T00:00:00Z</time></trkpt>
<trkpt lat="37.798435000" lon="-121.970726000"><ele>139.7</ele><time>2026-09-13T00:00:00Z</time></trkpt>
<trkpt lat="37.798435000" lon="-121.970830000"><ele>139.4</ele><time>2026-09-13T00:00:00Z</time></trkpt>
<trkpt lat="37.798435000" lon="-121.970950000"><ele>139.0</ele><time>2026-09-13T00:00:00Z</time></trkpt>
<trkpt lat="37.798523000" lon="-121.970970000"><ele>138.7</ele><time>2026-09-13T00:00:00Z</time></trkpt>
<trkpt lat="37.798615000" lon="-121.970970000"><ele>138.7</ele><time>2026-09-13T00:00:00Z</time></trkpt>
<trkpt lat="37.798702000" lon="-121.970980000"><ele>138.8</ele><time>2026-09-13T00:00:00Z</time></trkpt>
<trkpt lat="37.798786000" lon="-121.970990000"><ele>139.0</ele><time>2026-09-13T00:00:00Z</time></trkpt>
<trkpt lat="37.798870000" lon="-121.971000000"><ele>139.3</ele><time>2026-09-13T00:00:00Z</time></trkpt>
<trkpt lat="37.798958000" lon="-121.971010000"><ele>139.7</ele><time>2026-09-13T00:00:00Z</time></trkpt>
<trkpt lat="37.799046000" lon="-121.971016000"><ele>140.1</ele><time>2026-09-13T00:00:00Z</time></trkpt>
<trkpt lat="37.799130000" lon="-121.970985000"><ele>140.4</ele><time>2026-09-13T00:00:00Z</time></trkpt>
<trkpt lat="37.799220000" lon="-121.970980000"><ele>140.7</ele><time>2026-09-13T00:00:00Z</time></trkpt>
<trkpt lat="37.799313000" lon="-121.970970000"><ele>141.1</ele><time>2026-09-13T00:00:00Z</time></trkpt>
<trkpt lat="37.799397000" lon="-121.970955000"><ele>141.5</ele><time>2026-09-13T00:00:00Z</time></trkpt>
<trkpt lat="37.799480000" lon="-121.970940000"><ele>141.8</ele><time>2026-09-13T00:00:00Z</time></trkpt>
<trkpt lat="37.799560000" lon="-121.970930000"><ele>142.1</ele><time>2026-09-13T00:00:00Z</time></trkpt>
<trkpt lat="37.799650000" lon="-121.970930000"><ele>142.4</ele><time>2026-09-13T00:00:00Z</time></trkpt>
<trkpt lat="37.799736000" lon="-121.970920000"><ele>142.6</ele><time>2026-09-13T00:00:00Z</time></trkpt>
<trkpt lat="37.799824000" lon="-121.970900000"><ele>142.9</ele><time>2026-09-13T00:00:00Z</time></trkpt>
<trkpt lat="37.799910000" lon="-121.970924000"><ele>143.1</ele><time>2026-09-13T00:00:00Z</time></trkpt>
<trkpt lat="37.800000000" lon="-121.970910000"><ele>143.3</ele><time>2026-09-13T00:00:00Z</time></trkpt>
<trkpt lat="37.800087000" lon="-121.970930000"><ele>143.4</ele><time>2026-09-13T00:00:00Z</time></trkpt>
<trkpt lat="37.800175000" lon="-121.970950000"><ele>143.4</ele><time>2026-09-13T00:00:00Z</time></trkpt>
<trkpt lat="37.800255000" lon="-121.970980000"><ele>143.4</ele><time>2026-09-13T00:00:00Z</time></trkpt>
<trkpt lat="37.800323000" lon="-121.971060000"><ele>143.4</ele><time>2026-09-13T00:00:00Z</time></trkpt>
<trkpt lat="37.800358000" lon="-121.971160000"><ele>143.5</ele><time>2026-09-13T00:00:00Z</time></trkpt>
<trkpt lat="37.800330000" lon="-121.971270000"><ele>143.5</ele><time>2026-09-13T00:00:00Z</time></trkpt>
<trkpt lat="37.800360000" lon="-121.971370000"><ele>143.6</ele><time>2026-09-13T00:00:00Z</time></trkpt>
<trkpt lat="37.800440000" lon="-121.971430000"><ele>143.6</ele><time>2026-09-13T00:00:00Z</time></trkpt>
<trkpt lat="37.800530000" lon="-121.971466000"><ele>143.7</ele><time>2026-09-13T00:00:00Z</time></trkpt>
<trkpt lat="37.800613000" lon="-121.971500000"><ele>143.8</ele><time>2026-09-13T00:00:00Z</time></trkpt>
<trkpt lat="37.800697000" lon="-121.971540000"><ele>143.9</ele><time>2026-09-13T00:00:00Z</time></trkpt>
<trkpt lat="37.800785000" lon="-121.971580000"><ele>144.2</ele><time>2026-09-13T00:00:00Z</time></trkpt>
<trkpt lat="37.800877000" lon="-121.971580000"><ele>144.5</ele><time>2026-09-13T00:00:00Z</time></trkpt>
<trkpt lat="37.800970000" lon="-121.971580000"><ele>144.8</ele><time>2026-09-13T00:00:00Z</time></trkpt>
<trkpt lat="37.801056000" lon="-121.971570000"><ele>145.2</ele><time>2026-09-13T00:00:00Z</time></trkpt>
<trkpt lat="37.801140000" lon="-121.971565000"><ele>145.5</ele><time>2026-09-13T00:00:00Z</time></trkpt>
<trkpt lat="37.801178000" lon="-121.971466000"><ele>145.8</ele><time>2026-09-13T00:00:00Z</time></trkpt>
<trkpt lat="37.801147000" lon="-121.971360000"><ele>146.2</ele><time>2026-09-13T00:00:00Z</time></trkpt>
<trkpt lat="37.801120000" lon="-121.971250000"><ele>146.6</ele><time>2026-09-13T00:00:00Z</time></trkpt>
<trkpt lat="37.801098000" lon="-121.971146000"><ele>147.0</ele><time>2026-09-13T00:00:00Z</time></trkpt>
<trkpt lat="37.801070000" lon="-121.971030000"><ele>147.4</ele><time>2026-09-13T00:00:00Z</time></trkpt>
<trkpt lat="37.801040000" lon="-121.970930000"><ele>147.7</ele><time>2026-09-13T00:00:00Z</time></trkpt>
<trkpt lat="37.801003000" lon="-121.970825000"><ele>148.0</ele><time>2026-09-13T00:00:00Z</time></trkpt>
<trkpt lat="37.800953000" lon="-121.970730000"><ele>148.2</ele><time>2026-09-13T00:00:00Z</time></trkpt>
<trkpt lat="37.800976000" lon="-121.970630000"><ele>148.3</ele><time>2026-09-13T00:00:00Z</time></trkpt>
<trkpt lat="37.801040000" lon="-121.970550000"><ele>148.4</ele><time>2026-09-13T00:00:00Z</time></trkpt>
<trkpt lat="37.801130000" lon="-121.970520000"><ele>148.5</ele><time>2026-09-13T00:00:00Z</time></trkpt>
<trkpt lat="37.801130000" lon="-121.970634000"><ele>148.4</ele><time>2026-09-13T00:00:00Z</time></trkpt>
<trkpt lat="37.801113000" lon="-121.970740000"><ele>148.3</ele><time>2026-09-13T00:00:00Z</time></trkpt>
<trkpt lat="37.801160000" lon="-121.970840000"><ele>148.1</ele><time>2026-09-13T00:00:00Z</time></trkpt>
<trkpt lat="37.801193000" lon="-121.970930000"><ele>147.9</ele><time>2026-09-13T00:00:00Z</time></trkpt>
<trkpt lat="37.801224000" lon="-121.971030000"><ele>147.6</ele><time>2026-09-13T00:00:00Z</time></trkpt>
<trkpt lat="37.801250000" lon="-121.971130000"><ele>147.4</ele><time>2026-09-13T00:00:00Z</time></trkpt>
<trkpt lat="37.801270000" lon="-121.971240000"><ele>147.0</ele><time>2026-09-13T00:00:00Z</time></trkpt>
<trkpt lat="37.801292000" lon="-121.971340000"><ele>146.6</ele><time>2026-09-13T00:00:00Z</time></trkpt>
<trkpt lat="37.801310000" lon="-121.971440000"><ele>146.3</ele><time>2026-09-13T00:00:00Z</time></trkpt>
<trkpt lat="37.801327000" lon="-121.971560000"><ele>145.8</ele><time>2026-09-13T00:00:00Z</time></trkpt>
<trkpt lat="37.801342000" lon="-121.971664000"><ele>145.3</ele><time>2026-09-13T00:00:00Z</time></trkpt>
<trkpt lat="37.801342000" lon="-121.971770000"><ele>144.7</ele><time>2026-09-13T00:00:00Z</time></trkpt>
<trkpt lat="37.801342000" lon="-121.971880000"><ele>144.1</ele><time>2026-09-13T00:00:00Z</time></trkpt>
<trkpt lat="37.801334000" lon="-121.971980000"><ele>143.5</ele><time>2026-09-13T00:00:00Z</time></trkpt>
<trkpt lat="37.801327000" lon="-121.972084000"><ele>142.7</ele><time>2026-09-13T00:00:00Z</time></trkpt>
<trkpt lat="37.801315000" lon="-121.972190000"><ele>142.1</ele><time>2026-09-13T00:00:00Z</time></trkpt>
<trkpt lat="37.801292000" lon="-121.972300000"><ele>141.4</ele><time>2026-09-13T00:00:00Z</time></trkpt>
<trkpt lat="37.801270000" lon="-121.972410000"><ele>140.7</ele><time>2026-09-13T00:00:00Z</time></trkpt>
<trkpt lat="37.801250000" lon="-121.972510000"><ele>140.1</ele><time>2026-09-13T00:00:00Z</time></trkpt>
<trkpt lat="37.801220000" lon="-121.972610000"><ele>139.4</ele><time>2026-09-13T00:00:00Z</time></trkpt>
<trkpt lat="37.801190000" lon="-121.972710000"><ele>138.7</ele><time>2026-09-13T00:00:00Z</time></trkpt>
<trkpt lat="37.801155000" lon="-121.972824000"><ele>138.1</ele><time>2026-09-13T00:00:00Z</time></trkpt>
<trkpt lat="37.801117000" lon="-121.972916000"><ele>137.5</ele><time>2026-09-13T00:00:00Z</time></trkpt>
<trkpt lat="37.801083000" lon="-121.973015000"><ele>137.1</ele><time>2026-09-13T00:00:00Z</time></trkpt>
<trkpt lat="37.801040000" lon="-121.973120000"><ele>136.7</ele><time>2026-09-13T00:00:00Z</time></trkpt>
<trkpt lat="37.801000000" lon="-121.973220000"><ele>136.4</ele><time>2026-09-13T00:00:00Z</time></trkpt>
<trkpt lat="37.800957000" lon="-121.973310000"><ele>136.0</ele><time>2026-09-13T00:00:00Z</time></trkpt>
<trkpt lat="37.800957000" lon="-121.973420000"><ele>135.7</ele><time>2026-09-13T00:00:00Z</time></trkpt>
<trkpt lat="37.801044000" lon="-121.973380000"><ele>135.5</ele><time>2026-09-13T00:00:00Z</time></trkpt>
<trkpt lat="37.801125000" lon="-121.973430000"><ele>135.2</ele><time>2026-09-13T00:00:00Z</time></trkpt>
<trkpt lat="37.801200000" lon="-121.973490000"><ele>135.0</ele><time>2026-09-13T00:00:00Z</time></trkpt>
<trkpt lat="37.801113000" lon="-121.973480000"><ele>134.8</ele><time>2026-09-13T00:00:00Z</time></trkpt>
<trkpt lat="37.801033000" lon="-121.973420000"><ele>134.6</ele><time>2026-09-13T00:00:00Z</time></trkpt>
<trkpt lat="37.800953000" lon="-121.973370000"><ele>134.5</ele><time>2026-09-13T00:00:00Z</time></trkpt>
<trkpt lat="37.800896000" lon="-121.973450000"><ele>134.2</ele><time>2026-09-13T00:00:00Z</time></trkpt>
<trkpt lat="37.800858000" lon="-121.973550000"><ele>133.7</ele><time>2026-09-13T00:00:00Z</time></trkpt>
<trkpt lat="37.800820000" lon="-121.973650000"><ele>133.3</ele><time>2026-09-13T00:00:00Z</time></trkpt>
<trkpt lat="37.800790000" lon="-121.973750000"><ele>132.8</ele><time>2026-09-13T00:00:00Z</time></trkpt>
<trkpt lat="37.800760000" lon="-121.973850000"><ele>132.4</ele><time>2026-09-13T00:00:00Z</time></trkpt>
<trkpt lat="37.800730000" lon="-121.973946000"><ele>131.9</ele><time>2026-09-13T00:00:00Z</time></trkpt>
<trkpt lat="37.800713000" lon="-121.974050000"><ele>131.5</ele><time>2026-09-13T00:00:00Z</time></trkpt>
<trkpt lat="37.800694000" lon="-121.974170000"><ele>131.0</ele><time>2026-09-13T00:00:00Z</time></trkpt>
<trkpt lat="37.800686000" lon="-121.974280000"><ele>130.5</ele><time>2026-09-13T00:00:00Z</time></trkpt>
<trkpt lat="37.800674000" lon="-121.974380000"><ele>130.3</ele><time>2026-09-13T00:00:00Z</time></trkpt>
<trkpt lat="37.800667000" lon="-121.974495000"><ele>130.0</ele><time>2026-09-13T00:00:00Z</time></trkpt>
<trkpt lat="37.800610000" lon="-121.974570000"><ele>129.9</ele><time>2026-09-13T00:00:00Z</time></trkpt>
<trkpt lat="37.800540000" lon="-121.974500000"><ele>130.0</ele><time>2026-09-13T00:00:00Z</time></trkpt>
<trkpt lat="37.800545000" lon="-121.974400000"><ele>130.2</ele><time>2026-09-13T00:00:00Z</time></trkpt>
<trkpt lat="37.800552000" lon="-121.974290000"><ele>130.2</ele><time>2026-09-13T00:00:00Z</time></trkpt>
<trkpt lat="37.800564000" lon="-121.974180000"><ele>130.2</ele><time>2026-09-13T00:00:00Z</time></trkpt>
<trkpt lat="37.800583000" lon="-121.974070000"><ele>130.2</ele><time>2026-09-13T00:00:00Z</time></trkpt>
<trkpt lat="37.800600000" lon="-121.973970000"><ele>130.4</ele><time>2026-09-13T00:00:00Z</time></trkpt>
<trkpt lat="37.800620000" lon="-121.973950000"><ele>130.7</ele><time>2026-09-13T00:00:00Z</time></trkpt>
</trkseg>
</trk>
</gpx>
