<?xml version="1.0" encoding="UTF-8"?>
<gpx
  version="1.1"
  creator="Runkeeper - http://www.runkeeper.com"
  xmlns:xsi="http://www.w3.org/2001/XMLSchema-instance"
  xmlns="http://www.topografix.com/GPX/1/1"
  xsi:schemaLocation="http://www.topografix.com/GPX/1/1 http://www.topografix.com/GPX/1/1/gpx.xsd"
  xmlns:gpxtpx="http://www.garmin.com/xmlschemas/TrackPointExtension/v1">
<trk>
  <name><![CDATA[Walking 7/31/26]]></name>
  <time>2026-08-01T00:00:00Z</time>
<trkseg>
<trkpt lat="37.813896000" lon="-121.976940000"><ele>125.7</ele><time>2026-08-01T00:00:00Z</time></trkpt>
<trkpt lat="37.813942000" lon="-121.976840000"><ele>125.6</ele><time>2026-08-01T00:00:00Z</time></trkpt>
<trkpt lat="37.813980000" lon="-121.976746000"><ele>125.5</ele><time>2026-08-01T00:00:00Z</time></trkpt>
<trkpt lat="37.814010000" lon="-121.976640000"><ele>125.6</ele><time>2026-08-01T00:00:00Z</time></trkpt>
<trkpt lat="37.814064000" lon="-121.976555000"><ele>125.6</ele><time>2026-08-01T00:00:00Z</time></trkpt>
<trkpt lat="37.814133000" lon="-121.976500000"><ele>125.5</ele><time>2026-08-01T00:00:00Z</time></trkpt>
<trkpt lat="37.814186000" lon="-121.976410000"><ele>125.5</ele><time>2026-08-01T00:00:00Z</time></trkpt>
<trkpt lat="37.814194000" lon="-121.976310000"><ele>125.5</ele><time>2026-08-01T00:00:00Z</time></trkpt>
<trkpt lat="37.814240000" lon="-121.976230000"><ele>125.5</ele><time>2026-08-01T00:00:00Z</time></trkpt>
<trkpt lat="37.814300000" lon="-121.976160000"><ele>125.5</ele><time>2026-08-01T00:00:00Z</time></trkpt>
<trkpt lat="37.814380000" lon="-121.976110000"><ele>125.5</ele><time>2026-08-01T00:00:00Z</time></trkpt>
<trkpt lat="37.814460000" lon="-121.976070000"><ele>125.6</ele><time>2026-08-01T00:00:00Z</time></trkpt>
<trkpt lat="37.814537000" lon="-121.976020000"><ele>125.7</ele><time>2026-08-01T00:00:00Z</time></trkpt>
<trkpt lat="37.814613000" lon="-121.975970000"><ele>125.8</ele><time>2026-08-01T00:00:00Z</time></trkpt>
<trkpt lat="37.814697000" lon="-121.975914000"><ele>125.8</ele><time>2026-08-01T00:00:00Z</time></trkpt>
<trkpt lat="37.814770000" lon="-121.975860000"><ele>125.8</ele><time>2026-08-01T00:00:00Z</time></trkpt>
<trkpt lat="37.814774000" lon="-121.975746000"><ele>125.9</ele><time>2026-08-01T00:00:00Z</time></trkpt>
<trkpt lat="37.814740000" lon="-121.975640000"><ele>126.0</ele><time>2026-08-01T00:00:00Z</time></trkpt>
<trkpt lat="37.814728000" lon="-121.975530000"><ele>126.0</ele><time>2026-08-01T00:00:00Z</time></trkpt>
<trkpt lat="37.814705000" lon="-121.975426000"><ele>126.0</ele><time>2026-08-01T00:00:00Z</time></trkpt>
<trkpt lat="37.814690000" lon="-121.975310000"><ele>126.0</ele><time>2026-08-01T00:00:00Z</time></trkpt>
<trkpt lat="37.814667000" lon="-121.975200000"><ele>126.0</ele><time>2026-08-01T00:00:00Z</time></trkpt>
<trkpt lat="37.814660000" lon="-121.975075000"><ele>126.1</ele><time>2026-08-01T00:00:00Z</time></trkpt>
<trkpt lat="37.814660000" lon="-121.974976000"><ele>126.2</ele><time>2026-08-01T00:00:00Z</time></trkpt>
<trkpt lat="37.814686000" lon="-121.974860000"><ele>126.3</ele><time>2026-08-01T00:00:00Z</time></trkpt>
<trkpt lat="37.814680000" lon="-121.974754000"><ele>126.4</ele><time>2026-08-01T00:00:00Z</time></trkpt>
<trkpt lat="37.814598000" lon="-121.974720000"><ele>126.5</ele><time>2026-08-01T00:00:00Z</time></trkpt>
<trkpt lat="37.814518000" lon="-121.974670000"><ele>126.5</ele><time>2026-08-01T00:00:00Z</time></trkpt>
<trkpt lat="37.814434000" lon="-121.974620000"><ele>126.6</ele><time>2026-08-01T00:00:00Z</time></trkpt>
<trkpt lat="37.814360000" lon="-121.974560000"><ele>126.7</ele><time>2026-08-01T00:00:00Z</time></trkpt>
<trkpt lat="37.814278000" lon="-121.974510000"><ele>126.8</ele><time>2026-08-01T00:00:00Z</time></trkpt>
<trkpt lat="37.814205000" lon="-121.974464000"><ele>126.9</ele><time>2026-08-01T00:00:00Z</time></trkpt>
<trkpt lat="37.814125000" lon="-121.974434000"><ele>127.0</ele><time>2026-08-01T00:00:00Z</time></trkpt>
<trkpt lat="37.814053000" lon="-121.974370000"><ele>127.1</ele><time>2026-08-01T00:00:00Z</time></trkpt>
<trkpt lat="37.813980000" lon="-121.974330000"><ele>127.1</ele><time>2026-08-01T00:00:00Z</time></trkpt>
<trkpt lat="37.813908000" lon="-121.974266000"><ele>127.1</ele><time>2026-08-01T00:00:00Z</time></trkpt>
<trkpt lat="37.813830000" lon="-121.974230000"><ele>127.0</ele><time>2026-08-01T00:00:00Z</time></trkpt>
<trkpt lat="37.813755000" lon="-121.974170000"><ele>126.9</ele><time>2026-08-01T00:00:00Z</time></trkpt>
<trkpt lat="37.813683000" lon="-121.974110000"><ele>126.8</ele><time>2026-08-01T00:00:00Z</time></trkpt>
<trkpt lat="37.813595000" lon="-121.974060000"><ele>126.7</ele><time>2026-08-01T00:00:00Z</time></trkpt>
<trkpt lat="37.813520000" lon="-121.974030000"><ele>126.7</ele><time>2026-08-01T00:00:00Z</time></trkpt>
<trkpt lat="37.813435000" lon="-121.973990000"><ele>126.7</ele><time>2026-08-01T00:00:00Z</time></trkpt>
<trkpt lat="37.813360000" lon="-121.973946000"><ele>126.6</ele><time>2026-08-01T00:00:00Z</time></trkpt>
<trkpt lat="37.813404000" lon="-121.973850000"><ele>126.5</ele><time>2026-08-01T00:00:00Z</time></trkpt>
<trkpt lat="37.813488000" lon="-121.973816000"><ele>126.5</ele><time>2026-08-01T00:00:00Z</time></trkpt>
<trkpt lat="37.813560000" lon="-121.973870000"><ele>126.5</ele><time>2026-08-01T00:00:00Z</time></trkpt>
<trkpt lat="37.813644000" lon="-121.973850000"><ele>126.5</ele><time>2026-08-01T00:00:00Z</time></trkpt>
<trkpt lat="37.813683000" lon="-121.973740000"><ele>126.5</ele><time>2026-08-01T00:00:00Z</time></trkpt>
<trkpt lat="37.813740000" lon="-121.973650000"><ele>126.6</ele><time>2026-08-01T00:00:00Z</time></trkpt>
<trkpt lat="37.813786000" lon="-121.973564000"><ele>126.7</ele><time>2026-08-01T00:00:00Z</time></trkpt>
<trkpt lat="37.813824000" lon="-121.973460000"><ele>126.8</ele><time>2026-08-01T00:00:00Z</time></trkpt>
<trkpt lat="37.813873000" lon="-121.973370000"><ele>126.9</ele><time>2026-08-01T00:00:00Z</time></trkpt>
<trkpt lat="37.813923000" lon="-121.973290000"><ele>127.0</ele><time>2026-08-01T00:00:00Z</time></trkpt>
<trkpt lat="37.813970000" lon="-121.973206000"><ele>127.1</ele><time>2026-08-01T00:00:00Z</time></trkpt>
<trkpt lat="37.814022000" lon="-121.973120000"><ele>127.2</ele><time>2026-08-01T00:00:00Z</time></trkpt>
<trkpt lat="37.814106000" lon="-121.973140000"><ele>127.2</ele><time>2026-08-01T00:00:00Z</time></trkpt>
<trkpt lat="37.814194000" lon="-121.973170000"><ele>127.2</ele><time>2026-08-01T00:00:00Z</time></trkpt>
<trkpt lat="37.814274000" lon="-121.973200000"><ele>127.2</ele><time>2026-08-01T00:00:00Z</time></trkpt>
<trkpt lat="37.814360000" lon="-121.973210000"><ele>127.2</ele><time>2026-08-01T00:00:00Z</time></trkpt>
<trkpt lat="37.814420000" lon="-121.973300000"><ele>127.2</ele><time>2026-08-01T00:00:00Z</time></trkpt>
<trkpt lat="37.814460000" lon="-121.973390000"><ele>127.2</ele><time>2026-08-01T00:00:00Z</time></trkpt>
<trkpt lat="37.814510000" lon="-121.973490000"><ele>127.2</ele><time>2026-08-01T00:00:00Z</time></trkpt>
<trkpt lat="37.814575000" lon="-121.973560000"><ele>127.1</ele><time>2026-08-01T00:00:00Z</time></trkpt>
<trkpt lat="37.814640000" lon="-121.973625000"><ele>127.0</ele><time>2026-08-01T00:00:00Z</time></trkpt>
<trkpt lat="37.814710000" lon="-121.973690000"><ele>127.0</ele><time>2026-08-01T00:00:00Z</time></trkpt>
<trkpt lat="37.814777000" lon="-121.973760000"><ele>127.0</ele><time>2026-08-01T00:00:00Z</time></trkpt>
<trkpt lat="37.814840000" lon="-121.973830000"><ele>127.0</ele><time>2026-08-01T00:00:00Z</time></trkpt>
<trkpt lat="37.814907000" lon="-121.973900000"><ele>127.0</ele><time>2026-08-01T00:00:00Z</time></trkpt>
<trkpt lat="37.814972000" lon="-121.973970000"><ele>127.0</ele><time>2026-08-01T00:00:00Z</time></trkpt>
<trkpt lat="37.815000000" lon="-121.974070000"><ele>127.0</ele><time>2026-08-01T00:00:00Z</time></trkpt>
<trkpt lat="37.814957000" lon="-121.974174000"><ele>127.0</ele><time>2026-08-01T00:00:00Z</time></trkpt>
<trkpt lat="37.814922000" lon="-121.974266000"><ele>127.0</ele><time>2026-08-01T00:00:00Z</time></trkpt>
<trkpt lat="37.814880000" lon="-121.974365000"><ele>127.0</ele><time>2026-08-01T00:00:00Z</time></trkpt>
<trkpt lat="37.814840000" lon="-121.974470000"><ele>127.0</ele><time>2026-08-01T00:00:00Z</time></trkpt>
<trkpt lat="37.814793000" lon="-121.974560000"><ele>127.0</ele><time>2026-08-01T00:00:00Z</time></trkpt>
<trkpt lat="37.814846000" lon="-121.974490000"><ele>127.0</ele><time>2026-08-01T00:00:00Z</time></trkpt>
<trkpt lat="37.814877000" lon="-121.974370000"><ele>127.0</ele><time>2026-08-01T00:00:00Z</time></trkpt>
<trkpt lat="37.814910000" lon="-121.974260000"><ele>127.0</ele><time>2026-08-01T00:00:00Z</time></trkpt>
<trkpt lat="37.814940000" lon="-121.974160000"><ele>127.0</ele><time>2026-08-01T00:00:00Z</time></trkpt>
<trkpt lat="37.814976000" lon="-121.974070000"><ele>127.0</ele><time>2026-08-01T00:00:00Z</time></trkpt>
<trkpt lat="37.815018000" lon="-121.973960000"><ele>127.0</ele><time>2026-08-01T00:00:00Z</time></trkpt>
<trkpt lat="37.815070000" lon="-121.973880000"><ele>127.0</ele><time>2026-08-01T00:00:00Z</time></trkpt>
<trkpt lat="37.815125000" lon="-121.973790000"><ele>127.0</ele><time>2026-08-01T00:00:00Z</time></trkpt>
<trkpt lat="37.815178000" lon="-121.973700000"><ele>127.0</ele><time>2026-08-01T00:00:00Z</time></trkpt>
<trkpt lat="37.815230000" lon="-121.973620000"><ele>127.0</ele><time>2026-08-01T00:00:00Z</time></trkpt>
<trkpt lat="37.815285000" lon="-121.973540000"><ele>127.0</ele><time>2026-08-01T00:00:00Z</time></trkpt>
<trkpt lat="37.815340000" lon="-121.973440000"><ele>127.0</ele><time>2026-08-01T00:00:00Z</time></trkpt>
<trkpt lat="37.815400000" lon="-121.973350000"><ele>127.1</ele><time>2026-08-01T00:00:00Z</time></trkpt>
<trkpt lat="37.815453000" lon="-121.973250000"><ele>127.2</ele><time>2026-08-01T00:00:00Z</time></trkpt>
<trkpt lat="37.815502000" lon="-121.973170000"><ele>127.3</ele><time>2026-08-01T00:00:00Z</time></trkpt>
<trkpt lat="37.815560000" lon="-121.973076000"><ele>127.4</ele><time>2026-08-01T00:00:00Z</time></trkpt>
<trkpt lat="37.815610000" lon="-121.972984000"><ele>127.5</ele><time>2026-08-01T00:00:00Z</time></trkpt>
<trkpt lat="37.815666000" lon="-121.972900000"><ele>127.5</ele><time>2026-08-01T00:00:00Z</time></trkpt>
<trkpt lat="37.815700000" lon="-121.972800000"><ele>127.6</ele><time>2026-08-01T00:00:00Z</time></trkpt>
<trkpt lat="37.815643000" lon="-121.972725000"><ele>127.7</ele><time>2026-08-01T00:00:00Z</time></trkpt>
<trkpt lat="37.815575000" lon="-121.972664000"><ele>127.8</ele><time>2026-08-01T00:00:00Z</time></trkpt>
<trkpt lat="37.815506000" lon="-121.972595000"><ele>127.9</ele><time>2026-08-01T00:00:00Z</time></trkpt>
<trkpt lat="37.815440000" lon="-121.972520000"><ele>128.0</ele><time>2026-08-01T00:00:00Z</time></trkpt>
<trkpt lat="37.815370000" lon="-121.972450000"><ele>128.0</ele><time>2026-08-01T00:00:00Z</time></trkpt>
<trkpt lat="37.815304000" lon="-121.972390000"><ele>128.0</ele><time>2026-08-01T00:00:00Z</time></trkpt>
<trkpt lat="37.815247000" lon="-121.972320000"><ele>128.0</ele><time>2026-08-01T00:00:00Z</time></trkpt>
<trkpt lat="37.815163000" lon="-121.972275000"><ele>128.0</ele><time>2026-08-01T00:00:00Z</time></trkpt>
<trkpt lat="37.815075000" lon="-121.972240000"><ele>128.0</ele><time>2026-08-01T00:00:00Z</time></trkpt>
<trkpt lat="37.814990000" lon="-121.972244000"><ele>128.0</ele><time>2026-08-01T00:00:00Z</time></trkpt>
<trkpt lat="37.814922000" lon="-121.972310000"><ele>128.0</ele><time>2026-08-01T00:00:00Z</time></trkpt>
<trkpt lat="37.814860000" lon="-121.972404000"><ele>128.0</ele><time>2026-08-01T00:00:00Z</time></trkpt>
<trkpt lat="37.814808000" lon="-121.972500000"><ele>128.0</ele><time>2026-08-01T00:00:00Z</time></trkpt>
<trkpt lat="37.814754000" lon="-121.972595000"><ele>127.9</ele><time>2026-08-01T00:00:00Z</time></trkpt>
<trkpt lat="37.814713000" lon="-121.972694000"><ele>127.8</ele><time>2026-08-01T00:00:00Z</time></trkpt>
<trkpt lat="37.814650000" lon="-121.972780000"><ele>127.7</ele><time>2026-08-01T00:00:00Z</time></trkpt>
<trkpt lat="37.814613000" lon="-121.972880000"><ele>127.7</ele><time>2026-08-01T00:00:00Z</time></trkpt>
<trkpt lat="37.814552000" lon="-121.972960000"><ele>127.7</ele><time>2026-08-01T00:00:00Z</time></trkpt>
<trkpt lat="37.814490000" lon="-121.973045000"><ele>127.7</ele><time>2026-08-01T00:00:00Z</time></trkpt>
<trkpt lat="37.814426000" lon="-121.973130000"><ele>127.6</ele><time>2026-08-01T00:00:00Z</time></trkpt>
<trkpt lat="37.814392000" lon="-121.973230000"><ele>127.5</ele><time>2026-08-01T00:00:00Z</time></trkpt>
<trkpt lat="37.814304000" lon="-121.973230000"><ele>127.5</ele><time>2026-08-01T00:00:00Z</time></trkpt>
<trkpt lat="37.814217000" lon="-121.973200000"><ele>127.5</ele><time>2026-08-01T00:00:00Z</time></trkpt>
<trkpt lat="37.814130000" lon="-121.973170000"><ele>127.4</ele><time>2026-08-01T00:00:00Z</time></trkpt>
<trkpt lat="37.814045000" lon="-121.973160000"><ele>127.4</ele><time>2026-08-01T00:00:00Z</time></trkpt>
<trkpt lat="37.814075000" lon="-121.973060000"><ele>127.4</ele><time>2026-08-01T00:00:00Z</time></trkpt>
<trkpt lat="37.814137000" lon="-121.972970000"><ele>127.5</ele><time>2026-08-01T00:00:00Z</time></trkpt>
<trkpt lat="37.814186000" lon="-121.972880000"><ele>127.5</ele><time>2026-08-01T00:00:00Z</time></trkpt>
<trkpt lat="37.814243000" lon="-121.972786000"><ele>127.5</ele><time>2026-08-01T00:00:00Z</time></trkpt>
<trkpt lat="37.814293000" lon="-121.972694000"><ele>127.4</ele><time>2026-08-01T00:00:00Z</time></trkpt>
<trkpt lat="37.814330000" lon="-121.972600000"><ele>127.4</ele><time>2026-08-01T00:00:00Z</time></trkpt>
<trkpt lat="37.814384000" lon="-121.972520000"><ele>127.5</ele><time>2026-08-01T00:00:00Z</time></trkpt>
<trkpt lat="37.814434000" lon="-121.972430000"><ele>127.5</ele><time>2026-08-01T00:00:00Z</time></trkpt>
<trkpt lat="37.814487000" lon="-121.972340000"><ele>127.5</ele><time>2026-08-01T00:00:00Z</time></trkpt>
<trkpt lat="37.814533000" lon="-121.972250000"><ele>127.6</ele><time>2026-08-01T00:00:00Z</time></trkpt>
<trkpt lat="37.814583000" lon="-121.972150000"><ele>127.7</ele><time>2026-08-01T00:00:00Z</time></trkpt>
<trkpt lat="37.814636000" lon="-121.972070000"><ele>127.8</ele><time>2026-08-01T00:00:00Z</time></trkpt>
<trkpt lat="37.814690000" lon="-121.971980000"><ele>127.9</ele><time>2026-08-01T00:00:00Z</time></trkpt>
<trkpt lat="37.814754000" lon="-121.971900000"><ele>128.0</ele><time>2026-08-01T00:00:00Z</time></trkpt>
<trkpt lat="37.814808000" lon="-121.971810000"><ele>128.1</ele><time>2026-08-01T00:00:00Z</time></trkpt>
<trkpt lat="37.814857000" lon="-121.971725000"><ele>128.3</ele><time>2026-08-01T00:00:00Z</time></trkpt>
<trkpt lat="37.814907000" lon="-121.971630000"><ele>128.5</ele><time>2026-08-01T00:00:00Z</time></trkpt>
<trkpt lat="37.814964000" lon="-121.971550000"><ele>128.7</ele><time>2026-08-01T00:00:00Z</time></trkpt>
<trkpt lat="37.815010000" lon="-121.971460000"><ele>128.8</ele><time>2026-08-01T00:00:00Z</time></trkpt>
<trkpt lat="37.815006000" lon="-121.971350000"><ele>128.9</ele><time>2026-08-01T00:00:00Z</time></trkpt>
<trkpt lat="37.814972000" lon="-121.971250000"><ele>129.1</ele><time>2026-08-01T00:00:00Z</time></trkpt>
<trkpt lat="37.814930000" lon="-121.971160000"><ele>129.3</ele><time>2026-08-01T00:00:00Z</time></trkpt>
<trkpt lat="37.814938000" lon="-121.971050000"><ele>129.5</ele><time>2026-08-01T00:00:00Z</time></trkpt>
<trkpt lat="37.814990000" lon="-121.970955000"><ele>129.5</ele><time>2026-08-01T00:00:00Z</time></trkpt>
<trkpt lat="37.815050000" lon="-121.970860000"><ele>129.6</ele><time>2026-08-01T00:00:00Z</time></trkpt>
<trkpt lat="37.815136000" lon="-121.970894000"><ele>129.7</ele><time>2026-08-01T00:00:00Z</time></trkpt>
<trkpt lat="37.815212000" lon="-121.970960000"><ele>129.8</ele><time>2026-08-01T00:00:00Z</time></trkpt>
<trkpt lat="37.815277000" lon="-121.971016000"><ele>129.8</ele><time>2026-08-01T00:00:00Z</time></trkpt>
<trkpt lat="37.815353000" lon="-121.971085000"><ele>129.8</ele><time>2026-08-01T00:00:00Z</time></trkpt>
<trkpt lat="37.815426000" lon="-121.971150000"><ele>129.9</ele><time>2026-08-01T00:00:00Z</time></trkpt>
<trkpt lat="37.815495000" lon="-121.971214000"><ele>130.0</ele><time>2026-08-01T00:00:00Z</time></trkpt>
<trkpt lat="37.815563000" lon="-121.971275000"><ele>130.0</ele><time>2026-08-01T00:00:00Z</time></trkpt>
<trkpt lat="37.815628000" lon="-121.971350000"><ele>130.0</ele><time>2026-08-01T00:00:00Z</time></trkpt>
<trkpt lat="37.815697000" lon="-121.971410000"><ele>129.9</ele><time>2026-08-01T00:00:00Z</time></trkpt>
<trkpt lat="37.815765000" lon="-121.971480000"><ele>129.8</ele><time>2026-08-01T00:00:00Z</time></trkpt>
<trkpt lat="37.815830000" lon="-121.971550000"><ele>129.7</ele><time>2026-08-01T00:00:00Z</time></trkpt>
<trkpt lat="37.815895000" lon="-121.971620000"><ele>129.6</ele><time>2026-08-01T00:00:00Z</time></trkpt>
<trkpt lat="37.815956000" lon="-121.971690000"><ele>129.5</ele><time>2026-08-01T00:00:00Z</time></trkpt>
<trkpt lat="37.816025000" lon="-121.971756000"><ele>129.5</ele><time>2026-08-01T00:00:00Z</time></trkpt>
<trkpt lat="37.816093000" lon="-121.971825000"><ele>129.5</ele><time>2026-08-01T00:00:00Z</time></trkpt>
<trkpt lat="37.816160000" lon="-121.971886000"><ele>129.5</ele><time>2026-08-01T00:00:00Z</time></trkpt>
<trkpt lat="37.816230000" lon="-121.971950000"><ele>129.5</ele><time>2026-08-01T00:00:00Z</time></trkpt>
<trkpt lat="37.816296000" lon="-121.972015000"><ele>129.5</ele><time>2026-08-01T00:00:00Z</time></trkpt>
<trkpt lat="37.816372000" lon="-121.972084000"><ele>129.5</ele><time>2026-08-01T00:00:00Z</time></trkpt>
<trkpt lat="37.816450000" lon="-121.972150000"><ele>129.6</ele><time>2026-08-01T00:00:00Z</time></trkpt>
<trkpt lat="37.816520000" lon="-121.972230000"><ele>129.7</ele><time>2026-08-01T00:00:00Z</time></trkpt>
<trkpt lat="37.816590000" lon="-121.972300000"><ele>129.8</ele><time>2026-08-01T00:00:00Z</time></trkpt>
<trkpt lat="37.816650000" lon="-121.972380000"><ele>129.9</ele><time>2026-08-01T00:00:00Z</time></trkpt>
<trkpt lat="37.816730000" lon="-121.972435000"><ele>130.0</ele><time>2026-08-01T00:00:00Z</time></trkpt>
<trkpt lat="37.816800000" lon="-121.972510000"><ele>130.0</ele><time>2026-08-01T00:00:00Z</time></trkpt>
<trkpt lat="37.816868000" lon="-121.972590000"><ele>130.0</ele><time>2026-08-01T00:00:00Z</time></trkpt>
<trkpt lat="37.816917000" lon="-121.972670000"><ele>130.0</ele><time>2026-08-01T00:00:00Z</time></trkpt>
<trkpt lat="37.816883000" lon="-121.972770000"><ele>130.1</ele><time>2026-08-01T00:00:00Z</time></trkpt>
<trkpt lat="37.816822000" lon="-121.972860000"><ele>130.2</ele><time>2026-08-01T00:00:00Z</time></trkpt>
<trkpt lat="37.816757000" lon="-121.972940000"><ele>130.3</ele><time>2026-08-01T00:00:00Z</time></trkpt>
<trkpt lat="37.816696000" lon="-121.973020000"><ele>130.3</ele><time>2026-08-01T00:00:00Z</time></trkpt>
<trkpt lat="37.816635000" lon="-121.973114000"><ele>130.3</ele><time>2026-08-01T00:00:00Z</time></trkpt>
<trkpt lat="37.816590000" lon="-121.973210000"><ele>130.2</ele><time>2026-08-01T00:00:00Z</time></trkpt>
<trkpt lat="37.816555000" lon="-121.973310000"><ele>130.1</ele><time>2026-08-01T00:00:00Z</time></trkpt>
<trkpt lat="37.816475000" lon="-121.973370000"><ele>129.9</ele><time>2026-08-01T00:00:00Z</time></trkpt>
<trkpt lat="37.816383000" lon="-121.973360000"><ele>129.7</ele><time>2026-08-01T00:00:00Z</time></trkpt>
<trkpt lat="37.816315000" lon="-121.973300000"><ele>129.5</ele><time>2026-08-01T00:00:00Z</time></trkpt>
<trkpt lat="37.816250000" lon="-121.973230000"><ele>129.4</ele><time>2026-08-01T00:00:00Z</time></trkpt>
<trkpt lat="37.816185000" lon="-121.973160000"><ele>129.1</ele><time>2026-08-01T00:00:00Z</time></trkpt>
<trkpt lat="37.816116000" lon="-121.973090000"><ele>128.8</ele><time>2026-08-01T00:00:00Z</time></trkpt>
<trkpt lat="37.816048000" lon="-121.973020000"><ele>128.5</ele><time>2026-08-01T00:00:00Z</time></trkpt>
<trkpt lat="37.815975000" lon="-121.972950000"><ele>128.5</ele><time>2026-08-01T00:00:00Z</time></trkpt>
<trkpt lat="37.815910000" lon="-121.972885000"><ele>128.4</ele><time>2026-08-01T00:00:00Z</time></trkpt>
<trkpt lat="37.815895000" lon="-121.972990000"><ele>128.5</ele><time>2026-08-01T00:00:00Z</time></trkpt>
<trkpt lat="37.815968000" lon="-121.973070000"><ele>128.5</ele><time>2026-08-01T00:00:00Z</time></trkpt>
<trkpt lat="37.816032000" lon="-121.973150000"><ele>128.8</ele><time>2026-08-01T00:00:00Z</time></trkpt>
<trkpt lat="37.816113000" lon="-121.973220000"><ele>129.2</ele><time>2026-08-01T00:00:00Z</time></trkpt>
<trkpt lat="37.816190000" lon="-121.973280000"><ele>129.5</ele><time>2026-08-01T00:00:00Z</time></trkpt>
<trkpt lat="37.816265000" lon="-121.973350000"><ele>130.0</ele><time>2026-08-01T00:00:00Z</time></trkpt>
<trkpt lat="37.816334000" lon="-121.973404000"><ele>130.5</ele><time>2026-08-01T00:00:00Z</time></trkpt>
<trkpt lat="37.816418000" lon="-121.973440000"><ele>131.1</ele><time>2026-08-01T00:00:00Z</time></trkpt>
<trkpt lat="37.816498000" lon="-121.973480000"><ele>131.7</ele><time>2026-08-01T00:00:00Z</time></trkpt>
<trkpt lat="37.816520000" lon="-121.973590000"><ele>132.3</ele><time>2026-08-01T00:00:00Z</time></trkpt>
<trkpt lat="37.816532000" lon="-121.973700000"><ele>132.8</ele><time>2026-08-01T00:00:00Z</time></trkpt>
<trkpt lat="37.816560000" lon="-121.973810000"><ele>133.3</ele><time>2026-08-01T00:00:00Z</time></trkpt>
<trkpt lat="37.816597000" lon="-121.973910000"><ele>133.6</ele><time>2026-08-01T00:00:00Z</time></trkpt>
<trkpt lat="37.816643000" lon="-121.974010000"><ele>133.9</ele><time>2026-08-01T00:00:00Z</time></trkpt>
<trkpt lat="37.816685000" lon="-121.974100000"><ele>134.0</ele><time>2026-08-01T00:00:00Z</time></trkpt>
<trkpt lat="37.816660000" lon="-121.974200000"><ele>134.1</ele><time>2026-08-01T00:00:00Z</time></trkpt>
<trkpt lat="37.816593000" lon="-121.974260000"><ele>134.0</ele><time>2026-08-01T00:00:00Z</time></trkpt>
<trkpt lat="37.816500000" lon="-121.974290000"><ele>133.8</ele><time>2026-08-01T00:00:00Z</time></trkpt>
<trkpt lat="37.816418000" lon="-121.974300000"><ele>133.5</ele><time>2026-08-01T00:00:00Z</time></trkpt>
<trkpt lat="37.816322000" lon="-121.974290000"><ele>133.2</ele><time>2026-08-01T00:00:00Z</time></trkpt>
<trkpt lat="37.816240000" lon="-121.974290000"><ele>132.7</ele><time>2026-08-01T00:00:00Z</time></trkpt>
<trkpt lat="37.816154000" lon="-121.974290000"><ele>132.3</ele><time>2026-08-01T00:00:00Z</time></trkpt>
<trkpt lat="37.816074000" lon="-121.974280000"><ele>131.9</ele><time>2026-08-01T00:00:00Z</time></trkpt>
<trkpt lat="37.815990000" lon="-121.974280000"><ele>131.7</ele><time>2026-08-01T00:00:00Z</time></trkpt>
<trkpt lat="37.815910000" lon="-121.974290000"><ele>131.5</ele><time>2026-08-01T00:00:00Z</time></trkpt>
<trkpt lat="37.815826000" lon="-121.974320000"><ele>131.5</ele><time>2026-08-01T00:00:00Z</time></trkpt>
<trkpt lat="37.815900000" lon="-121.974370000"><ele>131.5</ele><time>2026-08-01T00:00:00Z</time></trkpt>
<trkpt lat="37.815983000" lon="-121.974365000"><ele>131.7</ele><time>2026-08-01T00:00:00Z</time></trkpt>
<trkpt lat="37.816070000" lon="-121.974360000"><ele>132.0</ele><time>2026-08-01T00:00:00Z</time></trkpt>
<trkpt lat="37.816154000" lon="-121.974350000"><ele>132.4</ele><time>2026-08-01T00:00:00Z</time></trkpt>
<trkpt lat="37.816250000" lon="-121.974350000"><ele>132.7</ele><time>2026-08-01T00:00:00Z</time></trkpt>
<trkpt lat="37.816340000" lon="-121.974340000"><ele>133.3</ele><time>2026-08-01T00:00:00Z</time></trkpt>
<trkpt lat="37.816437000" lon="-121.974340000"><ele>133.9</ele><time>2026-08-01T00:00:00Z</time></trkpt>
<trkpt lat="37.816530000" lon="-121.974320000"><ele>134.5</ele><time>2026-08-01T00:00:00Z</time></trkpt>
<trkpt lat="37.816616000" lon="-121.974280000"><ele>135.1</ele><time>2026-08-01T00:00:00Z</time></trkpt>
<trkpt lat="37.816685000" lon="-121.974220000"><ele>135.6</ele><time>2026-08-01T00:00:00Z</time></trkpt>
<trkpt lat="37.816757000" lon="-121.974180000"><ele>136.1</ele><time>2026-08-01T00:00:00Z</time></trkpt>
<trkpt lat="37.816840000" lon="-121.974236000"><ele>136.5</ele><time>2026-08-01T00:00:00Z</time></trkpt>
<trkpt lat="37.816925000" lon="-121.974270000"><ele>136.9</ele><time>2026-08-01T00:00:00Z</time></trkpt>
<trkpt lat="37.817013000" lon="-121.974280000"><ele>137.2</ele><time>2026-08-01T00:00:00Z</time></trkpt>
<trkpt lat="37.817110000" lon="-121.974280000"><ele>137.5</ele><time>2026-08-01T00:00:00Z</time></trkpt>
<trkpt lat="37.817192000" lon="-121.974280000"><ele>137.7</ele><time>2026-08-01T00:00:00Z</time></trkpt>
<trkpt lat="37.817276000" lon="-121.974270000"><ele>137.9</ele><time>2026-08-01T00:00:00Z</time></trkpt>
<trkpt lat="37.817364000" lon="-121.974260000"><ele>137.9</ele><time>2026-08-01T00:00:00Z</time></trkpt>
<trkpt lat="37.817455000" lon="-121.974260000"><ele>137.9</ele><time>2026-08-01T00:00:00Z</time></trkpt>
<trkpt lat="37.817543000" lon="-121.974260000"><ele>137.9</ele><time>2026-08-01T00:00:00Z</time></trkpt>
<trkpt lat="37.817640000" lon="-121.974280000"><ele>137.9</ele><time>2026-08-01T00:00:00Z</time></trkpt>
<trkpt lat="37.817720000" lon="-121.974290000"><ele>138.0</ele><time>2026-08-01T00:00:00Z</time></trkpt>
<trkpt lat="37.817810000" lon="-121.974280000"><ele>138.1</ele><time>2026-08-01T00:00:00Z</time></trkpt>
<trkpt lat="37.817886000" lon="-121.974330000"><ele>138.2</ele><time>2026-08-01T00:00:00Z</time></trkpt>
<trkpt lat="37.817913000" lon="-121.974440000"><ele>138.3</ele><time>2026-08-01T00:00:00Z</time></trkpt>
<trkpt lat="37.817932000" lon="-121.974550000"><ele>138.4</ele><time>2026-08-01T00:00:00Z</time></trkpt>
<trkpt lat="37.817930000" lon="-121.974660000"><ele>138.5</ele><time>2026-08-01T00:00:00Z</time></trkpt>
<trkpt lat="37.817932000" lon="-121.974785000"><ele>138.5</ele><time>2026-08-01T00:00:00Z</time></trkpt>
<trkpt lat="37.817936000" lon="-121.974890000"><ele>138.7</ele><time>2026-08-01T00:00:00Z</time></trkpt>
<trkpt lat="37.817936000" lon="-121.975010000"><ele>138.8</ele><time>2026-08-01T00:00:00Z</time></trkpt>
<trkpt lat="37.817920000" lon="-121.975110000"><ele>138.9</ele><time>2026-08-01T00:00:00Z</time></trkpt>
<trkpt lat="37.817913000" lon="-121.975220000"><ele>138.9</ele><time>2026-08-01T00:00:00Z</time></trkpt>
<trkpt lat="37.817913000" lon="-121.975334000"><ele>138.8</ele><time>2026-08-01T00:00:00Z</time></trkpt>
<trkpt lat="37.817913000" lon="-121.975440000"><ele>138.6</ele><time>2026-08-01T00:00:00Z</time></trkpt>
<trkpt lat="37.817913000" lon="-121.975555000"><ele>138.5</ele><time>2026-08-01T00:00:00Z</time></trkpt>
<trkpt lat="37.817900000" lon="-121.975660000"><ele>138.3</ele><time>2026-08-01T00:00:00Z</time></trkpt>
<trkpt lat="37.817886000" lon="-121.975780000"><ele>138.1</ele><time>2026-08-01T00:00:00Z</time></trkpt>
<trkpt lat="37.817880000" lon="-121.975876000"><ele>138.0</ele><time>2026-08-01T00:00:00Z</time></trkpt>
<trkpt lat="37.817844000" lon="-121.975990000"><ele>137.8</ele><time>2026-08-01T00:00:00Z</time></trkpt>
<trkpt lat="37.817760000" lon="-121.976006000"><ele>137.6</ele><time>2026-08-01T00:00:00Z</time></trkpt>
<trkpt lat="37.817680000" lon="-121.975980000"><ele>137.5</ele><time>2026-08-01T00:00:00Z</time></trkpt>
<trkpt lat="37.817590000" lon="-121.975960000"><ele>137.3</ele><time>2026-08-01T00:00:00Z</time></trkpt>
<trkpt lat="37.817497000" lon="-121.975950000"><ele>137.3</ele><time>2026-08-01T00:00:00Z</time></trkpt>
<trkpt lat="37.817406000" lon="-121.975940000"><ele>137.3</ele><time>2026-08-01T00:00:00Z</time></trkpt>
<trkpt lat="37.817314000" lon="-121.975920000"><ele>137.4</ele><time>2026-08-01T00:00:00Z</time></trkpt>
<trkpt lat="37.817223000" lon="-121.975900000"><ele>137.5</ele><time>2026-08-01T00:00:00Z</time></trkpt>
<trkpt lat="37.817173000" lon="-121.975815000"><ele>137.5</ele><time>2026-08-01T00:00:00Z</time></trkpt>
<trkpt lat="37.817154000" lon="-121.975690000"><ele>137.6</ele><time>2026-08-01T00:00:00Z</time></trkpt>
<trkpt lat="37.817165000" lon="-121.975580000"><ele>137.6</ele><time>2026-08-01T00:00:00Z</time></trkpt>
<trkpt lat="37.817165000" lon="-121.975470000"><ele>137.6</ele><time>2026-08-01T00:00:00Z</time></trkpt>
<trkpt lat="37.817165000" lon="-121.975360000"><ele>137.6</ele><time>2026-08-01T00:00:00Z</time></trkpt>
<trkpt lat="37.817123000" lon="-121.975450000"><ele>137.6</ele><time>2026-08-01T00:00:00Z</time></trkpt>
<trkpt lat="37.817127000" lon="-121.975555000"><ele>137.6</ele><time>2026-08-01T00:00:00Z</time></trkpt>
<trkpt lat="37.817120000" lon="-121.975660000"><ele>137.5</ele><time>2026-08-01T00:00:00Z</time></trkpt>
<trkpt lat="37.817100000" lon="-121.975780000"><ele>137.3</ele><time>2026-08-01T00:00:00Z</time></trkpt>
<trkpt lat="37.817074000" lon="-121.975890000"><ele>137.0</ele><time>2026-08-01T00:00:00Z</time></trkpt>
<trkpt lat="37.816980000" lon="-121.975900000"><ele>136.7</ele><time>2026-08-01T00:00:00Z</time></trkpt>
<trkpt lat="37.816895000" lon="-121.975880000"><ele>136.4</ele><time>2026-08-01T00:00:00Z</time></trkpt>
<trkpt lat="37.816822000" lon="-121.975940000"><ele>136.0</ele><time>2026-08-01T00:00:00Z</time></trkpt>
<trkpt lat="37.816740000" lon="-121.975914000"><ele>135.7</ele><time>2026-08-01T00:00:00Z</time></trkpt>
<trkpt lat="37.816650000" lon="-121.975890000"><ele>135.5</ele><time>2026-08-01T00:00:00Z</time></trkpt>
<trkpt lat="37.816563000" lon="-121.975876000"><ele>135.5</ele><time>2026-08-01T00:00:00Z</time></trkpt>
<trkpt lat="37.816483000" lon="-121.975860000"><ele>135.5</ele><time>2026-08-01T00:00:00Z</time></trkpt>
<trkpt lat="37.816414000" lon="-121.975800000"><ele>135.4</ele><time>2026-08-01T00:00:00Z</time></trkpt>
<trkpt lat="37.816406000" lon="-121.975690000"><ele>135.3</ele><time>2026-08-01T00:00:00Z</time></trkpt>
<trkpt lat="37.816406000" lon="-121.975586000"><ele>135.1</ele><time>2026-08-01T00:00:00Z</time></trkpt>
<trkpt lat="37.816410000" lon="-121.975464000"><ele>135.0</ele><time>2026-08-01T00:00:00Z</time></trkpt>
<trkpt lat="37.816402000" lon="-121.975360000"><ele>134.8</ele><time>2026-08-01T00:00:00Z</time></trkpt>
<trkpt lat="37.816357000" lon="-121.975460000"><ele>134.7</ele><time>2026-08-01T00:00:00Z</time></trkpt>
<trkpt lat="37.816357000" lon="-121.975560000"><ele>134.6</ele><time>2026-08-01T00:00:00Z</time></trkpt>
<trkpt lat="37.816345000" lon="-121.975670000"><ele>134.4</ele><time>2026-08-01T00:00:00Z</time></trkpt>
<trkpt lat="37.816322000" lon="-121.975784000"><ele>134.0</ele><time>2026-08-01T00:00:00Z</time></trkpt>
<trkpt lat="37.816235000" lon="-121.975820000"><ele>133.5</ele><time>2026-08-01T00:00:00Z</time></trkpt>
<trkpt lat="37.816147000" lon="-121.975810000"><ele>132.9</ele><time>2026-08-01T00:00:00Z</time></trkpt>
<trkpt lat="37.816060000" lon="-121.975810000"><ele>132.4</ele><time>2026-08-01T00:00:00Z</time></trkpt>
<trkpt lat="37.815975000" lon="-121.975800000"><ele>131.8</ele><time>2026-08-01T00:00:00Z</time></trkpt>
<trkpt lat="37.815887000" lon="-121.975780000"><ele>131.4</ele><time>2026-08-01T00:00:00Z</time></trkpt>
<trkpt lat="37.815804000" lon="-121.975780000"><ele>131.0</ele><time>2026-08-01T00:00:00Z</time></trkpt>
<trkpt lat="37.815720000" lon="-121.975770000"><ele>130.7</ele><time>2026-08-01T00:00:00Z</time></trkpt>
<trkpt lat="37.815636000" lon="-121.975746000"><ele>130.5</ele><time>2026-08-01T00:00:00Z</time></trkpt>
<trkpt lat="37.815605000" lon="-121.975630000"><ele>130.1</ele><time>2026-08-01T00:00:00Z</time></trkpt>
<trkpt lat="37.815600000" lon="-121.975520000"><ele>129.8</ele><time>2026-08-01T00:00:00Z</time></trkpt>
<trkpt lat="37.815620000" lon="-121.975420000"><ele>129.6</ele><time>2026-08-01T00:00:00Z</time></trkpt>
<trkpt lat="37.815613000" lon="-121.975300000"><ele>129.4</ele><time>2026-08-01T00:00:00Z</time></trkpt>
<trkpt lat="37.815575000" lon="-121.975400000"><ele>129.2</ele><time>2026-08-01T00:00:00Z</time></trkpt>
<trkpt lat="37.815556000" lon="-121.975520000"><ele>129.0</ele><time>2026-08-01T00:00:00Z</time></trkpt>
<trkpt lat="37.815548000" lon="-121.975624000"><ele>128.8</ele><time>2026-08-01T00:00:00Z</time></trkpt>
<trkpt lat="37.815525000" lon="-121.975730000"><ele>128.6</ele><time>2026-08-01T00:00:00Z</time></trkpt>
<trkpt lat="37.815460000" lon="-121.975800000"><ele>128.4</ele><time>2026-08-01T00:00:00Z</time></trkpt>
<trkpt lat="37.815407000" lon="-121.975876000"><ele>128.0</ele><time>2026-08-01T00:00:00Z</time></trkpt>
<trkpt lat="37.815323000" lon="-121.975920000"><ele>127.7</ele><time>2026-08-01T00:00:00Z</time></trkpt>
<trkpt lat="37.815240000" lon="-121.975920000"><ele>127.5</ele><time>2026-08-01T00:00:00Z</time></trkpt>
<trkpt lat="37.815160000" lon="-121.975920000"><ele>127.4</ele><time>2026-08-01T00:00:00Z</time></trkpt>
<trkpt lat="37.815075000" lon="-121.975940000"><ele>127.2</ele><time>2026-08-01T00:00:00Z</time></trkpt>
<trkpt lat="37.814990000" lon="-121.975970000"><ele>127.0</ele><time>2026-08-01T00:00:00Z</time></trkpt>
<trkpt lat="37.814907000" lon="-121.975990000"><ele>126.8</ele><time>2026-08-01T00:00:00Z</time></trkpt>
<trkpt lat="37.814830000" lon="-121.976030000"><ele>126.6</ele><time>2026-08-01T00:00:00Z</time></trkpt>
<trkpt lat="37.814747000" lon="-121.976060000"><ele>126.5</ele><time>2026-08-01T00:00:00Z</time></trkpt>
<trkpt lat="37.814670000" lon="-121.976110000"><ele>126.5</ele><time>2026-08-01T00:00:00Z</time></trkpt>
<trkpt lat="37.814590000" lon="-121.976150000"><ele>126.3</ele><time>2026-08-01T00:00:00Z</time></trkpt>
<trkpt lat="37.814514000" lon="-121.976200000"><ele>126.2</ele><time>2026-08-01T00:00:00Z</time></trkpt>
<trkpt lat="37.814438000" lon="-121.976250000"><ele>126.1</ele><time>2026-08-01T00:00:00Z</time></trkpt>
<trkpt lat="37.814365000" lon="-121.976320000"><ele>126.0</ele><time>2026-08-01T00:00:00Z</time></trkpt>
<trkpt lat="37.814293000" lon="-121.976370000"><ele>125.9</ele><time>2026-08-01T00:00:00Z</time></trkpt>
<trkpt lat="37.814205000" lon="-121.976425000"><ele>125.8</ele><time>2026-08-01T00:00:00Z</time></trkpt>
<trkpt lat="37.814150000" lon="-121.976500000"><ele>125.8</ele><time>2026-08-01T00:00:00Z</time></trkpt>
<trkpt lat="37.814100000" lon="-121.976600000"><ele>125.8</ele><time>2026-08-01T00:00:00Z</time></trkpt>
<trkpt lat="37.814040000" lon="-121.976685000"><ele>125.8</ele><time>2026-08-01T00:00:00Z</time></trkpt>
<trkpt lat="37.813995000" lon="-121.976770000"><ele>125.8</ele><time>2026-08-01T00:00:00Z</time></trkpt>
<trkpt lat="37.813950000" lon="-121.976850000"><ele>125.8</ele><time>2026-08-01T00:00:00Z</time></trkpt>
<trkpt lat="37.813892000" lon="-121.976944000"><ele>125.9</ele><time>2026-08-01T00:00:00Z</time></trkpt>
<trkpt lat="37.813830000" lon="-121.977010000"><ele>126.0</ele><time>2026-08-01T00:00:00Z</time></trkpt>
<trkpt lat="37.813763000" lon="-121.977090000"><ele>126.0</ele><time>2026-08-01T00:00:00Z</time></trkpt>
<trkpt lat="37.813710000" lon="-121.977000000"><ele>126.0</ele><time>2026-08-01T00:00:00Z</time></trkpt>
<trkpt lat="37.813686000" lon="-121.977066000"><ele>126.0</ele><time>2026-08-01T00:00:00Z</time></trkpt>
</trkseg>
</trk>
</gpx>
