<?xml version="1.0" encoding="UTF-8"?>
<gpx
  version="1.1"
  creator="Runkeeper - http://www.runkeeper.com"
  xmlns:xsi="http://www.w3.org/2001/XMLSchema-instance"
  xmlns="http://www.topografix.com/GPX/1/1"
  xsi:schemaLocation="http://www.topografix.com/GPX/1/1 http://www.topografix.com/GPX/1/1/gpx.xsd"
  xmlns:gpxtpx="http://www.garmin.com/xmlschemas/TrackPointExtension/v1">
<trk>
  <name><![CDATA[Walking 8/7/26]]></name>
  <time>2026-08-07T00:00:00Z</time>
<trkseg>
<trkpt lat="37.820984000" lon="-121.980064000"><ele>121.2</ele><time>2026-08-07T00:00:00Z</time></trkpt>
<trkpt lat="37.821022000" lon="-121.980160000"><ele>121.1</ele><time>2026-08-07T00:00:00Z</time></trkpt>
<trkpt lat="37.821068000" lon="-121.980260000"><ele>121.1</ele><time>2026-08-07T00:00:00Z</time></trkpt>
<trkpt lat="37.821110000" lon="-121.980354000"><ele>121.1</ele><time>2026-08-07T00:00:00Z</time></trkpt>
<trkpt lat="37.821160000" lon="-121.980440000"><ele>121.0</ele><time>2026-08-07T00:00:00Z</time></trkpt>
<trkpt lat="37.821205000" lon="-121.980530000"><ele>120.9</ele><time>2026-08-07T00:00:00Z</time></trkpt>
<trkpt lat="37.821266000" lon="-121.980600000"><ele>120.7</ele><time>2026-08-07T00:00:00Z</time></trkpt>
<trkpt lat="37.821290000" lon="-121.980705000"><ele>120.6</ele><time>2026-08-07T00:00:00Z</time></trkpt>
<trkpt lat="37.821323000" lon="-121.980810000"><ele>120.5</ele><time>2026-08-07T00:00:00Z</time></trkpt>
<trkpt lat="37.821323000" lon="-121.980930000"><ele>120.5</ele><time>2026-08-07T00:00:00Z</time></trkpt>
<trkpt lat="37.821297000" lon="-121.981026000"><ele>120.4</ele><time>2026-08-07T00:00:00Z</time></trkpt>
<trkpt lat="37.821228000" lon="-121.981090000"><ele>120.2</ele><time>2026-08-07T00:00:00Z</time></trkpt>
<trkpt lat="37.821144000" lon="-121.981140000"><ele>120.0</ele><time>2026-08-07T00:00:00Z</time></trkpt>
<trkpt lat="37.821068000" lon="-121.981180000"><ele>119.9</ele><time>2026-08-07T00:00:00Z</time></trkpt>
<trkpt lat="37.820988000" lon="-121.981224000"><ele>119.8</ele><time>2026-08-07T00:00:00Z</time></trkpt>
<trkpt lat="37.820900000" lon="-121.981250000"><ele>119.9</ele><time>2026-08-07T00:00:00Z</time></trkpt>
<trkpt lat="37.820816000" lon="-121.981285000"><ele>120.0</ele><time>2026-08-07T00:00:00Z</time></trkpt>
<trkpt lat="37.820736000" lon="-121.981350000"><ele>120.2</ele><time>2026-08-07T00:00:00Z</time></trkpt>
<trkpt lat="37.820663000" lon="-121.981415000"><ele>120.5</ele><time>2026-08-07T00:00:00Z</time></trkpt>
<trkpt lat="37.820580000" lon="-121.981440000"><ele>120.7</ele><time>2026-08-07T00:00:00Z</time></trkpt>
<trkpt lat="37.820488000" lon="-121.981450000"><ele>121.1</ele><time>2026-08-07T00:00:00Z</time></trkpt>
<trkpt lat="37.820410000" lon="-121.981510000"><ele>121.5</ele><time>2026-08-07T00:00:00Z</time></trkpt>
<trkpt lat="37.820340000" lon="-121.981544000"><ele>122.1</ele><time>2026-08-07T00:00:00Z</time></trkpt>
<trkpt lat="37.820255000" lon="-121.981580000"><ele>122.7</ele><time>2026-08-07T00:00:00Z</time></trkpt>
<trkpt lat="37.820183000" lon="-121.981650000"><ele>123.3</ele><time>2026-08-07T00:00:00Z</time></trkpt>
<trkpt lat="37.820120000" lon="-121.981730000"><ele>123.9</ele><time>2026-08-07T00:00:00Z</time></trkpt>
<trkpt lat="37.820053000" lon="-121.981800000"><ele>124.5</ele><time>2026-08-07T00:00:00Z</time></trkpt>
<trkpt lat="37.819990000" lon="-121.981865000"><ele>125.0</ele><time>2026-08-07T00:00:00Z</time></trkpt>
<trkpt lat="37.819923000" lon="-121.981926000"><ele>125.5</ele><time>2026-08-07T00:00:00Z</time></trkpt>
<trkpt lat="37.819843000" lon="-121.981990000"><ele>126.0</ele><time>2026-08-07T00:00:00Z</time></trkpt>
<trkpt lat="37.819767000" lon="-121.982020000"><ele>126.5</ele><time>2026-08-07T00:00:00Z</time></trkpt>
<trkpt lat="37.819690000" lon="-121.982070000"><ele>126.9</ele><time>2026-08-07T00:00:00Z</time></trkpt>
<trkpt lat="37.819633000" lon="-121.982150000"><ele>127.4</ele><time>2026-08-07T00:00:00Z</time></trkpt>
<trkpt lat="37.819570000" lon="-121.982210000"><ele>127.8</ele><time>2026-08-07T00:00:00Z</time></trkpt>
<trkpt lat="37.819485000" lon="-121.982185000"><ele>128.3</ele><time>2026-08-07T00:00:00Z</time></trkpt>
<trkpt lat="37.819454000" lon="-121.982086000"><ele>128.7</ele><time>2026-08-07T00:00:00Z</time></trkpt>
<trkpt lat="37.819424000" lon="-121.981990000"><ele>129.2</ele><time>2026-08-07T00:00:00Z</time></trkpt>
<trkpt lat="37.819380000" lon="-121.981900000"><ele>129.6</ele><time>2026-08-07T00:00:00Z</time></trkpt>
<trkpt lat="37.819332000" lon="-121.981804000"><ele>130.2</ele><time>2026-08-07T00:00:00Z</time></trkpt>
<trkpt lat="37.819300000" lon="-121.981700000"><ele>130.6</ele><time>2026-08-07T00:00:00Z</time></trkpt>
<trkpt lat="37.819275000" lon="-121.981590000"><ele>131.2</ele><time>2026-08-07T00:00:00Z</time></trkpt>
<trkpt lat="37.819225000" lon="-121.981480000"><ele>131.7</ele><time>2026-08-07T00:00:00Z</time></trkpt>
<trkpt lat="37.819190000" lon="-121.981384000"><ele>132.2</ele><time>2026-08-07T00:00:00Z</time></trkpt>
<trkpt lat="37.819145000" lon="-121.981285000"><ele>132.5</ele><time>2026-08-07T00:00:00Z</time></trkpt>
<trkpt lat="37.819100000" lon="-121.981200000"><ele>132.9</ele><time>2026-08-07T00:00:00Z</time></trkpt>
<trkpt lat="37.819054000" lon="-121.981100000"><ele>133.2</ele><time>2026-08-07T00:00:00Z</time></trkpt>
<trkpt lat="37.819000000" lon="-121.981000000"><ele>133.5</ele><time>2026-08-07T00:00:00Z</time></trkpt>
<trkpt lat="37.818930000" lon="-121.980934000"><ele>133.6</ele><time>2026-08-07T00:00:00Z</time></trkpt>
<trkpt lat="37.818855000" lon="-121.980860000"><ele>133.8</ele><time>2026-08-07T00:00:00Z</time></trkpt>
<trkpt lat="37.818780000" lon="-121.980804000"><ele>133.9</ele><time>2026-08-07T00:00:00Z</time></trkpt>
<trkpt lat="37.818695000" lon="-121.980760000"><ele>134.0</ele><time>2026-08-07T00:00:00Z</time></trkpt>
<trkpt lat="37.818610000" lon="-121.980730000"><ele>134.0</ele><time>2026-08-07T00:00:00Z</time></trkpt>
<trkpt lat="37.818535000" lon="-121.980760000"><ele>134.0</ele><time>2026-08-07T00:00:00Z</time></trkpt>
<trkpt lat="37.818447000" lon="-121.980730000"><ele>134.0</ele><time>2026-08-07T00:00:00Z</time></trkpt>
<trkpt lat="37.818360000" lon="-121.980705000"><ele>134.0</ele><time>2026-08-07T00:00:00Z</time></trkpt>
<trkpt lat="37.818268000" lon="-121.980710000"><ele>133.9</ele><time>2026-08-07T00:00:00Z</time></trkpt>
<trkpt lat="37.818184000" lon="-121.980730000"><ele>133.8</ele><time>2026-08-07T00:00:00Z</time></trkpt>
<trkpt lat="37.818100000" lon="-121.980750000"><ele>133.7</ele><time>2026-08-07T00:00:00Z</time></trkpt>
<trkpt lat="37.818012000" lon="-121.980774000"><ele>133.6</ele><time>2026-08-07T00:00:00Z</time></trkpt>
<trkpt lat="37.817940000" lon="-121.980820000"><ele>133.5</ele><time>2026-08-07T00:00:00Z</time></trkpt>
<trkpt lat="37.817852000" lon="-121.980850000"><ele>133.4</ele><time>2026-08-07T00:00:00Z</time></trkpt>
<trkpt lat="37.817776000" lon="-121.980896000"><ele>133.2</ele><time>2026-08-07T00:00:00Z</time></trkpt>
<trkpt lat="37.817696000" lon="-121.980930000"><ele>132.9</ele><time>2026-08-07T00:00:00Z</time></trkpt>
<trkpt lat="37.817627000" lon="-121.980990000"><ele>132.6</ele><time>2026-08-07T00:00:00Z</time></trkpt>
<trkpt lat="37.817550000" lon="-121.981026000"><ele>132.4</ele><time>2026-08-07T00:00:00Z</time></trkpt>
<trkpt lat="37.817482000" lon="-121.981090000"><ele>132.2</ele><time>2026-08-07T00:00:00Z</time></trkpt>
<trkpt lat="37.817413000" lon="-121.981170000"><ele>132.1</ele><time>2026-08-07T00:00:00Z</time></trkpt>
<trkpt lat="37.817337000" lon="-121.981240000"><ele>132.0</ele><time>2026-08-07T00:00:00Z</time></trkpt>
<trkpt lat="37.817260000" lon="-121.981285000"><ele>131.9</ele><time>2026-08-07T00:00:00Z</time></trkpt>
<trkpt lat="37.817190000" lon="-121.981224000"><ele>131.8</ele><time>2026-08-07T00:00:00Z</time></trkpt>
<trkpt lat="37.817140000" lon="-121.981120000"><ele>131.7</ele><time>2026-08-07T00:00:00Z</time></trkpt>
<trkpt lat="37.817078000" lon="-121.981040000"><ele>131.7</ele><time>2026-08-07T00:00:00Z</time></trkpt>
<trkpt lat="37.817024000" lon="-121.980960000"><ele>131.7</ele><time>2026-08-07T00:00:00Z</time></trkpt>
<trkpt lat="37.816982000" lon="-121.980850000"><ele>131.8</ele><time>2026-08-07T00:00:00Z</time></trkpt>
<trkpt lat="37.816960000" lon="-121.980750000"><ele>131.9</ele><time>2026-08-07T00:00:00Z</time></trkpt>
<trkpt lat="37.816930000" lon="-121.980650000"><ele>131.9</ele><time>2026-08-07T00:00:00Z</time></trkpt>
<trkpt lat="37.816925000" lon="-121.980770000"><ele>131.8</ele><time>2026-08-07T00:00:00Z</time></trkpt>
<trkpt lat="37.816950000" lon="-121.980870000"><ele>131.6</ele><time>2026-08-07T00:00:00Z</time></trkpt>
<trkpt lat="37.817017000" lon="-121.980940000"><ele>131.5</ele><time>2026-08-07T00:00:00Z</time></trkpt>
<trkpt lat="37.817074000" lon="-121.981026000"><ele>131.3</ele><time>2026-08-07T00:00:00Z</time></trkpt>
<trkpt lat="37.817097000" lon="-121.981120000"><ele>131.0</ele><time>2026-08-07T00:00:00Z</time></trkpt>
<trkpt lat="37.817130000" lon="-121.981220000"><ele>130.7</ele><time>2026-08-07T00:00:00Z</time></trkpt>
<trkpt lat="37.817160000" lon="-121.981320000"><ele>130.5</ele><time>2026-08-07T00:00:00Z</time></trkpt>
<trkpt lat="37.817127000" lon="-121.981430000"><ele>130.2</ele><time>2026-08-07T00:00:00Z</time></trkpt>
<trkpt lat="37.817047000" lon="-121.981500000"><ele>129.8</ele><time>2026-08-07T00:00:00Z</time></trkpt>
<trkpt lat="37.816970000" lon="-121.981560000"><ele>129.5</ele><time>2026-08-07T00:00:00Z</time></trkpt>
<trkpt lat="37.816895000" lon="-121.981636000"><ele>129.2</ele><time>2026-08-07T00:00:00Z</time></trkpt>
<trkpt lat="37.816833000" lon="-121.981705000"><ele>129.0</ele><time>2026-08-07T00:00:00Z</time></trkpt>
<trkpt lat="37.816770000" lon="-121.981766000"><ele>128.9</ele><time>2026-08-07T00:00:00Z</time></trkpt>
<trkpt lat="37.816685000" lon="-121.981830000"><ele>128.8</ele><time>2026-08-07T00:00:00Z</time></trkpt>
<trkpt lat="37.816605000" lon="-121.981800000"><ele>128.7</ele><time>2026-08-07T00:00:00Z</time></trkpt>
<trkpt lat="37.816550000" lon="-121.981710000"><ele>128.7</ele><time>2026-08-07T00:00:00Z</time></trkpt>
<trkpt lat="37.816490000" lon="-121.981620000"><ele>128.7</ele><time>2026-08-07T00:00:00Z</time></trkpt>
<trkpt lat="37.816433000" lon="-121.981530000"><ele>128.7</ele><time>2026-08-07T00:00:00Z</time></trkpt>
<trkpt lat="37.816383000" lon="-121.981445000"><ele>128.8</ele><time>2026-08-07T00:00:00Z</time></trkpt>
<trkpt lat="37.816326000" lon="-121.981346000"><ele>129.0</ele><time>2026-08-07T00:00:00Z</time></trkpt>
<trkpt lat="37.816277000" lon="-121.981260000"><ele>129.2</ele><time>2026-08-07T00:00:00Z</time></trkpt>
<trkpt lat="37.816235000" lon="-121.981180000"><ele>129.4</ele><time>2026-08-07T00:00:00Z</time></trkpt>
<trkpt lat="37.816200000" lon="-121.981080000"><ele>129.5</ele><time>2026-08-07T00:00:00Z</time></trkpt>
<trkpt lat="37.816177000" lon="-121.980980000"><ele>129.5</ele><time>2026-08-07T00:00:00Z</time></trkpt>
<trkpt lat="37.816162000" lon="-121.980860000"><ele>129.5</ele><time>2026-08-07T00:00:00Z</time></trkpt>
<trkpt lat="37.816143000" lon="-121.980740000"><ele>129.5</ele><time>2026-08-07T00:00:00Z</time></trkpt>
<trkpt lat="37.816110000" lon="-121.980840000"><ele>129.5</ele><time>2026-08-07T00:00:00Z</time></trkpt>
<trkpt lat="37.816143000" lon="-121.980960000"><ele>129.5</ele><time>2026-08-07T00:00:00Z</time></trkpt>
<trkpt lat="37.816177000" lon="-121.981070000"><ele>129.5</ele><time>2026-08-07T00:00:00Z</time></trkpt>
<trkpt lat="37.816216000" lon="-121.981160000"><ele>129.4</ele><time>2026-08-07T00:00:00Z</time></trkpt>
<trkpt lat="37.816260000" lon="-121.981255000"><ele>129.2</ele><time>2026-08-07T00:00:00Z</time></trkpt>
<trkpt lat="37.816310000" lon="-121.981340000"><ele>129.0</ele><time>2026-08-07T00:00:00Z</time></trkpt>
<trkpt lat="37.816372000" lon="-121.981420000"><ele>128.8</ele><time>2026-08-07T00:00:00Z</time></trkpt>
<trkpt lat="37.816430000" lon="-121.981514000"><ele>128.6</ele><time>2026-08-07T00:00:00Z</time></trkpt>
<trkpt lat="37.816483000" lon="-121.981606000"><ele>128.5</ele><time>2026-08-07T00:00:00Z</time></trkpt>
<trkpt lat="37.816540000" lon="-121.981705000"><ele>128.5</ele><time>2026-08-07T00:00:00Z</time></trkpt>
<trkpt lat="37.816593000" lon="-121.981790000"><ele>128.5</ele><time>2026-08-07T00:00:00Z</time></trkpt>
<trkpt lat="37.816654000" lon="-121.981870000"><ele>128.5</ele><time>2026-08-07T00:00:00Z</time></trkpt>
<trkpt lat="37.816740000" lon="-121.981910000"><ele>128.5</ele><time>2026-08-07T00:00:00Z</time></trkpt>
<trkpt lat="37.816826000" lon="-121.981895000"><ele>128.6</ele><time>2026-08-07T00:00:00Z</time></trkpt>
<trkpt lat="37.816902000" lon="-121.981830000"><ele>128.7</ele><time>2026-08-07T00:00:00Z</time></trkpt>
<trkpt lat="37.816975000" lon="-121.981760000"><ele>128.9</ele><time>2026-08-07T00:00:00Z</time></trkpt>
<trkpt lat="37.817047000" lon="-121.981710000"><ele>129.2</ele><time>2026-08-07T00:00:00Z</time></trkpt>
<trkpt lat="37.817123000" lon="-121.981640000"><ele>129.5</ele><time>2026-08-07T00:00:00Z</time></trkpt>
<trkpt lat="37.817192000" lon="-121.981575000"><ele>129.8</ele><time>2026-08-07T00:00:00Z</time></trkpt>
<trkpt lat="37.817253000" lon="-121.981514000"><ele>130.2</ele><time>2026-08-07T00:00:00Z</time></trkpt>
<trkpt lat="37.817326000" lon="-121.981440000"><ele>130.5</ele><time>2026-08-07T00:00:00Z</time></trkpt>
<trkpt lat="37.817398000" lon="-121.981360000"><ele>130.8</ele><time>2026-08-07T00:00:00Z</time></trkpt>
<trkpt lat="37.817474000" lon="-121.981290000"><ele>131.1</ele><time>2026-08-07T00:00:00Z</time></trkpt>
<trkpt lat="37.817543000" lon="-121.981224000"><ele>131.2</ele><time>2026-08-07T00:00:00Z</time></trkpt>
<trkpt lat="37.817620000" lon="-121.981160000"><ele>131.3</ele><time>2026-08-07T00:00:00Z</time></trkpt>
<trkpt lat="37.817688000" lon="-121.981110000"><ele>131.4</ele><time>2026-08-07T00:00:00Z</time></trkpt>
<trkpt lat="37.817772000" lon="-121.981100000"><ele>131.5</ele><time>2026-08-07T00:00:00Z</time></trkpt>
<trkpt lat="37.817780000" lon="-121.981220000"><ele>131.5</ele><time>2026-08-07T00:00:00Z</time></trkpt>
<trkpt lat="37.817818000" lon="-121.981330000"><ele>131.5</ele><time>2026-08-07T00:00:00Z</time></trkpt>
<trkpt lat="37.817898000" lon="-121.981400000"><ele>131.5</ele><time>2026-08-07T00:00:00Z</time></trkpt>
<trkpt lat="37.817974000" lon="-121.981440000"><ele>131.6</ele><time>2026-08-07T00:00:00Z</time></trkpt>
<trkpt lat="37.818058000" lon="-121.981490000"><ele>131.7</ele><time>2026-08-07T00:00:00Z</time></trkpt>
<trkpt lat="37.818010000" lon="-121.981384000"><ele>131.9</ele><time>2026-08-07T00:00:00Z</time></trkpt>
<trkpt lat="37.818090000" lon="-121.981340000"><ele>132.1</ele><time>2026-08-07T00:00:00Z</time></trkpt>
<trkpt lat="37.818134000" lon="-121.981250000"><ele>132.4</ele><time>2026-08-07T00:00:00Z</time></trkpt>
<trkpt lat="37.818142000" lon="-121.981130000"><ele>132.6</ele><time>2026-08-07T00:00:00Z</time></trkpt>
<trkpt lat="37.818127000" lon="-121.981026000"><ele>132.9</ele><time>2026-08-07T00:00:00Z</time></trkpt>
<trkpt lat="37.818115000" lon="-121.980910000"><ele>133.2</ele><time>2026-08-07T00:00:00Z</time></trkpt>
<trkpt lat="37.818200000" lon="-121.980865000"><ele>133.5</ele><time>2026-08-07T00:00:00Z</time></trkpt>
<trkpt lat="37.818290000" lon="-121.980870000"><ele>133.6</ele><time>2026-08-07T00:00:00Z</time></trkpt>
<trkpt lat="37.818382000" lon="-121.980865000"><ele>133.8</ele><time>2026-08-07T00:00:00Z</time></trkpt>
<trkpt lat="37.818462000" lon="-121.980880000"><ele>133.8</ele><time>2026-08-07T00:00:00Z</time></trkpt>
<trkpt lat="37.818554000" lon="-121.980910000"><ele>133.8</ele><time>2026-08-07T00:00:00Z</time></trkpt>
<trkpt lat="37.818630000" lon="-121.980934000"><ele>133.7</ele><time>2026-08-07T00:00:00Z</time></trkpt>
<trkpt lat="37.818718000" lon="-121.980970000"><ele>133.6</ele><time>2026-08-07T00:00:00Z</time></trkpt>
<trkpt lat="37.818794000" lon="-121.981030000"><ele>133.5</ele><time>2026-08-07T00:00:00Z</time></trkpt>
<trkpt lat="37.818855000" lon="-121.981100000"><ele>133.3</ele><time>2026-08-07T00:00:00Z</time></trkpt>
<trkpt lat="37.818916000" lon="-121.981180000"><ele>133.0</ele><time>2026-08-07T00:00:00Z</time></trkpt>
<trkpt lat="37.818962000" lon="-121.981270000"><ele>132.7</ele><time>2026-08-07T00:00:00Z</time></trkpt>
<trkpt lat="37.819000000" lon="-121.981380000"><ele>132.4</ele><time>2026-08-07T00:00:00Z</time></trkpt>
<trkpt lat="37.819042000" lon="-121.981476000"><ele>132.0</ele><time>2026-08-07T00:00:00Z</time></trkpt>
<trkpt lat="37.819138000" lon="-121.981514000"><ele>131.5</ele><time>2026-08-07T00:00:00Z</time></trkpt>
<trkpt lat="37.819206000" lon="-121.981580000"><ele>131.2</ele><time>2026-08-07T00:00:00Z</time></trkpt>
<trkpt lat="37.819263000" lon="-121.981660000"><ele>130.7</ele><time>2026-08-07T00:00:00Z</time></trkpt>
<trkpt lat="37.819320000" lon="-121.981760000"><ele>130.3</ele><time>2026-08-07T00:00:00Z</time></trkpt>
<trkpt lat="37.819366000" lon="-121.981850000"><ele>129.7</ele><time>2026-08-07T00:00:00Z</time></trkpt>
<trkpt lat="37.819420000" lon="-121.981926000"><ele>129.3</ele><time>2026-08-07T00:00:00Z</time></trkpt>
<trkpt lat="37.819447000" lon="-121.982030000"><ele>128.7</ele><time>2026-08-07T00:00:00Z</time></trkpt>
<trkpt lat="37.819490000" lon="-121.982140000"><ele>128.3</ele><time>2026-08-07T00:00:00Z</time></trkpt>
<trkpt lat="37.819572000" lon="-121.982150000"><ele>127.8</ele><time>2026-08-07T00:00:00Z</time></trkpt>
<trkpt lat="37.819656000" lon="-121.982090000"><ele>127.4</ele><time>2026-08-07T00:00:00Z</time></trkpt>
<trkpt lat="37.819733000" lon="-121.982030000"><ele>126.8</ele><time>2026-08-07T00:00:00Z</time></trkpt>
<trkpt lat="37.819813000" lon="-121.981970000"><ele>126.4</ele><time>2026-08-07T00:00:00Z</time></trkpt>
<trkpt lat="37.819885000" lon="-121.981920000"><ele>125.8</ele><time>2026-08-07T00:00:00Z</time></trkpt>
<trkpt lat="37.819970000" lon="-121.981865000"><ele>125.3</ele><time>2026-08-07T00:00:00Z</time></trkpt>
<trkpt lat="37.820050000" lon="-121.981800000"><ele>124.7</ele><time>2026-08-07T00:00:00Z</time></trkpt>
<trkpt lat="37.820114000" lon="-121.981730000"><ele>124.2</ele><time>2026-08-07T00:00:00Z</time></trkpt>
<trkpt lat="37.820175000" lon="-121.981650000"><ele>123.5</ele><time>2026-08-07T00:00:00Z</time></trkpt>
<trkpt lat="37.820240000" lon="-121.981575000"><ele>123.0</ele><time>2026-08-07T00:00:00Z</time></trkpt>
<trkpt lat="37.820305000" lon="-121.981520000"><ele>122.5</ele><time>2026-08-07T00:00:00Z</time></trkpt>
<trkpt lat="37.820390000" lon="-121.981460000"><ele>121.8</ele><time>2026-08-07T00:00:00Z</time></trkpt>
<trkpt lat="37.820465000" lon="-121.981420000"><ele>121.3</ele><time>2026-08-07T00:00:00Z</time></trkpt>
<trkpt lat="37.820540000" lon="-121.981370000"><ele>120.8</ele><time>2026-08-07T00:00:00Z</time></trkpt>
<trkpt lat="37.820618000" lon="-121.981400000"><ele>120.5</ele><time>2026-08-07T00:00:00Z</time></trkpt>
<trkpt lat="37.820700000" lon="-121.981370000"><ele>120.2</ele><time>2026-08-07T00:00:00Z</time></trkpt>
<trkpt lat="37.820790000" lon="-121.981350000"><ele>120.0</ele><time>2026-08-07T00:00:00Z</time></trkpt>
<trkpt lat="37.820870000" lon="-121.981316000"><ele>119.8</ele><time>2026-08-07T00:00:00Z</time></trkpt>
<trkpt lat="37.820942000" lon="-121.981255000"><ele>119.8</ele><time>2026-08-07T00:00:00Z</time></trkpt>
<trkpt lat="37.821026000" lon="-121.981200000"><ele>119.9</ele><time>2026-08-07T00:00:00Z</time></trkpt>
<trkpt lat="37.821110000" lon="-121.981140000"><ele>120.0</ele><time>2026-08-07T00:00:00Z</time></trkpt>
<trkpt lat="37.821190000" lon="-121.981090000"><ele>120.1</ele><time>2026-08-07T00:00:00Z</time></trkpt>
<trkpt lat="37.821262000" lon="-121.981000000"><ele>120.3</ele><time>2026-08-07T00:00:00Z</time></trkpt>
<trkpt lat="37.821297000" lon="-121.980900000"><ele>120.5</ele><time>2026-08-07T00:00:00Z</time></trkpt>
<trkpt lat="37.821278000" lon="-121.980800000"><ele>120.6</ele><time>2026-08-07T00:00:00Z</time></trkpt>
<trkpt lat="37.821236000" lon="-121.980705000"><ele>120.7</ele><time>2026-08-07T00:00:00Z</time></trkpt>
<trkpt lat="37.821194000" lon="-121.980600000"><ele>120.9</ele><time>2026-08-07T00:00:00Z</time></trkpt>
<trkpt lat="37.821156000" lon="-121.980500000"><ele>121.0</ele><time>2026-08-07T00:00:00Z</time></trkpt>
<trkpt lat="37.821106000" lon="-121.980400000"><ele>121.2</ele><time>2026-08-07T00:00:00Z</time></trkpt>
<trkpt lat="37.821075000" lon="-121.980300000"><ele>121.3</ele><time>2026-08-07T00:00:00Z</time></trkpt>
<trkpt lat="37.821026000" lon="-121.980220000"><ele>121.4</ele><time>2026-08-07T00:00:00Z</time></trkpt>
<trkpt lat="37.820984000" lon="-121.980125000"><ele>121.5</ele><time>2026-08-07T00:00:00Z</time></trkpt>
<trkpt lat="37.820900000" lon="-121.980100000"><ele>121.5</ele><time>2026-08-07T00:00:00Z</time></trkpt>
<trkpt lat="37.820910000" lon="-121.980210000"><ele>121.6</ele><time>2026-08-07T00:00:00Z</time></trkpt>
<trkpt lat="37.820866000" lon="-121.980300000"><ele>121.6</ele><time>2026-08-07T00:00:00Z</time></trkpt>
<trkpt lat="37.820805000" lon="-121.980370000"><ele>121.7</ele><time>2026-08-07T00:00:00Z</time></trkpt>
<trkpt lat="37.820790000" lon="-121.980385000"><ele>121.8</ele><time>2026-08-07T00:00:00Z</time></trkpt>
</trkseg>
</trk>
</gpx>
