<?xml version="1.0" encoding="UTF-8"?>
<gpx
  version="1.1"
  creator="Runkeeper - http://www.runkeeper.com"
  xmlns:xsi="http://www.w3.org/2001/XMLSchema-instance"
  xmlns="http://www.topografix.com/GPX/1/1"
  xsi:schemaLocation="http://www.topografix.com/GPX/1/1 http://www.topografix.com/GPX/1/1/gpx.xsd"
  xmlns:gpxtpx="http://www.garmin.com/xmlschemas/TrackPointExtension/v1">
<trk>
  <name><![CDATA[Walking 8/8/26]]></name>
  <time>2026-08-09T00:00:00Z</time>
<trkseg>
<trkpt lat="37.810030000" lon="-121.929085000"><ele>195.5</ele><time>2026-08-09T00:00:00Z</time></trkpt>
<trkpt lat="37.809956000" lon="-121.929050000"><ele>195.7</ele><time>2026-08-09T00:00:00Z</time></trkpt>
<trkpt lat="37.810036000" lon="-121.929070000"><ele>195.9</ele><time>2026-08-09T00:00:00Z</time></trkpt>
<trkpt lat="37.810093000" lon="-121.929000000"><ele>196.1</ele><time>2026-08-09T00:00:00Z</time></trkpt>
<trkpt lat="37.810184000" lon="-121.929016000"><ele>196.3</ele><time>2026-08-09T00:00:00Z</time></trkpt>
<trkpt lat="37.810260000" lon="-121.929050000"><ele>196.5</ele><time>2026-08-09T00:00:00Z</time></trkpt>
<trkpt lat="37.810333000" lon="-121.929100000"><ele>196.8</ele><time>2026-08-09T00:00:00Z</time></trkpt>
<trkpt lat="37.810410000" lon="-121.929150000"><ele>197.2</ele><time>2026-08-09T00:00:00Z</time></trkpt>
<trkpt lat="37.810482000" lon="-121.929210000"><ele>197.5</ele><time>2026-08-09T00:00:00Z</time></trkpt>
<trkpt lat="37.810560000" lon="-121.929260000"><ele>197.8</ele><time>2026-08-09T00:00:00Z</time></trkpt>
<trkpt lat="37.810627000" lon="-121.929330000"><ele>198.2</ele><time>2026-08-09T00:00:00Z</time></trkpt>
<trkpt lat="37.810703000" lon="-121.929380000"><ele>198.5</ele><time>2026-08-09T00:00:00Z</time></trkpt>
<trkpt lat="37.810780000" lon="-121.929450000"><ele>198.8</ele><time>2026-08-09T00:00:00Z</time></trkpt>
<trkpt lat="37.810852000" lon="-121.929510000"><ele>199.1</ele><time>2026-08-09T00:00:00Z</time></trkpt>
<trkpt lat="37.810920000" lon="-121.929565000"><ele>199.3</ele><time>2026-08-09T00:00:00Z</time></trkpt>
<trkpt lat="37.810993000" lon="-121.929630000"><ele>199.4</ele><time>2026-08-09T00:00:00Z</time></trkpt>
<trkpt lat="37.811070000" lon="-121.929690000"><ele>199.5</ele><time>2026-08-09T00:00:00Z</time></trkpt>
<trkpt lat="37.811146000" lon="-121.929750000"><ele>199.5</ele><time>2026-08-09T00:00:00Z</time></trkpt>
<trkpt lat="37.811220000" lon="-121.929810000"><ele>199.5</ele><time>2026-08-09T00:00:00Z</time></trkpt>
<trkpt lat="37.811290000" lon="-121.929860000"><ele>199.5</ele><time>2026-08-09T00:00:00Z</time></trkpt>
<trkpt lat="37.811363000" lon="-121.929940000"><ele>199.6</ele><time>2026-08-09T00:00:00Z</time></trkpt>
<trkpt lat="37.811443000" lon="-121.929990000"><ele>199.6</ele><time>2026-08-09T00:00:00Z</time></trkpt>
<trkpt lat="37.811520000" lon="-121.929960000"><ele>199.6</ele><time>2026-08-09T00:00:00Z</time></trkpt>
<trkpt lat="37.811570000" lon="-121.930046000"><ele>199.6</ele><time>2026-08-09T00:00:00Z</time></trkpt>
<trkpt lat="37.811630000" lon="-121.930140000"><ele>199.6</ele><time>2026-08-09T00:00:00Z</time></trkpt>
<trkpt lat="37.811700000" lon="-121.930200000"><ele>199.7</ele><time>2026-08-09T00:00:00Z</time></trkpt>
<trkpt lat="37.811780000" lon="-121.930250000"><ele>199.9</ele><time>2026-08-09T00:00:00Z</time></trkpt>
<trkpt lat="37.811860000" lon="-121.930305000"><ele>200.1</ele><time>2026-08-09T00:00:00Z</time></trkpt>
<trkpt lat="37.811924000" lon="-121.930374000"><ele>200.2</ele><time>2026-08-09T00:00:00Z</time></trkpt>
<trkpt lat="37.812000000" lon="-121.930410000"><ele>200.5</ele><time>2026-08-09T00:00:00Z</time></trkpt>
<trkpt lat="37.812084000" lon="-121.930460000"><ele>200.7</ele><time>2026-08-09T00:00:00Z</time></trkpt>
<trkpt lat="37.812170000" lon="-121.930504000"><ele>201.0</ele><time>2026-08-09T00:00:00Z</time></trkpt>
<trkpt lat="37.812244000" lon="-121.930534000"><ele>201.3</ele><time>2026-08-09T00:00:00Z</time></trkpt>
<trkpt lat="37.812325000" lon="-121.930590000"><ele>201.5</ele><time>2026-08-09T00:00:00Z</time></trkpt>
<trkpt lat="37.812410000" lon="-121.930630000"><ele>201.9</ele><time>2026-08-09T00:00:00Z</time></trkpt>
<trkpt lat="37.812490000" lon="-121.930690000"><ele>202.4</ele><time>2026-08-09T00:00:00Z</time></trkpt>
<trkpt lat="37.812570000" lon="-121.930730000"><ele>202.7</ele><time>2026-08-09T00:00:00Z</time></trkpt>
<trkpt lat="37.812650000" lon="-121.930770000"><ele>203.1</ele><time>2026-08-09T00:00:00Z</time></trkpt>
<trkpt lat="37.812717000" lon="-121.930824000"><ele>203.5</ele><time>2026-08-09T00:00:00Z</time></trkpt>
<trkpt lat="37.812798000" lon="-121.930860000"><ele>204.1</ele><time>2026-08-09T00:00:00Z</time></trkpt>
<trkpt lat="37.812878000" lon="-121.930890000"><ele>204.6</ele><time>2026-08-09T00:00:00Z</time></trkpt>
<trkpt lat="37.812950000" lon="-121.930954000"><ele>205.2</ele><time>2026-08-09T00:00:00Z</time></trkpt>
<trkpt lat="37.813030000" lon="-121.931010000"><ele>205.6</ele><time>2026-08-09T00:00:00Z</time></trkpt>
<trkpt lat="37.813107000" lon="-121.931050000"><ele>206.2</ele><time>2026-08-09T00:00:00Z</time></trkpt>
<trkpt lat="37.813187000" lon="-121.931090000"><ele>206.7</ele><time>2026-08-09T00:00:00Z</time></trkpt>
<trkpt lat="37.813270000" lon="-121.931140000"><ele>207.1</ele><time>2026-08-09T00:00:00Z</time></trkpt>
<trkpt lat="37.813350000" lon="-121.931190000"><ele>207.4</ele><time>2026-08-09T00:00:00Z</time></trkpt>
<trkpt lat="37.813427000" lon="-121.931244000"><ele>207.6</ele><time>2026-08-09T00:00:00Z</time></trkpt>
<trkpt lat="37.813510000" lon="-121.931300000"><ele>208.0</ele><time>2026-08-09T00:00:00Z</time></trkpt>
<trkpt lat="37.813590000" lon="-121.931330000"><ele>208.3</ele><time>2026-08-09T00:00:00Z</time></trkpt>
<trkpt lat="37.813680000" lon="-121.931360000"><ele>208.5</ele><time>2026-08-09T00:00:00Z</time></trkpt>
<trkpt lat="37.813770000" lon="-121.931366000"><ele>208.4</ele><time>2026-08-09T00:00:00Z</time></trkpt>
<trkpt lat="37.813860000" lon="-121.931380000"><ele>208.4</ele><time>2026-08-09T00:00:00Z</time></trkpt>
<trkpt lat="37.813946000" lon="-121.931404000"><ele>208.4</ele><time>2026-08-09T00:00:00Z</time></trkpt>
<trkpt lat="37.814022000" lon="-121.931440000"><ele>208.3</ele><time>2026-08-09T00:00:00Z</time></trkpt>
<trkpt lat="37.814102000" lon="-121.931500000"><ele>208.3</ele><time>2026-08-09T00:00:00Z</time></trkpt>
<trkpt lat="37.814140000" lon="-121.931595000"><ele>208.4</ele><time>2026-08-09T00:00:00Z</time></trkpt>
<trkpt lat="37.814224000" lon="-121.931640000"><ele>208.5</ele><time>2026-08-09T00:00:00Z</time></trkpt>
<trkpt lat="37.814297000" lon="-121.931700000"><ele>208.6</ele><time>2026-08-09T00:00:00Z</time></trkpt>
<trkpt lat="37.814377000" lon="-121.931755000"><ele>208.7</ele><time>2026-08-09T00:00:00Z</time></trkpt>
<trkpt lat="37.814453000" lon="-121.931790000"><ele>208.8</ele><time>2026-08-09T00:00:00Z</time></trkpt>
<trkpt lat="37.814533000" lon="-121.931830000"><ele>209.0</ele><time>2026-08-09T00:00:00Z</time></trkpt>
<trkpt lat="37.814620000" lon="-121.931854000"><ele>209.4</ele><time>2026-08-09T00:00:00Z</time></trkpt>
<trkpt lat="37.814705000" lon="-121.931870000"><ele>209.7</ele><time>2026-08-09T00:00:00Z</time></trkpt>
<trkpt lat="37.814785000" lon="-121.931890000"><ele>210.2</ele><time>2026-08-09T00:00:00Z</time></trkpt>
<trkpt lat="37.814870000" lon="-121.931930000"><ele>210.6</ele><time>2026-08-09T00:00:00Z</time></trkpt>
<trkpt lat="37.814953000" lon="-121.931950000"><ele>211.0</ele><time>2026-08-09T00:00:00Z</time></trkpt>
<trkpt lat="37.815040000" lon="-121.931980000"><ele>211.5</ele><time>2026-08-09T00:00:00Z</time></trkpt>
<trkpt lat="37.815130000" lon="-121.932010000"><ele>211.9</ele><time>2026-08-09T00:00:00Z</time></trkpt>
<trkpt lat="37.815212000" lon="-121.932030000"><ele>212.3</ele><time>2026-08-09T00:00:00Z</time></trkpt>
<trkpt lat="37.815300000" lon="-121.932070000"><ele>212.6</ele><time>2026-08-09T00:00:00Z</time></trkpt>
<trkpt lat="37.815384000" lon="-121.932100000"><ele>213.1</ele><time>2026-08-09T00:00:00Z</time></trkpt>
<trkpt lat="37.815460000" lon="-121.932130000"><ele>213.5</ele><time>2026-08-09T00:00:00Z</time></trkpt>
<trkpt lat="37.815548000" lon="-121.932144000"><ele>213.8</ele><time>2026-08-09T00:00:00Z</time></trkpt>
<trkpt lat="37.815630000" lon="-121.932144000"><ele>214.1</ele><time>2026-08-09T00:00:00Z</time></trkpt>
<trkpt lat="37.815716000" lon="-121.932140000"><ele>214.4</ele><time>2026-08-09T00:00:00Z</time></trkpt>
<trkpt lat="37.815807000" lon="-121.932130000"><ele>214.6</ele><time>2026-08-09T00:00:00Z</time></trkpt>
<trkpt lat="37.815887000" lon="-121.932120000"><ele>215.0</ele><time>2026-08-09T00:00:00Z</time></trkpt>
<trkpt lat="37.815968000" lon="-121.932120000"><ele>215.3</ele><time>2026-08-09T00:00:00Z</time></trkpt>
<trkpt lat="37.816055000" lon="-121.932120000"><ele>215.6</ele><time>2026-08-09T00:00:00Z</time></trkpt>
<trkpt lat="37.816140000" lon="-121.932100000"><ele>216.0</ele><time>2026-08-09T00:00:00Z</time></trkpt>
<trkpt lat="37.816223000" lon="-121.932110000"><ele>216.3</ele><time>2026-08-09T00:00:00Z</time></trkpt>
<trkpt lat="37.816310000" lon="-121.932106000"><ele>216.5</ele><time>2026-08-09T00:00:00Z</time></trkpt>
<trkpt lat="37.816400000" lon="-121.932106000"><ele>216.6</ele><time>2026-08-09T00:00:00Z</time></trkpt>
<trkpt lat="37.816486000" lon="-121.932106000"><ele>216.7</ele><time>2026-08-09T00:00:00Z</time></trkpt>
<trkpt lat="37.816570000" lon="-121.932130000"><ele>216.7</ele><time>2026-08-09T00:00:00Z</time></trkpt>
<trkpt lat="37.816658000" lon="-121.932170000"><ele>216.6</ele><time>2026-08-09T00:00:00Z</time></trkpt>
<trkpt lat="37.816723000" lon="-121.932230000"><ele>216.6</ele><time>2026-08-09T00:00:00Z</time></trkpt>
<trkpt lat="37.816776000" lon="-121.932310000"><ele>216.5</ele><time>2026-08-09T00:00:00Z</time></trkpt>
<trkpt lat="37.816830000" lon="-121.932396000"><ele>216.5</ele><time>2026-08-09T00:00:00Z</time></trkpt>
<trkpt lat="37.816868000" lon="-121.932490000"><ele>216.5</ele><time>2026-08-09T00:00:00Z</time></trkpt>
<trkpt lat="37.816906000" lon="-121.932590000"><ele>216.5</ele><time>2026-08-09T00:00:00Z</time></trkpt>
<trkpt lat="37.816956000" lon="-121.932680000"><ele>216.5</ele><time>2026-08-09T00:00:00Z</time></trkpt>
<trkpt lat="37.817000000" lon="-121.932770000"><ele>216.7</ele><time>2026-08-09T00:00:00Z</time></trkpt>
<trkpt lat="37.817062000" lon="-121.932850000"><ele>217.0</ele><time>2026-08-09T00:00:00Z</time></trkpt>
<trkpt lat="37.817127000" lon="-121.932920000"><ele>217.5</ele><time>2026-08-09T00:00:00Z</time></trkpt>
<trkpt lat="37.817184000" lon="-121.933010000"><ele>218.0</ele><time>2026-08-09T00:00:00Z</time></trkpt>
<trkpt lat="37.817234000" lon="-121.933090000"><ele>218.5</ele><time>2026-08-09T00:00:00Z</time></trkpt>
<trkpt lat="37.817287000" lon="-121.933170000"><ele>219.0</ele><time>2026-08-09T00:00:00Z</time></trkpt>
<trkpt lat="37.817370000" lon="-121.933205000"><ele>219.5</ele><time>2026-08-09T00:00:00Z</time></trkpt>
<trkpt lat="37.817460000" lon="-121.933210000"><ele>219.8</ele><time>2026-08-09T00:00:00Z</time></trkpt>
<trkpt lat="37.817540000" lon="-121.933220000"><ele>220.1</ele><time>2026-08-09T00:00:00Z</time></trkpt>
<trkpt lat="37.817623000" lon="-121.933235000"><ele>220.5</ele><time>2026-08-09T00:00:00Z</time></trkpt>
<trkpt lat="37.817710000" lon="-121.933250000"><ele>220.9</ele><time>2026-08-09T00:00:00Z</time></trkpt>
<trkpt lat="37.817795000" lon="-121.933280000"><ele>221.3</ele><time>2026-08-09T00:00:00Z</time></trkpt>
<trkpt lat="37.817880000" lon="-121.933304000"><ele>221.6</ele><time>2026-08-09T00:00:00Z</time></trkpt>
<trkpt lat="37.817963000" lon="-121.933334000"><ele>222.1</ele><time>2026-08-09T00:00:00Z</time></trkpt>
<trkpt lat="37.818043000" lon="-121.933340000"><ele>222.7</ele><time>2026-08-09T00:00:00Z</time></trkpt>
<trkpt lat="37.818127000" lon="-121.933380000"><ele>223.5</ele><time>2026-08-09T00:00:00Z</time></trkpt>
<trkpt lat="37.818210000" lon="-121.933400000"><ele>224.4</ele><time>2026-08-09T00:00:00Z</time></trkpt>
<trkpt lat="37.818300000" lon="-121.933430000"><ele>225.5</ele><time>2026-08-09T00:00:00Z</time></trkpt>
<trkpt lat="37.818367000" lon="-121.933490000"><ele>226.7</ele><time>2026-08-09T00:00:00Z</time></trkpt>
<trkpt lat="37.818443000" lon="-121.933540000"><ele>228.1</ele><time>2026-08-09T00:00:00Z</time></trkpt>
<trkpt lat="37.818520000" lon="-121.933590000"><ele>229.4</ele><time>2026-08-09T00:00:00Z</time></trkpt>
<trkpt lat="37.818592000" lon="-121.933655000"><ele>230.4</ele><time>2026-08-09T00:00:00Z</time></trkpt>
<trkpt lat="37.818660000" lon="-121.933716000"><ele>231.4</ele><time>2026-08-09T00:00:00Z</time></trkpt>
<trkpt lat="37.818726000" lon="-121.933800000"><ele>232.3</ele><time>2026-08-09T00:00:00Z</time></trkpt>
<trkpt lat="37.818700000" lon="-121.933900000"><ele>233.1</ele><time>2026-08-09T00:00:00Z</time></trkpt>
<trkpt lat="37.818660000" lon="-121.933990000"><ele>233.8</ele><time>2026-08-09T00:00:00Z</time></trkpt>
<trkpt lat="37.818620000" lon="-121.934100000"><ele>234.5</ele><time>2026-08-09T00:00:00Z</time></trkpt>
<trkpt lat="37.818584000" lon="-121.934204000"><ele>234.6</ele><time>2026-08-09T00:00:00Z</time></trkpt>
<trkpt lat="37.818604000" lon="-121.934105000"><ele>234.5</ele><time>2026-08-09T00:00:00Z</time></trkpt>
<trkpt lat="37.818634000" lon="-121.934006000"><ele>234.0</ele><time>2026-08-09T00:00:00Z</time></trkpt>
<trkpt lat="37.818684000" lon="-121.933910000"><ele>233.4</ele><time>2026-08-09T00:00:00Z</time></trkpt>
<trkpt lat="37.818726000" lon="-121.933815000"><ele>232.6</ele><time>2026-08-09T00:00:00Z</time></trkpt>
<trkpt lat="37.818657000" lon="-121.933750000"><ele>231.9</ele><time>2026-08-09T00:00:00Z</time></trkpt>
<trkpt lat="37.818615000" lon="-121.933640000"><ele>231.0</ele><time>2026-08-09T00:00:00Z</time></trkpt>
<trkpt lat="37.818530000" lon="-121.933624000"><ele>230.0</ele><time>2026-08-09T00:00:00Z</time></trkpt>
<trkpt lat="37.818447000" lon="-121.933586000"><ele>228.8</ele><time>2026-08-09T00:00:00Z</time></trkpt>
<trkpt lat="37.818367000" lon="-121.933540000"><ele>227.5</ele><time>2026-08-09T00:00:00Z</time></trkpt>
<trkpt lat="37.818300000" lon="-121.933490000"><ele>226.2</ele><time>2026-08-09T00:00:00Z</time></trkpt>
<trkpt lat="37.818220000" lon="-121.933426000"><ele>225.1</ele><time>2026-08-09T00:00:00Z</time></trkpt>
<trkpt lat="37.818140000" lon="-121.933395000"><ele>224.2</ele><time>2026-08-09T00:00:00Z</time></trkpt>
<trkpt lat="37.818054000" lon="-121.933370000"><ele>223.4</ele><time>2026-08-09T00:00:00Z</time></trkpt>
<trkpt lat="37.817970000" lon="-121.933350000"><ele>222.6</ele><time>2026-08-09T00:00:00Z</time></trkpt>
<trkpt lat="37.817890000" lon="-121.933334000"><ele>222.1</ele><time>2026-08-09T00:00:00Z</time></trkpt>
<trkpt lat="37.817800000" lon="-121.933304000"><ele>221.5</ele><time>2026-08-09T00:00:00Z</time></trkpt>
<trkpt lat="37.817715000" lon="-121.933266000"><ele>221.1</ele><time>2026-08-09T00:00:00Z</time></trkpt>
<trkpt lat="37.817627000" lon="-121.933250000"><ele>220.6</ele><time>2026-08-09T00:00:00Z</time></trkpt>
<trkpt lat="37.817543000" lon="-121.933250000"><ele>220.2</ele><time>2026-08-09T00:00:00Z</time></trkpt>
<trkpt lat="37.817455000" lon="-121.933230000"><ele>219.8</ele><time>2026-08-09T00:00:00Z</time></trkpt>
<trkpt lat="37.817375000" lon="-121.933210000"><ele>219.5</ele><time>2026-08-09T00:00:00Z</time></trkpt>
<trkpt lat="37.817284000" lon="-121.933180000"><ele>219.0</ele><time>2026-08-09T00:00:00Z</time></trkpt>
<trkpt lat="37.817215000" lon="-121.933110000"><ele>218.5</ele><time>2026-08-09T00:00:00Z</time></trkpt>
<trkpt lat="37.817158000" lon="-121.933040000"><ele>217.9</ele><time>2026-08-09T00:00:00Z</time></trkpt>
<trkpt lat="37.817090000" lon="-121.932960000"><ele>217.4</ele><time>2026-08-09T00:00:00Z</time></trkpt>
<trkpt lat="37.817024000" lon="-121.932884000"><ele>216.9</ele><time>2026-08-09T00:00:00Z</time></trkpt>
<trkpt lat="37.816986000" lon="-121.932790000"><ele>216.5</ele><time>2026-08-09T00:00:00Z</time></trkpt>
<trkpt lat="37.816936000" lon="-121.932690000"><ele>216.3</ele><time>2026-08-09T00:00:00Z</time></trkpt>
<trkpt lat="37.816902000" lon="-121.932600000"><ele>216.2</ele><time>2026-08-09T00:00:00Z</time></trkpt>
<trkpt lat="37.816860000" lon="-121.932510000"><ele>216.2</ele><time>2026-08-09T00:00:00Z</time></trkpt>
<trkpt lat="37.816820000" lon="-121.932410000"><ele>216.0</ele><time>2026-08-09T00:00:00Z</time></trkpt>
<trkpt lat="37.816765000" lon="-121.932320000"><ele>215.9</ele><time>2026-08-09T00:00:00Z</time></trkpt>
<trkpt lat="37.816700000" lon="-121.932236000"><ele>215.8</ele><time>2026-08-09T00:00:00Z</time></trkpt>
<trkpt lat="37.816620000" lon="-121.932180000"><ele>215.8</ele><time>2026-08-09T00:00:00Z</time></trkpt>
<trkpt lat="37.816532000" lon="-121.932150000"><ele>215.8</ele><time>2026-08-09T00:00:00Z</time></trkpt>
<trkpt lat="37.816444000" lon="-121.932150000"><ele>215.8</ele><time>2026-08-09T00:00:00Z</time></trkpt>
<trkpt lat="37.816357000" lon="-121.932144000"><ele>215.7</ele><time>2026-08-09T00:00:00Z</time></trkpt>
<trkpt lat="37.816265000" lon="-121.932150000"><ele>215.6</ele><time>2026-08-09T00:00:00Z</time></trkpt>
<trkpt lat="37.816177000" lon="-121.932144000"><ele>215.5</ele><time>2026-08-09T00:00:00Z</time></trkpt>
<trkpt lat="37.816090000" lon="-121.932144000"><ele>215.2</ele><time>2026-08-09T00:00:00Z</time></trkpt>
<trkpt lat="37.816006000" lon="-121.932144000"><ele>214.9</ele><time>2026-08-09T00:00:00Z</time></trkpt>
<trkpt lat="37.815926000" lon="-121.932120000"><ele>214.6</ele><time>2026-08-09T00:00:00Z</time></trkpt>
<trkpt lat="37.815838000" lon="-121.932130000"><ele>214.4</ele><time>2026-08-09T00:00:00Z</time></trkpt>
<trkpt lat="37.815750000" lon="-121.932140000"><ele>214.2</ele><time>2026-08-09T00:00:00Z</time></trkpt>
<trkpt lat="37.815666000" lon="-121.932144000"><ele>213.9</ele><time>2026-08-09T00:00:00Z</time></trkpt>
<trkpt lat="37.815580000" lon="-121.932160000"><ele>213.6</ele><time>2026-08-09T00:00:00Z</time></trkpt>
<trkpt lat="37.815495000" lon="-121.932150000"><ele>213.2</ele><time>2026-08-09T00:00:00Z</time></trkpt>
<trkpt lat="37.815410000" lon="-121.932140000"><ele>212.6</ele><time>2026-08-09T00:00:00Z</time></trkpt>
<trkpt lat="37.815320000" lon="-121.932106000"><ele>212.1</ele><time>2026-08-09T00:00:00Z</time></trkpt>
<trkpt lat="37.815230000" lon="-121.932076000"><ele>211.6</ele><time>2026-08-09T00:00:00Z</time></trkpt>
<trkpt lat="37.815155000" lon="-121.932040000"><ele>211.2</ele><time>2026-08-09T00:00:00Z</time></trkpt>
<trkpt lat="37.815080000" lon="-121.932090000"><ele>210.7</ele><time>2026-08-09T00:00:00Z</time></trkpt>
<trkpt lat="37.814995000" lon="-121.932050000"><ele>210.3</ele><time>2026-08-09T00:00:00Z</time></trkpt>
<trkpt lat="37.814907000" lon="-121.932014000"><ele>209.8</ele><time>2026-08-09T00:00:00Z</time></trkpt>
<trkpt lat="37.814830000" lon="-121.931970000"><ele>209.4</ele><time>2026-08-09T00:00:00Z</time></trkpt>
<trkpt lat="37.814747000" lon="-121.931946000"><ele>209.0</ele><time>2026-08-09T00:00:00Z</time></trkpt>
<trkpt lat="37.814660000" lon="-121.931915000"><ele>208.5</ele><time>2026-08-09T00:00:00Z</time></trkpt>
<trkpt lat="37.814570000" lon="-121.931890000"><ele>208.4</ele><time>2026-08-09T00:00:00Z</time></trkpt>
<trkpt lat="37.814487000" lon="-121.931854000"><ele>208.3</ele><time>2026-08-09T00:00:00Z</time></trkpt>
<trkpt lat="37.814415000" lon="-121.931816000"><ele>208.2</ele><time>2026-08-09T00:00:00Z</time></trkpt>
<trkpt lat="37.814342000" lon="-121.931760000"><ele>208.1</ele><time>2026-08-09T00:00:00Z</time></trkpt>
<trkpt lat="37.814266000" lon="-121.931694000"><ele>207.9</ele><time>2026-08-09T00:00:00Z</time></trkpt>
<trkpt lat="37.814198000" lon="-121.931630000"><ele>207.7</ele><time>2026-08-09T00:00:00Z</time></trkpt>
<trkpt lat="37.814117000" lon="-121.931564000"><ele>207.6</ele><time>2026-08-09T00:00:00Z</time></trkpt>
<trkpt lat="37.814040000" lon="-121.931520000"><ele>207.6</ele><time>2026-08-09T00:00:00Z</time></trkpt>
<trkpt lat="37.813965000" lon="-121.931465000"><ele>207.6</ele><time>2026-08-09T00:00:00Z</time></trkpt>
<trkpt lat="37.813877000" lon="-121.931430000"><ele>207.5</ele><time>2026-08-09T00:00:00Z</time></trkpt>
<trkpt lat="37.813786000" lon="-121.931410000"><ele>207.5</ele><time>2026-08-09T00:00:00Z</time></trkpt>
<trkpt lat="37.813700000" lon="-121.931404000"><ele>207.4</ele><time>2026-08-09T00:00:00Z</time></trkpt>
<trkpt lat="37.813614000" lon="-121.931370000"><ele>207.2</ele><time>2026-08-09T00:00:00Z</time></trkpt>
<trkpt lat="37.813530000" lon="-121.931335000"><ele>206.9</ele><time>2026-08-09T00:00:00Z</time></trkpt>
<trkpt lat="37.813446000" lon="-121.931300000"><ele>206.6</ele><time>2026-08-09T00:00:00Z</time></trkpt>
<trkpt lat="37.813370000" lon="-121.931250000"><ele>206.5</ele><time>2026-08-09T00:00:00Z</time></trkpt>
<trkpt lat="37.813290000" lon="-121.931206000"><ele>206.2</ele><time>2026-08-09T00:00:00Z</time></trkpt>
<trkpt lat="37.813210000" lon="-121.931150000"><ele>205.9</ele><time>2026-08-09T00:00:00Z</time></trkpt>
<trkpt lat="37.813130000" lon="-121.931100000"><ele>205.5</ele><time>2026-08-09T00:00:00Z</time></trkpt>
<trkpt lat="37.813053000" lon="-121.931046000"><ele>205.0</ele><time>2026-08-09T00:00:00Z</time></trkpt>
<trkpt lat="37.812973000" lon="-121.930990000"><ele>204.6</ele><time>2026-08-09T00:00:00Z</time></trkpt>
<trkpt lat="37.812890000" lon="-121.930950000"><ele>204.2</ele><time>2026-08-09T00:00:00Z</time></trkpt>
<trkpt lat="37.812805000" lon="-121.930890000"><ele>203.8</ele><time>2026-08-09T00:00:00Z</time></trkpt>
<trkpt lat="37.812725000" lon="-121.930850000"><ele>203.4</ele><time>2026-08-09T00:00:00Z</time></trkpt>
<trkpt lat="37.812650000" lon="-121.930790000"><ele>202.9</ele><time>2026-08-09T00:00:00Z</time></trkpt>
<trkpt lat="37.812572000" lon="-121.930750000"><ele>202.5</ele><time>2026-08-09T00:00:00Z</time></trkpt>
<trkpt lat="37.812496000" lon="-121.930710000"><ele>202.2</ele><time>2026-08-09T00:00:00Z</time></trkpt>
<trkpt lat="37.812416000" lon="-121.930660000"><ele>201.8</ele><time>2026-08-09T00:00:00Z</time></trkpt>
<trkpt lat="37.812340000" lon="-121.930600000"><ele>201.5</ele><time>2026-08-09T00:00:00Z</time></trkpt>
<trkpt lat="37.812256000" lon="-121.930560000"><ele>201.2</ele><time>2026-08-09T00:00:00Z</time></trkpt>
<trkpt lat="37.812172000" lon="-121.930504000"><ele>200.9</ele><time>2026-08-09T00:00:00Z</time></trkpt>
<trkpt lat="37.812090000" lon="-121.930460000"><ele>200.5</ele><time>2026-08-09T00:00:00Z</time></trkpt>
<trkpt lat="37.812008000" lon="-121.930405000"><ele>200.3</ele><time>2026-08-09T00:00:00Z</time></trkpt>
<trkpt lat="37.811928000" lon="-121.930360000"><ele>200.0</ele><time>2026-08-09T00:00:00Z</time></trkpt>
<trkpt lat="37.811848000" lon="-121.930310000"><ele>199.8</ele><time>2026-08-09T00:00:00Z</time></trkpt>
<trkpt lat="37.811770000" lon="-121.930260000"><ele>199.7</ele><time>2026-08-09T00:00:00Z</time></trkpt>
<trkpt lat="37.811695000" lon="-121.930214000"><ele>199.6</ele><time>2026-08-09T00:00:00Z</time></trkpt>
<trkpt lat="37.811623000" lon="-121.930150000"><ele>199.5</ele><time>2026-08-09T00:00:00Z</time></trkpt>
<trkpt lat="37.811554000" lon="-121.930090000"><ele>199.5</ele><time>2026-08-09T00:00:00Z</time></trkpt>
<trkpt lat="37.811478000" lon="-121.930030000"><ele>199.5</ele><time>2026-08-09T00:00:00Z</time></trkpt>
<trkpt lat="37.811405000" lon="-121.929970000"><ele>199.5</ele><time>2026-08-09T00:00:00Z</time></trkpt>
<trkpt lat="37.811333000" lon="-121.929910000"><ele>199.5</ele><time>2026-08-09T00:00:00Z</time></trkpt>
<trkpt lat="37.811256000" lon="-121.929850000"><ele>199.5</ele><time>2026-08-09T00:00:00Z</time></trkpt>
<trkpt lat="37.811188000" lon="-121.929770000"><ele>199.5</ele><time>2026-08-09T00:00:00Z</time></trkpt>
<trkpt lat="37.811120000" lon="-121.929710000"><ele>199.5</ele><time>2026-08-09T00:00:00Z</time></trkpt>
<trkpt lat="37.811035000" lon="-121.929660000"><ele>199.5</ele><time>2026-08-09T00:00:00Z</time></trkpt>
<trkpt lat="37.810963000" lon="-121.929596000"><ele>199.4</ele><time>2026-08-09T00:00:00Z</time></trkpt>
<trkpt lat="37.810883000" lon="-121.929535000"><ele>199.2</ele><time>2026-08-09T00:00:00Z</time></trkpt>
<trkpt lat="37.810806000" lon="-121.929474000"><ele>198.9</ele><time>2026-08-09T00:00:00Z</time></trkpt>
<trkpt lat="37.810734000" lon="-121.929410000"><ele>198.6</ele><time>2026-08-09T00:00:00Z</time></trkpt>
<trkpt lat="37.810658000" lon="-121.929350000"><ele>198.3</ele><time>2026-08-09T00:00:00Z</time></trkpt>
<trkpt lat="37.810580000" lon="-121.929290000"><ele>197.9</ele><time>2026-08-09T00:00:00Z</time></trkpt>
<trkpt lat="37.810505000" lon="-121.929230000"><ele>197.5</ele><time>2026-08-09T00:00:00Z</time></trkpt>
<trkpt lat="37.810432000" lon="-121.929160000"><ele>197.3</ele><time>2026-08-09T00:00:00Z</time></trkpt>
<trkpt lat="37.810352000" lon="-121.929110000"><ele>197.1</ele><time>2026-08-09T00:00:00Z</time></trkpt>
<trkpt lat="37.810265000" lon="-121.929054000"><ele>196.9</ele><time>2026-08-09T00:00:00Z</time></trkpt>
<trkpt lat="37.810184000" lon="-121.929020000"><ele>196.8</ele><time>2026-08-09T00:00:00Z</time></trkpt>
<trkpt lat="37.810100000" lon="-121.929010000"><ele>196.6</ele><time>2026-08-09T00:00:00Z</time></trkpt>
<trkpt lat="37.810093000" lon="-121.929016000"><ele>196.3</ele><time>2026-08-09T00:00:00Z</time></trkpt>
</trkseg>
</trk>
</gpx>
