<?xml version="1.0" encoding="UTF-8"?>
<gpx
  version="1.1"
  creator="Runkeeper - http://www.runkeeper.com"
  xmlns:xsi="http://www.w3.org/2001/XMLSchema-instance"
  xmlns="http://www.topografix.com/GPX/1/1"
  xsi:schemaLocation="http://www.topografix.com/GPX/1/1 http://www.topografix.com/GPX/1/1/gpx.xsd"
  xmlns:gpxtpx="http://www.garmin.com/xmlschemas/TrackPointExtension/v1">
<trk>
  <name><![CDATA[Walking 8/14/26]]></name>
  <time>2026-08-15T00:00:00Z</time>
<trkseg>
<trkpt lat="37.809840000" lon="-121.976510000"><ele>126.3</ele><time>2026-08-15T00:00:00Z</time></trkpt>
<trkpt lat="37.809790000" lon="-121.976425000"><ele>126.6</ele><time>2026-08-15T00:00:00Z</time></trkpt>
<trkpt lat="37.809753000" lon="-121.976326000"><ele>126.8</ele><time>2026-08-15T00:00:00Z</time></trkpt>
<trkpt lat="37.809723000" lon="-121.976230000"><ele>127.0</ele><time>2026-08-15T00:00:00Z</time></trkpt>
<trkpt lat="37.809696000" lon="-121.976110000"><ele>127.2</ele><time>2026-08-15T00:00:00Z</time></trkpt>
<trkpt lat="37.809680000" lon="-121.976010000"><ele>127.5</ele><time>2026-08-15T00:00:00Z</time></trkpt>
<trkpt lat="37.809600000" lon="-121.975945000"><ele>127.9</ele><time>2026-08-15T00:00:00Z</time></trkpt>
<trkpt lat="37.809520000" lon="-121.975970000"><ele>128.4</ele><time>2026-08-15T00:00:00Z</time></trkpt>
<trkpt lat="37.809433000" lon="-121.976010000"><ele>128.8</ele><time>2026-08-15T00:00:00Z</time></trkpt>
<trkpt lat="37.809357000" lon="-121.976060000"><ele>129.3</ele><time>2026-08-15T00:00:00Z</time></trkpt>
<trkpt lat="37.809284000" lon="-121.976120000"><ele>129.7</ele><time>2026-08-15T00:00:00Z</time></trkpt>
<trkpt lat="37.809208000" lon="-121.976166000"><ele>130.2</ele><time>2026-08-15T00:00:00Z</time></trkpt>
<trkpt lat="37.809128000" lon="-121.976200000"><ele>130.5</ele><time>2026-08-15T00:00:00Z</time></trkpt>
<trkpt lat="37.809036000" lon="-121.976230000"><ele>130.6</ele><time>2026-08-15T00:00:00Z</time></trkpt>
<trkpt lat="37.808940000" lon="-121.976230000"><ele>130.7</ele><time>2026-08-15T00:00:00Z</time></trkpt>
<trkpt lat="37.808860000" lon="-121.976200000"><ele>130.7</ele><time>2026-08-15T00:00:00Z</time></trkpt>
<trkpt lat="37.808952000" lon="-121.976170000"><ele>130.6</ele><time>2026-08-15T00:00:00Z</time></trkpt>
<trkpt lat="37.809048000" lon="-121.976160000"><ele>130.5</ele><time>2026-08-15T00:00:00Z</time></trkpt>
<trkpt lat="37.809140000" lon="-121.976130000"><ele>130.2</ele><time>2026-08-15T00:00:00Z</time></trkpt>
<trkpt lat="37.809223000" lon="-121.976080000"><ele>129.8</ele><time>2026-08-15T00:00:00Z</time></trkpt>
<trkpt lat="37.809310000" lon="-121.976030000"><ele>129.4</ele><time>2026-08-15T00:00:00Z</time></trkpt>
<trkpt lat="37.809395000" lon="-121.975980000"><ele>129.0</ele><time>2026-08-15T00:00:00Z</time></trkpt>
<trkpt lat="37.809475000" lon="-121.975930000"><ele>128.6</ele><time>2026-08-15T00:00:00Z</time></trkpt>
<trkpt lat="37.809560000" lon="-121.975900000"><ele>128.5</ele><time>2026-08-15T00:00:00Z</time></trkpt>
<trkpt lat="37.809647000" lon="-121.975900000"><ele>128.5</ele><time>2026-08-15T00:00:00Z</time></trkpt>
<trkpt lat="37.809730000" lon="-121.975876000"><ele>128.5</ele><time>2026-08-15T00:00:00Z</time></trkpt>
<trkpt lat="37.809765000" lon="-121.975780000"><ele>128.5</ele><time>2026-08-15T00:00:00Z</time></trkpt>
<trkpt lat="37.809784000" lon="-121.975670000"><ele>128.6</ele><time>2026-08-15T00:00:00Z</time></trkpt>
<trkpt lat="37.809837000" lon="-121.975590000"><ele>128.9</ele><time>2026-08-15T00:00:00Z</time></trkpt>
<trkpt lat="37.809890000" lon="-121.975510000"><ele>129.2</ele><time>2026-08-15T00:00:00Z</time></trkpt>
<trkpt lat="37.809963000" lon="-121.975430000"><ele>129.5</ele><time>2026-08-15T00:00:00Z</time></trkpt>
<trkpt lat="37.810024000" lon="-121.975370000"><ele>129.9</ele><time>2026-08-15T00:00:00Z</time></trkpt>
<trkpt lat="37.810097000" lon="-121.975300000"><ele>130.2</ele><time>2026-08-15T00:00:00Z</time></trkpt>
<trkpt lat="37.810150000" lon="-121.975230000"><ele>130.5</ele><time>2026-08-15T00:00:00Z</time></trkpt>
<trkpt lat="37.810177000" lon="-121.975120000"><ele>130.6</ele><time>2026-08-15T00:00:00Z</time></trkpt>
<trkpt lat="37.810220000" lon="-121.975030000"><ele>130.7</ele><time>2026-08-15T00:00:00Z</time></trkpt>
<trkpt lat="37.810276000" lon="-121.974930000"><ele>130.8</ele><time>2026-08-15T00:00:00Z</time></trkpt>
<trkpt lat="37.810318000" lon="-121.974840000"><ele>130.9</ele><time>2026-08-15T00:00:00Z</time></trkpt>
<trkpt lat="37.810370000" lon="-121.974740000"><ele>131.0</ele><time>2026-08-15T00:00:00Z</time></trkpt>
<trkpt lat="37.810413000" lon="-121.974650000"><ele>131.0</ele><time>2026-08-15T00:00:00Z</time></trkpt>
<trkpt lat="37.810448000" lon="-121.974550000"><ele>131.1</ele><time>2026-08-15T00:00:00Z</time></trkpt>
<trkpt lat="37.810460000" lon="-121.974434000"><ele>131.2</ele><time>2026-08-15T00:00:00Z</time></trkpt>
<trkpt lat="37.810497000" lon="-121.974335000"><ele>131.3</ele><time>2026-08-15T00:00:00Z</time></trkpt>
<trkpt lat="37.810540000" lon="-121.974250000"><ele>131.4</ele><time>2026-08-15T00:00:00Z</time></trkpt>
<trkpt lat="37.810590000" lon="-121.974160000"><ele>131.5</ele><time>2026-08-15T00:00:00Z</time></trkpt>
<trkpt lat="37.810642000" lon="-121.974060000"><ele>131.5</ele><time>2026-08-15T00:00:00Z</time></trkpt>
<trkpt lat="37.810696000" lon="-121.973970000"><ele>131.6</ele><time>2026-08-15T00:00:00Z</time></trkpt>
<trkpt lat="37.810745000" lon="-121.973880000"><ele>131.7</ele><time>2026-08-15T00:00:00Z</time></trkpt>
<trkpt lat="37.810780000" lon="-121.973785000"><ele>131.8</ele><time>2026-08-15T00:00:00Z</time></trkpt>
<trkpt lat="37.810830000" lon="-121.973690000"><ele>131.9</ele><time>2026-08-15T00:00:00Z</time></trkpt>
<trkpt lat="37.810880000" lon="-121.973590000"><ele>131.9</ele><time>2026-08-15T00:00:00Z</time></trkpt>
<trkpt lat="37.810930000" lon="-121.973490000"><ele>131.8</ele><time>2026-08-15T00:00:00Z</time></trkpt>
<trkpt lat="37.810986000" lon="-121.973410000"><ele>131.7</ele><time>2026-08-15T00:00:00Z</time></trkpt>
<trkpt lat="37.811073000" lon="-121.973370000"><ele>131.6</ele><time>2026-08-15T00:00:00Z</time></trkpt>
<trkpt lat="37.811115000" lon="-121.973280000"><ele>131.5</ele><time>2026-08-15T00:00:00Z</time></trkpt>
<trkpt lat="37.811140000" lon="-121.973180000"><ele>131.5</ele><time>2026-08-15T00:00:00Z</time></trkpt>
<trkpt lat="37.811172000" lon="-121.973076000"><ele>131.4</ele><time>2026-08-15T00:00:00Z</time></trkpt>
<trkpt lat="37.811226000" lon="-121.972984000"><ele>131.3</ele><time>2026-08-15T00:00:00Z</time></trkpt>
<trkpt lat="37.811260000" lon="-121.972890000"><ele>131.2</ele><time>2026-08-15T00:00:00Z</time></trkpt>
<trkpt lat="37.811302000" lon="-121.972786000"><ele>131.1</ele><time>2026-08-15T00:00:00Z</time></trkpt>
<trkpt lat="37.811340000" lon="-121.972694000"><ele>131.0</ele><time>2026-08-15T00:00:00Z</time></trkpt>
<trkpt lat="37.811337000" lon="-121.972590000"><ele>131.0</ele><time>2026-08-15T00:00:00Z</time></trkpt>
<trkpt lat="37.811337000" lon="-121.972480000"><ele>131.1</ele><time>2026-08-15T00:00:00Z</time></trkpt>
<trkpt lat="37.811398000" lon="-121.972390000"><ele>131.2</ele><time>2026-08-15T00:00:00Z</time></trkpt>
<trkpt lat="37.811447000" lon="-121.972300000"><ele>131.4</ele><time>2026-08-15T00:00:00Z</time></trkpt>
<trkpt lat="37.811420000" lon="-121.972190000"><ele>131.5</ele><time>2026-08-15T00:00:00Z</time></trkpt>
<trkpt lat="37.811363000" lon="-121.972115000"><ele>131.8</ele><time>2026-08-15T00:00:00Z</time></trkpt>
<trkpt lat="37.811337000" lon="-121.972000000"><ele>132.1</ele><time>2026-08-15T00:00:00Z</time></trkpt>
<trkpt lat="37.811330000" lon="-121.971886000"><ele>132.5</ele><time>2026-08-15T00:00:00Z</time></trkpt>
<trkpt lat="37.811348000" lon="-121.971780000"><ele>132.9</ele><time>2026-08-15T00:00:00Z</time></trkpt>
<trkpt lat="37.811350000" lon="-121.971670000"><ele>133.5</ele><time>2026-08-15T00:00:00Z</time></trkpt>
<trkpt lat="37.811317000" lon="-121.971565000"><ele>134.0</ele><time>2026-08-15T00:00:00Z</time></trkpt>
<trkpt lat="37.811344000" lon="-121.971460000"><ele>134.6</ele><time>2026-08-15T00:00:00Z</time></trkpt>
<trkpt lat="37.811333000" lon="-121.971350000"><ele>135.3</ele><time>2026-08-15T00:00:00Z</time></trkpt>
<trkpt lat="37.811306000" lon="-121.971245000"><ele>135.9</ele><time>2026-08-15T00:00:00Z</time></trkpt>
<trkpt lat="37.811275000" lon="-121.971146000"><ele>136.5</ele><time>2026-08-15T00:00:00Z</time></trkpt>
<trkpt lat="37.811270000" lon="-121.971040000"><ele>137.2</ele><time>2026-08-15T00:00:00Z</time></trkpt>
<trkpt lat="37.811240000" lon="-121.970930000"><ele>137.8</ele><time>2026-08-15T00:00:00Z</time></trkpt>
<trkpt lat="37.811220000" lon="-121.970825000"><ele>138.5</ele><time>2026-08-15T00:00:00Z</time></trkpt>
<trkpt lat="37.811188000" lon="-121.970720000"><ele>139.3</ele><time>2026-08-15T00:00:00Z</time></trkpt>
<trkpt lat="37.811165000" lon="-121.970610000"><ele>140.0</ele><time>2026-08-15T00:00:00Z</time></trkpt>
<trkpt lat="37.811130000" lon="-121.970510000"><ele>140.7</ele><time>2026-08-15T00:00:00Z</time></trkpt>
<trkpt lat="37.811096000" lon="-121.970406000"><ele>141.5</ele><time>2026-08-15T00:00:00Z</time></trkpt>
<trkpt lat="37.811058000" lon="-121.970310000"><ele>142.4</ele><time>2026-08-15T00:00:00Z</time></trkpt>
<trkpt lat="37.811010000" lon="-121.970215000"><ele>143.2</ele><time>2026-08-15T00:00:00Z</time></trkpt>
<trkpt lat="37.810950000" lon="-121.970130000"><ele>144.1</ele><time>2026-08-15T00:00:00Z</time></trkpt>
<trkpt lat="37.810880000" lon="-121.970060000"><ele>145.0</ele><time>2026-08-15T00:00:00Z</time></trkpt>
<trkpt lat="37.810790000" lon="-121.970010000"><ele>146.0</ele><time>2026-08-15T00:00:00Z</time></trkpt>
<trkpt lat="37.810703000" lon="-121.969990000"><ele>146.9</ele><time>2026-08-15T00:00:00Z</time></trkpt>
<trkpt lat="37.810623000" lon="-121.969970000"><ele>147.8</ele><time>2026-08-15T00:00:00Z</time></trkpt>
<trkpt lat="37.810540000" lon="-121.969955000"><ele>148.5</ele><time>2026-08-15T00:00:00Z</time></trkpt>
<trkpt lat="37.810450000" lon="-121.969955000"><ele>149.2</ele><time>2026-08-15T00:00:00Z</time></trkpt>
<trkpt lat="37.810364000" lon="-121.969960000"><ele>149.6</ele><time>2026-08-15T00:00:00Z</time></trkpt>
<trkpt lat="37.810276000" lon="-121.970000000"><ele>150.0</ele><time>2026-08-15T00:00:00Z</time></trkpt>
<trkpt lat="37.810204000" lon="-121.969950000"><ele>150.2</ele><time>2026-08-15T00:00:00Z</time></trkpt>
<trkpt lat="37.810284000" lon="-121.969894000"><ele>150.2</ele><time>2026-08-15T00:00:00Z</time></trkpt>
<trkpt lat="37.810370000" lon="-121.969890000"><ele>150.0</ele><time>2026-08-15T00:00:00Z</time></trkpt>
<trkpt lat="37.810467000" lon="-121.969890000"><ele>149.6</ele><time>2026-08-15T00:00:00Z</time></trkpt>
<trkpt lat="37.810560000" lon="-121.969850000"><ele>149.1</ele><time>2026-08-15T00:00:00Z</time></trkpt>
<trkpt lat="37.810642000" lon="-121.969826000"><ele>148.5</ele><time>2026-08-15T00:00:00Z</time></trkpt>
<trkpt lat="37.810726000" lon="-121.969860000"><ele>147.5</ele><time>2026-08-15T00:00:00Z</time></trkpt>
<trkpt lat="37.810814000" lon="-121.969900000"><ele>146.6</ele><time>2026-08-15T00:00:00Z</time></trkpt>
<trkpt lat="37.810898000" lon="-121.969955000"><ele>145.7</ele><time>2026-08-15T00:00:00Z</time></trkpt>
<trkpt lat="37.810974000" lon="-121.970024000"><ele>144.8</ele><time>2026-08-15T00:00:00Z</time></trkpt>
<trkpt lat="37.811040000" lon="-121.970110000"><ele>143.9</ele><time>2026-08-15T00:00:00Z</time></trkpt>
<trkpt lat="37.811100000" lon="-121.970184000"><ele>143.0</ele><time>2026-08-15T00:00:00Z</time></trkpt>
<trkpt lat="37.811140000" lon="-121.970300000"><ele>142.2</ele><time>2026-08-15T00:00:00Z</time></trkpt>
<trkpt lat="37.811203000" lon="-121.970360000"><ele>141.4</ele><time>2026-08-15T00:00:00Z</time></trkpt>
<trkpt lat="37.811214000" lon="-121.970474000"><ele>140.5</ele><time>2026-08-15T00:00:00Z</time></trkpt>
<trkpt lat="37.811234000" lon="-121.970570000"><ele>139.7</ele><time>2026-08-15T00:00:00Z</time></trkpt>
<trkpt lat="37.811264000" lon="-121.970680000"><ele>138.9</ele><time>2026-08-15T00:00:00Z</time></trkpt>
<trkpt lat="37.811295000" lon="-121.970770000"><ele>138.3</ele><time>2026-08-15T00:00:00Z</time></trkpt>
<trkpt lat="37.811333000" lon="-121.970870000"><ele>137.6</ele><time>2026-08-15T00:00:00Z</time></trkpt>
<trkpt lat="37.811356000" lon="-121.970985000"><ele>137.0</ele><time>2026-08-15T00:00:00Z</time></trkpt>
<trkpt lat="37.811380000" lon="-121.971085000"><ele>136.4</ele><time>2026-08-15T00:00:00Z</time></trkpt>
<trkpt lat="37.811410000" lon="-121.971200000"><ele>135.7</ele><time>2026-08-15T00:00:00Z</time></trkpt>
<trkpt lat="37.811420000" lon="-121.971310000"><ele>135.1</ele><time>2026-08-15T00:00:00Z</time></trkpt>
<trkpt lat="37.811417000" lon="-121.971430000"><ele>134.5</ele><time>2026-08-15T00:00:00Z</time></trkpt>
<trkpt lat="37.811424000" lon="-121.971540000"><ele>133.9</ele><time>2026-08-15T00:00:00Z</time></trkpt>
<trkpt lat="37.811428000" lon="-121.971660000"><ele>133.5</ele><time>2026-08-15T00:00:00Z</time></trkpt>
<trkpt lat="37.811428000" lon="-121.971780000"><ele>133.2</ele><time>2026-08-15T00:00:00Z</time></trkpt>
<trkpt lat="37.811382000" lon="-121.971860000"><ele>133.1</ele><time>2026-08-15T00:00:00Z</time></trkpt>
<trkpt lat="37.811337000" lon="-121.971960000"><ele>132.9</ele><time>2026-08-15T00:00:00Z</time></trkpt>
<trkpt lat="37.811250000" lon="-121.971980000"><ele>132.7</ele><time>2026-08-15T00:00:00Z</time></trkpt>
<trkpt lat="37.811160000" lon="-121.971985000"><ele>132.5</ele><time>2026-08-15T00:00:00Z</time></trkpt>
<trkpt lat="37.811073000" lon="-121.971980000"><ele>132.5</ele><time>2026-08-15T00:00:00Z</time></trkpt>
<trkpt lat="37.810990000" lon="-121.971970000"><ele>132.4</ele><time>2026-08-15T00:00:00Z</time></trkpt>
<trkpt lat="37.811066000" lon="-121.971920000"><ele>132.3</ele><time>2026-08-15T00:00:00Z</time></trkpt>
<trkpt lat="37.811146000" lon="-121.971924000"><ele>132.2</ele><time>2026-08-15T00:00:00Z</time></trkpt>
<trkpt lat="37.811234000" lon="-121.971940000"><ele>132.1</ele><time>2026-08-15T00:00:00Z</time></trkpt>
<trkpt lat="37.811317000" lon="-121.971940000"><ele>131.9</ele><time>2026-08-15T00:00:00Z</time></trkpt>
<trkpt lat="37.811394000" lon="-121.971985000"><ele>131.7</ele><time>2026-08-15T00:00:00Z</time></trkpt>
<trkpt lat="37.811450000" lon="-121.972070000"><ele>131.5</ele><time>2026-08-15T00:00:00Z</time></trkpt>
<trkpt lat="37.811516000" lon="-121.972145000"><ele>131.3</ele><time>2026-08-15T00:00:00Z</time></trkpt>
<trkpt lat="37.811607000" lon="-121.972170000"><ele>131.2</ele><time>2026-08-15T00:00:00Z</time></trkpt>
<trkpt lat="37.811687000" lon="-121.972200000"><ele>131.1</ele><time>2026-08-15T00:00:00Z</time></trkpt>
<trkpt lat="37.811768000" lon="-121.972180000"><ele>131.0</ele><time>2026-08-15T00:00:00Z</time></trkpt>
<trkpt lat="37.811848000" lon="-121.972140000"><ele>130.8</ele><time>2026-08-15T00:00:00Z</time></trkpt>
<trkpt lat="37.811940000" lon="-121.972110000"><ele>130.7</ele><time>2026-08-15T00:00:00Z</time></trkpt>
<trkpt lat="37.812035000" lon="-121.972110000"><ele>130.5</ele><time>2026-08-15T00:00:00Z</time></trkpt>
<trkpt lat="37.812084000" lon="-121.972210000"><ele>130.4</ele><time>2026-08-15T00:00:00Z</time></trkpt>
<trkpt lat="37.812096000" lon="-121.972330000"><ele>130.3</ele><time>2026-08-15T00:00:00Z</time></trkpt>
<trkpt lat="37.812088000" lon="-121.972440000"><ele>130.0</ele><time>2026-08-15T00:00:00Z</time></trkpt>
<trkpt lat="37.812080000" lon="-121.972565000"><ele>129.7</ele><time>2026-08-15T00:00:00Z</time></trkpt>
<trkpt lat="37.812077000" lon="-121.972664000"><ele>129.5</ele><time>2026-08-15T00:00:00Z</time></trkpt>
<trkpt lat="37.812088000" lon="-121.972770000"><ele>129.2</ele><time>2026-08-15T00:00:00Z</time></trkpt>
<trkpt lat="37.812090000" lon="-121.972880000"><ele>128.9</ele><time>2026-08-15T00:00:00Z</time></trkpt>
<trkpt lat="37.812122000" lon="-121.972990000"><ele>128.5</ele><time>2026-08-15T00:00:00Z</time></trkpt>
<trkpt lat="37.812157000" lon="-121.973100000"><ele>128.3</ele><time>2026-08-15T00:00:00Z</time></trkpt>
<trkpt lat="37.812225000" lon="-121.973175000"><ele>128.0</ele><time>2026-08-15T00:00:00Z</time></trkpt>
<trkpt lat="37.812290000" lon="-121.973250000"><ele>127.8</ele><time>2026-08-15T00:00:00Z</time></trkpt>
<trkpt lat="37.812366000" lon="-121.973310000"><ele>127.6</ele><time>2026-08-15T00:00:00Z</time></trkpt>
<trkpt lat="37.812447000" lon="-121.973350000"><ele>127.5</ele><time>2026-08-15T00:00:00Z</time></trkpt>
<trkpt lat="37.812534000" lon="-121.973390000"><ele>127.4</ele><time>2026-08-15T00:00:00Z</time></trkpt>
<trkpt lat="37.812626000" lon="-121.973420000"><ele>127.3</ele><time>2026-08-15T00:00:00Z</time></trkpt>
<trkpt lat="37.812710000" lon="-121.973460000"><ele>127.2</ele><time>2026-08-15T00:00:00Z</time></trkpt>
<trkpt lat="37.812794000" lon="-121.973480000"><ele>127.1</ele><time>2026-08-15T00:00:00Z</time></trkpt>
<trkpt lat="37.812885000" lon="-121.973500000"><ele>127.0</ele><time>2026-08-15T00:00:00Z</time></trkpt>
<trkpt lat="37.812960000" lon="-121.973550000"><ele>127.0</ele><time>2026-08-15T00:00:00Z</time></trkpt>
<trkpt lat="37.813053000" lon="-121.973595000"><ele>127.0</ele><time>2026-08-15T00:00:00Z</time></trkpt>
<trkpt lat="37.813107000" lon="-121.973680000"><ele>127.0</ele><time>2026-08-15T00:00:00Z</time></trkpt>
<trkpt lat="37.813087000" lon="-121.973790000"><ele>126.9</ele><time>2026-08-15T00:00:00Z</time></trkpt>
<trkpt lat="37.813038000" lon="-121.973885000"><ele>126.8</ele><time>2026-08-15T00:00:00Z</time></trkpt>
<trkpt lat="37.812992000" lon="-121.973990000"><ele>126.7</ele><time>2026-08-15T00:00:00Z</time></trkpt>
<trkpt lat="37.812943000" lon="-121.974075000"><ele>126.6</ele><time>2026-08-15T00:00:00Z</time></trkpt>
<trkpt lat="37.812910000" lon="-121.974174000"><ele>126.5</ele><time>2026-08-15T00:00:00Z</time></trkpt>
<trkpt lat="37.812866000" lon="-121.974266000"><ele>126.5</ele><time>2026-08-15T00:00:00Z</time></trkpt>
<trkpt lat="37.812824000" lon="-121.974360000"><ele>126.4</ele><time>2026-08-15T00:00:00Z</time></trkpt>
<trkpt lat="37.812794000" lon="-121.974464000"><ele>126.3</ele><time>2026-08-15T00:00:00Z</time></trkpt>
<trkpt lat="37.812770000" lon="-121.974560000"><ele>126.2</ele><time>2026-08-15T00:00:00Z</time></trkpt>
<trkpt lat="37.812717000" lon="-121.974655000"><ele>126.1</ele><time>2026-08-15T00:00:00Z</time></trkpt>
<trkpt lat="37.812675000" lon="-121.974754000"><ele>125.9</ele><time>2026-08-15T00:00:00Z</time></trkpt>
<trkpt lat="37.812637000" lon="-121.974846000"><ele>125.8</ele><time>2026-08-15T00:00:00Z</time></trkpt>
<trkpt lat="37.812588000" lon="-121.974930000"><ele>125.7</ele><time>2026-08-15T00:00:00Z</time></trkpt>
<trkpt lat="37.812550000" lon="-121.975020000"><ele>125.6</ele><time>2026-08-15T00:00:00Z</time></trkpt>
<trkpt lat="37.812500000" lon="-121.975105000"><ele>125.5</ele><time>2026-08-15T00:00:00Z</time></trkpt>
<trkpt lat="37.812458000" lon="-121.975210000"><ele>125.5</ele><time>2026-08-15T00:00:00Z</time></trkpt>
<trkpt lat="37.812412000" lon="-121.975300000"><ele>125.4</ele><time>2026-08-15T00:00:00Z</time></trkpt>
<trkpt lat="37.812374000" lon="-121.975400000"><ele>125.3</ele><time>2026-08-15T00:00:00Z</time></trkpt>
<trkpt lat="37.812347000" lon="-121.975520000"><ele>125.2</ele><time>2026-08-15T00:00:00Z</time></trkpt>
<trkpt lat="37.812313000" lon="-121.975620000"><ele>125.1</ele><time>2026-08-15T00:00:00Z</time></trkpt>
<trkpt lat="37.812286000" lon="-121.975716000"><ele>125.0</ele><time>2026-08-15T00:00:00Z</time></trkpt>
<trkpt lat="37.812250000" lon="-121.975815000"><ele>125.0</ele><time>2026-08-15T00:00:00Z</time></trkpt>
<trkpt lat="37.812195000" lon="-121.975920000"><ele>125.0</ele><time>2026-08-15T00:00:00Z</time></trkpt>
<trkpt lat="37.812150000" lon="-121.976020000"><ele>125.0</ele><time>2026-08-15T00:00:00Z</time></trkpt>
<trkpt lat="37.812090000" lon="-121.976110000"><ele>124.9</ele><time>2026-08-15T00:00:00Z</time></trkpt>
<trkpt lat="37.812065000" lon="-121.976220000"><ele>124.8</ele><time>2026-08-15T00:00:00Z</time></trkpt>
<trkpt lat="37.812010000" lon="-121.976320000"><ele>124.7</ele><time>2026-08-15T00:00:00Z</time></trkpt>
<trkpt lat="37.811962000" lon="-121.976410000"><ele>124.6</ele><time>2026-08-15T00:00:00Z</time></trkpt>
<trkpt lat="37.811924000" lon="-121.976500000"><ele>124.5</ele><time>2026-08-15T00:00:00Z</time></trkpt>
<trkpt lat="37.811832000" lon="-121.976494000"><ele>124.5</ele><time>2026-08-15T00:00:00Z</time></trkpt>
<trkpt lat="37.811752000" lon="-121.976430000"><ele>124.4</ele><time>2026-08-15T00:00:00Z</time></trkpt>
<trkpt lat="37.811670000" lon="-121.976390000"><ele>124.3</ele><time>2026-08-15T00:00:00Z</time></trkpt>
<trkpt lat="37.811596000" lon="-121.976330000"><ele>124.2</ele><time>2026-08-15T00:00:00Z</time></trkpt>
<trkpt lat="37.811520000" lon="-121.976280000"><ele>124.1</ele><time>2026-08-15T00:00:00Z</time></trkpt>
<trkpt lat="37.811436000" lon="-121.976230000"><ele>124.0</ele><time>2026-08-15T00:00:00Z</time></trkpt>
<trkpt lat="37.811360000" lon="-121.976170000"><ele>124.1</ele><time>2026-08-15T00:00:00Z</time></trkpt>
<trkpt lat="37.811283000" lon="-121.976110000"><ele>124.2</ele><time>2026-08-15T00:00:00Z</time></trkpt>
<trkpt lat="37.811200000" lon="-121.976060000"><ele>124.3</ele><time>2026-08-15T00:00:00Z</time></trkpt>
<trkpt lat="37.811115000" lon="-121.976060000"><ele>124.4</ele><time>2026-08-15T00:00:00Z</time></trkpt>
<trkpt lat="37.811020000" lon="-121.976090000"><ele>124.5</ele><time>2026-08-15T00:00:00Z</time></trkpt>
<trkpt lat="37.810966000" lon="-121.976000000"><ele>124.8</ele><time>2026-08-15T00:00:00Z</time></trkpt>
<trkpt lat="37.810890000" lon="-121.976050000"><ele>125.1</ele><time>2026-08-15T00:00:00Z</time></trkpt>
<trkpt lat="37.810820000" lon="-121.975990000"><ele>125.5</ele><time>2026-08-15T00:00:00Z</time></trkpt>
<trkpt lat="37.810800000" lon="-121.975876000"><ele>125.9</ele><time>2026-08-15T00:00:00Z</time></trkpt>
<trkpt lat="37.810776000" lon="-121.975780000"><ele>126.4</ele><time>2026-08-15T00:00:00Z</time></trkpt>
<trkpt lat="37.810700000" lon="-121.975716000"><ele>126.9</ele><time>2026-08-15T00:00:00Z</time></trkpt>
<trkpt lat="37.810610000" lon="-121.975710000"><ele>127.4</ele><time>2026-08-15T00:00:00Z</time></trkpt>
<trkpt lat="37.810520000" lon="-121.975690000"><ele>127.8</ele><time>2026-08-15T00:00:00Z</time></trkpt>
<trkpt lat="37.810430000" lon="-121.975680000"><ele>128.3</ele><time>2026-08-15T00:00:00Z</time></trkpt>
<trkpt lat="37.810345000" lon="-121.975650000"><ele>128.7</ele><time>2026-08-15T00:00:00Z</time></trkpt>
<trkpt lat="37.810270000" lon="-121.975600000"><ele>129.0</ele><time>2026-08-15T00:00:00Z</time></trkpt>
<trkpt lat="37.810204000" lon="-121.975525000"><ele>129.2</ele><time>2026-08-15T00:00:00Z</time></trkpt>
<trkpt lat="37.810140000" lon="-121.975450000"><ele>129.3</ele><time>2026-08-15T00:00:00Z</time></trkpt>
<trkpt lat="37.810060000" lon="-121.975480000"><ele>129.3</ele><time>2026-08-15T00:00:00Z</time></trkpt>
<trkpt lat="37.809990000" lon="-121.975555000"><ele>129.1</ele><time>2026-08-15T00:00:00Z</time></trkpt>
<trkpt lat="37.809930000" lon="-121.975624000"><ele>128.9</ele><time>2026-08-15T00:00:00Z</time></trkpt>
<trkpt lat="37.809870000" lon="-121.975710000"><ele>128.6</ele><time>2026-08-15T00:00:00Z</time></trkpt>
<trkpt lat="37.809837000" lon="-121.975820000"><ele>128.3</ele><time>2026-08-15T00:00:00Z</time></trkpt>
<trkpt lat="37.809820000" lon="-121.975940000"><ele>127.9</ele><time>2026-08-15T00:00:00Z</time></trkpt>
<trkpt lat="37.809803000" lon="-121.976040000"><ele>127.5</ele><time>2026-08-15T00:00:00Z</time></trkpt>
<trkpt lat="37.809814000" lon="-121.976150000"><ele>127.2</ele><time>2026-08-15T00:00:00Z</time></trkpt>
<trkpt lat="37.809784000" lon="-121.976265000"><ele>127.0</ele><time>2026-08-15T00:00:00Z</time></trkpt>
<trkpt lat="37.809788000" lon="-121.976380000"><ele>126.8</ele><time>2026-08-15T00:00:00Z</time></trkpt>
<trkpt lat="37.809837000" lon="-121.976470000"><ele>126.6</ele><time>2026-08-15T00:00:00Z</time></trkpt>
<trkpt lat="37.809807000" lon="-121.976520000"><ele>126.3</ele><time>2026-08-15T00:00:00Z</time></trkpt>
</trkseg>
</trk>
</gpx>
