<?xml version="1.0" encoding="UTF-8"?>
<gpx
  version="1.1"
  creator="Runkeeper - http://www.runkeeper.com"
  xmlns:xsi="http://www.w3.org/2001/XMLSchema-instance"
  xmlns="http://www.topografix.com/GPX/1/1"
  xsi:schemaLocation="http://www.topografix.com/GPX/1/1 http://www.topografix.com/GPX/1/1/gpx.xsd"
  xmlns:gpxtpx="http://www.garmin.com/xmlschemas/TrackPointExtension/v1">
<trk>
  <name><![CDATA[Walking 9/7/26]]></name>
  <time>2026-09-08T00:00:00Z</time>
<trkseg>
<trkpt lat="37.820927000" lon="-121.980090000"><ele>121.2</ele><time>2026-09-08T00:00:00Z</time></trkpt>
<trkpt lat="37.821007000" lon="-121.980125000"><ele>121.1</ele><time>2026-09-08T00:00:00Z</time></trkpt>
<trkpt lat="37.821056000" lon="-121.980210000"><ele>121.1</ele><time>2026-09-08T00:00:00Z</time></trkpt>
<trkpt lat="37.821102000" lon="-121.980310000"><ele>121.1</ele><time>2026-09-08T00:00:00Z</time></trkpt>
<trkpt lat="37.821144000" lon="-121.980410000"><ele>121.1</ele><time>2026-09-08T00:00:00Z</time></trkpt>
<trkpt lat="37.821182000" lon="-121.980510000"><ele>121.0</ele><time>2026-09-08T00:00:00Z</time></trkpt>
<trkpt lat="37.821240000" lon="-121.980590000"><ele>120.9</ele><time>2026-09-08T00:00:00Z</time></trkpt>
<trkpt lat="37.821285000" lon="-121.980690000"><ele>120.7</ele><time>2026-09-08T00:00:00Z</time></trkpt>
<trkpt lat="37.821323000" lon="-121.980790000"><ele>120.6</ele><time>2026-09-08T00:00:00Z</time></trkpt>
<trkpt lat="37.821342000" lon="-121.980900000"><ele>120.5</ele><time>2026-09-08T00:00:00Z</time></trkpt>
<trkpt lat="37.821316000" lon="-121.981000000"><ele>120.5</ele><time>2026-09-08T00:00:00Z</time></trkpt>
<trkpt lat="37.821255000" lon="-121.981070000"><ele>120.3</ele><time>2026-09-08T00:00:00Z</time></trkpt>
<trkpt lat="37.821180000" lon="-121.981110000"><ele>120.1</ele><time>2026-09-08T00:00:00Z</time></trkpt>
<trkpt lat="37.821095000" lon="-121.981155000"><ele>119.9</ele><time>2026-09-08T00:00:00Z</time></trkpt>
<trkpt lat="37.821020000" lon="-121.981200000"><ele>119.8</ele><time>2026-09-08T00:00:00Z</time></trkpt>
<trkpt lat="37.820942000" lon="-121.981250000"><ele>119.7</ele><time>2026-09-08T00:00:00Z</time></trkpt>
<trkpt lat="37.820866000" lon="-121.981310000"><ele>119.8</ele><time>2026-09-08T00:00:00Z</time></trkpt>
<trkpt lat="37.820790000" lon="-121.981370000"><ele>119.9</ele><time>2026-09-08T00:00:00Z</time></trkpt>
<trkpt lat="37.820713000" lon="-121.981415000"><ele>120.1</ele><time>2026-09-08T00:00:00Z</time></trkpt>
<trkpt lat="37.820644000" lon="-121.981476000"><ele>120.2</ele><time>2026-09-08T00:00:00Z</time></trkpt>
<trkpt lat="37.820568000" lon="-121.981520000"><ele>120.2</ele><time>2026-09-08T00:00:00Z</time></trkpt>
<trkpt lat="37.820488000" lon="-121.981570000"><ele>120.2</ele><time>2026-09-08T00:00:00Z</time></trkpt>
<trkpt lat="37.820440000" lon="-121.981640000"><ele>120.3</ele><time>2026-09-08T00:00:00Z</time></trkpt>
<trkpt lat="37.820362000" lon="-121.981710000"><ele>120.4</ele><time>2026-09-08T00:00:00Z</time></trkpt>
<trkpt lat="37.820440000" lon="-121.981650000"><ele>120.5</ele><time>2026-09-08T00:00:00Z</time></trkpt>
<trkpt lat="37.820510000" lon="-121.981590000"><ele>120.4</ele><time>2026-09-08T00:00:00Z</time></trkpt>
<trkpt lat="37.820560000" lon="-121.981674000"><ele>120.3</ele><time>2026-09-08T00:00:00Z</time></trkpt>
<trkpt lat="37.820606000" lon="-121.981766000"><ele>120.0</ele><time>2026-09-08T00:00:00Z</time></trkpt>
<trkpt lat="37.820652000" lon="-121.981865000"><ele>119.7</ele><time>2026-09-08T00:00:00Z</time></trkpt>
<trkpt lat="37.820694000" lon="-121.981970000"><ele>119.4</ele><time>2026-09-08T00:00:00Z</time></trkpt>
<trkpt lat="37.820732000" lon="-121.982060000"><ele>119.1</ele><time>2026-09-08T00:00:00Z</time></trkpt>
<trkpt lat="37.820774000" lon="-121.982160000"><ele>118.9</ele><time>2026-09-08T00:00:00Z</time></trkpt>
<trkpt lat="37.820812000" lon="-121.982254000"><ele>118.6</ele><time>2026-09-08T00:00:00Z</time></trkpt>
<trkpt lat="37.820854000" lon="-121.982340000"><ele>118.4</ele><time>2026-09-08T00:00:00Z</time></trkpt>
<trkpt lat="37.820892000" lon="-121.982430000"><ele>118.1</ele><time>2026-09-08T00:00:00Z</time></trkpt>
<trkpt lat="37.820934000" lon="-121.982530000"><ele>117.8</ele><time>2026-09-08T00:00:00Z</time></trkpt>
<trkpt lat="37.820976000" lon="-121.982620000"><ele>117.6</ele><time>2026-09-08T00:00:00Z</time></trkpt>
<trkpt lat="37.821022000" lon="-121.982720000"><ele>117.5</ele><time>2026-09-08T00:00:00Z</time></trkpt>
<trkpt lat="37.821060000" lon="-121.982810000"><ele>117.5</ele><time>2026-09-08T00:00:00Z</time></trkpt>
<trkpt lat="37.821102000" lon="-121.982910000"><ele>117.5</ele><time>2026-09-08T00:00:00Z</time></trkpt>
<trkpt lat="37.821140000" lon="-121.983010000"><ele>117.5</ele><time>2026-09-08T00:00:00Z</time></trkpt>
<trkpt lat="37.821182000" lon="-121.983100000"><ele>117.4</ele><time>2026-09-08T00:00:00Z</time></trkpt>
<trkpt lat="37.821228000" lon="-121.983210000"><ele>117.3</ele><time>2026-09-08T00:00:00Z</time></trkpt>
<trkpt lat="37.821266000" lon="-121.983300000"><ele>117.2</ele><time>2026-09-08T00:00:00Z</time></trkpt>
<trkpt lat="37.821304000" lon="-121.983390000"><ele>117.1</ele><time>2026-09-08T00:00:00Z</time></trkpt>
<trkpt lat="37.821342000" lon="-121.983490000"><ele>117.0</ele><time>2026-09-08T00:00:00Z</time></trkpt>
<trkpt lat="37.821380000" lon="-121.983580000"><ele>116.9</ele><time>2026-09-08T00:00:00Z</time></trkpt>
<trkpt lat="37.821415000" lon="-121.983680000"><ele>116.8</ele><time>2026-09-08T00:00:00Z</time></trkpt>
<trkpt lat="37.821457000" lon="-121.983770000"><ele>116.6</ele><time>2026-09-08T00:00:00Z</time></trkpt>
<trkpt lat="37.821487000" lon="-121.983864000"><ele>116.5</ele><time>2026-09-08T00:00:00Z</time></trkpt>
<trkpt lat="37.821520000" lon="-121.983970000"><ele>116.3</ele><time>2026-09-08T00:00:00Z</time></trkpt>
<trkpt lat="37.821564000" lon="-121.984060000"><ele>116.2</ele><time>2026-09-08T00:00:00Z</time></trkpt>
<trkpt lat="37.821606000" lon="-121.984146000"><ele>116.0</ele><time>2026-09-08T00:00:00Z</time></trkpt>
<trkpt lat="37.821650000" lon="-121.984245000"><ele>115.8</ele><time>2026-09-08T00:00:00Z</time></trkpt>
<trkpt lat="37.821693000" lon="-121.984340000"><ele>115.7</ele><time>2026-09-08T00:00:00Z</time></trkpt>
<trkpt lat="37.821740000" lon="-121.984430000"><ele>115.7</ele><time>2026-09-08T00:00:00Z</time></trkpt>
<trkpt lat="37.821777000" lon="-121.984520000"><ele>115.7</ele><time>2026-09-08T00:00:00Z</time></trkpt>
<trkpt lat="37.821810000" lon="-121.984630000"><ele>115.7</ele><time>2026-09-08T00:00:00Z</time></trkpt>
<trkpt lat="37.821854000" lon="-121.984710000"><ele>115.7</ele><time>2026-09-08T00:00:00Z</time></trkpt>
<trkpt lat="37.821890000" lon="-121.984800000"><ele>115.6</ele><time>2026-09-08T00:00:00Z</time></trkpt>
<trkpt lat="37.821934000" lon="-121.984910000"><ele>115.5</ele><time>2026-09-08T00:00:00Z</time></trkpt>
<trkpt lat="37.821980000" lon="-121.985000000"><ele>115.5</ele><time>2026-09-08T00:00:00Z</time></trkpt>
<trkpt lat="37.822030000" lon="-121.985100000"><ele>115.4</ele><time>2026-09-08T00:00:00Z</time></trkpt>
<trkpt lat="37.822075000" lon="-121.985200000"><ele>115.4</ele><time>2026-09-08T00:00:00Z</time></trkpt>
<trkpt lat="37.822113000" lon="-121.985306000"><ele>115.5</ele><time>2026-09-08T00:00:00Z</time></trkpt>
<trkpt lat="37.822160000" lon="-121.985410000"><ele>115.5</ele><time>2026-09-08T00:00:00Z</time></trkpt>
<trkpt lat="37.822197000" lon="-121.985504000"><ele>115.4</ele><time>2026-09-08T00:00:00Z</time></trkpt>
<trkpt lat="37.822240000" lon="-121.985610000"><ele>115.3</ele><time>2026-09-08T00:00:00Z</time></trkpt>
<trkpt lat="37.822277000" lon="-121.985710000"><ele>115.2</ele><time>2026-09-08T00:00:00Z</time></trkpt>
<trkpt lat="37.822323000" lon="-121.985810000"><ele>115.2</ele><time>2026-09-08T00:00:00Z</time></trkpt>
<trkpt lat="37.822372000" lon="-121.985910000"><ele>115.3</ele><time>2026-09-08T00:00:00Z</time></trkpt>
<trkpt lat="37.822407000" lon="-121.986015000"><ele>115.4</ele><time>2026-09-08T00:00:00Z</time></trkpt>
<trkpt lat="37.822445000" lon="-121.986115000"><ele>115.5</ele><time>2026-09-08T00:00:00Z</time></trkpt>
<trkpt lat="37.822483000" lon="-121.986210000"><ele>115.5</ele><time>2026-09-08T00:00:00Z</time></trkpt>
<trkpt lat="37.822520000" lon="-121.986310000"><ele>115.6</ele><time>2026-09-08T00:00:00Z</time></trkpt>
<trkpt lat="37.822563000" lon="-121.986420000"><ele>115.6</ele><time>2026-09-08T00:00:00Z</time></trkpt>
<trkpt lat="37.822600000" lon="-121.986520000"><ele>115.7</ele><time>2026-09-08T00:00:00Z</time></trkpt>
<trkpt lat="37.822650000" lon="-121.986610000"><ele>115.8</ele><time>2026-09-08T00:00:00Z</time></trkpt>
<trkpt lat="37.822685000" lon="-121.986710000"><ele>115.8</ele><time>2026-09-08T00:00:00Z</time></trkpt>
<trkpt lat="37.822727000" lon="-121.986800000"><ele>115.8</ele><time>2026-09-08T00:00:00Z</time></trkpt>
<trkpt lat="37.822770000" lon="-121.986890000"><ele>115.8</ele><time>2026-09-08T00:00:00Z</time></trkpt>
<trkpt lat="37.822823000" lon="-121.986984000"><ele>115.8</ele><time>2026-09-08T00:00:00Z</time></trkpt>
<trkpt lat="37.822872000" lon="-121.987080000"><ele>115.8</ele><time>2026-09-08T00:00:00Z</time></trkpt>
<trkpt lat="37.822926000" lon="-121.987175000"><ele>115.8</ele><time>2026-09-08T00:00:00Z</time></trkpt>
<trkpt lat="37.822975000" lon="-121.987274000"><ele>115.7</ele><time>2026-09-08T00:00:00Z</time></trkpt>
<trkpt lat="37.822968000" lon="-121.987380000"><ele>115.6</ele><time>2026-09-08T00:00:00Z</time></trkpt>
<trkpt lat="37.822876000" lon="-121.987400000"><ele>115.5</ele><time>2026-09-08T00:00:00Z</time></trkpt>
<trkpt lat="37.822796000" lon="-121.987420000"><ele>115.5</ele><time>2026-09-08T00:00:00Z</time></trkpt>
<trkpt lat="37.822704000" lon="-121.987440000"><ele>115.4</ele><time>2026-09-08T00:00:00Z</time></trkpt>
<trkpt lat="37.822613000" lon="-121.987460000"><ele>115.4</ele><time>2026-09-08T00:00:00Z</time></trkpt>
<trkpt lat="37.822530000" lon="-121.987470000"><ele>115.4</ele><time>2026-09-08T00:00:00Z</time></trkpt>
<trkpt lat="37.822440000" lon="-121.987495000"><ele>115.3</ele><time>2026-09-08T00:00:00Z</time></trkpt>
<trkpt lat="37.822353000" lon="-121.987530000"><ele>115.2</ele><time>2026-09-08T00:00:00Z</time></trkpt>
<trkpt lat="37.822270000" lon="-121.987560000"><ele>115.1</ele><time>2026-09-08T00:00:00Z</time></trkpt>
<trkpt lat="37.822180000" lon="-121.987595000"><ele>115.0</ele><time>2026-09-08T00:00:00Z</time></trkpt>
<trkpt lat="37.822100000" lon="-121.987625000"><ele>115.0</ele><time>2026-09-08T00:00:00Z</time></trkpt>
<trkpt lat="37.822020000" lon="-121.987680000"><ele>115.0</ele><time>2026-09-08T00:00:00Z</time></trkpt>
<trkpt lat="37.821945000" lon="-121.987724000"><ele>115.0</ele><time>2026-09-08T00:00:00Z</time></trkpt>
<trkpt lat="37.821870000" lon="-121.987770000"><ele>114.9</ele><time>2026-09-08T00:00:00Z</time></trkpt>
<trkpt lat="37.821790000" lon="-121.987820000"><ele>114.8</ele><time>2026-09-08T00:00:00Z</time></trkpt>
<trkpt lat="37.821716000" lon="-121.987885000"><ele>114.8</ele><time>2026-09-08T00:00:00Z</time></trkpt>
<trkpt lat="37.821640000" lon="-121.987940000"><ele>114.8</ele><time>2026-09-08T00:00:00Z</time></trkpt>
<trkpt lat="37.821570000" lon="-121.988010000"><ele>114.8</ele><time>2026-09-08T00:00:00Z</time></trkpt>
<trkpt lat="37.821500000" lon="-121.988080000"><ele>114.8</ele><time>2026-09-08T00:00:00Z</time></trkpt>
<trkpt lat="37.821426000" lon="-121.988150000"><ele>114.8</ele><time>2026-09-08T00:00:00Z</time></trkpt>
<trkpt lat="37.821360000" lon="-121.988220000"><ele>114.8</ele><time>2026-09-08T00:00:00Z</time></trkpt>
<trkpt lat="37.821304000" lon="-121.988300000"><ele>114.8</ele><time>2026-09-08T00:00:00Z</time></trkpt>
<trkpt lat="37.821247000" lon="-121.988370000"><ele>114.8</ele><time>2026-09-08T00:00:00Z</time></trkpt>
<trkpt lat="37.821186000" lon="-121.988450000"><ele>114.8</ele><time>2026-09-08T00:00:00Z</time></trkpt>
<trkpt lat="37.821125000" lon="-121.988525000"><ele>115.0</ele><time>2026-09-08T00:00:00Z</time></trkpt>
<trkpt lat="37.821037000" lon="-121.988550000"><ele>115.3</ele><time>2026-09-08T00:00:00Z</time></trkpt>
<trkpt lat="37.820953000" lon="-121.988525000"><ele>115.5</ele><time>2026-09-08T00:00:00Z</time></trkpt>
<trkpt lat="37.820885000" lon="-121.988464000"><ele>116.0</ele><time>2026-09-08T00:00:00Z</time></trkpt>
<trkpt lat="37.820812000" lon="-121.988420000"><ele>116.6</ele><time>2026-09-08T00:00:00Z</time></trkpt>
<trkpt lat="37.820740000" lon="-121.988370000"><ele>117.4</ele><time>2026-09-08T00:00:00Z</time></trkpt>
<trkpt lat="37.820656000" lon="-121.988320000"><ele>118.2</ele><time>2026-09-08T00:00:00Z</time></trkpt>
<trkpt lat="37.820576000" lon="-121.988300000"><ele>119.0</ele><time>2026-09-08T00:00:00Z</time></trkpt>
<trkpt lat="37.820490000" lon="-121.988260000"><ele>119.7</ele><time>2026-09-08T00:00:00Z</time></trkpt>
<trkpt lat="37.820400000" lon="-121.988205000"><ele>120.5</ele><time>2026-09-08T00:00:00Z</time></trkpt>
<trkpt lat="37.820312000" lon="-121.988180000"><ele>121.0</ele><time>2026-09-08T00:00:00Z</time></trkpt>
<trkpt lat="37.820225000" lon="-121.988170000"><ele>121.4</ele><time>2026-09-08T00:00:00Z</time></trkpt>
<trkpt lat="37.820133000" lon="-121.988144000"><ele>121.5</ele><time>2026-09-08T00:00:00Z</time></trkpt>
<trkpt lat="37.820057000" lon="-121.988080000"><ele>121.5</ele><time>2026-09-08T00:00:00Z</time></trkpt>
<trkpt lat="37.819973000" lon="-121.988080000"><ele>121.2</ele><time>2026-09-08T00:00:00Z</time></trkpt>
<trkpt lat="37.819880000" lon="-121.988080000"><ele>120.6</ele><time>2026-09-08T00:00:00Z</time></trkpt>
<trkpt lat="37.819798000" lon="-121.988100000"><ele>120.0</ele><time>2026-09-08T00:00:00Z</time></trkpt>
<trkpt lat="37.819710000" lon="-121.988100000"><ele>119.3</ele><time>2026-09-08T00:00:00Z</time></trkpt>
<trkpt lat="37.819626000" lon="-121.988110000"><ele>118.5</ele><time>2026-09-08T00:00:00Z</time></trkpt>
<trkpt lat="37.819542000" lon="-121.988144000"><ele>117.7</ele><time>2026-09-08T00:00:00Z</time></trkpt>
<trkpt lat="37.819458000" lon="-121.988190000"><ele>117.0</ele><time>2026-09-08T00:00:00Z</time></trkpt>
<trkpt lat="37.819370000" lon="-121.988220000"><ele>116.5</ele><time>2026-09-08T00:00:00Z</time></trkpt>
<trkpt lat="37.819280000" lon="-121.988250000"><ele>116.0</ele><time>2026-09-08T00:00:00Z</time></trkpt>
<trkpt lat="37.819202000" lon="-121.988280000"><ele>115.7</ele><time>2026-09-08T00:00:00Z</time></trkpt>
<trkpt lat="37.819126000" lon="-121.988320000"><ele>115.5</ele><time>2026-09-08T00:00:00Z</time></trkpt>
<trkpt lat="37.819042000" lon="-121.988350000"><ele>115.3</ele><time>2026-09-08T00:00:00Z</time></trkpt>
<trkpt lat="37.818960000" lon="-121.988380000"><ele>115.2</ele><time>2026-09-08T00:00:00Z</time></trkpt>
<trkpt lat="37.818882000" lon="-121.988420000"><ele>115.2</ele><time>2026-09-08T00:00:00Z</time></trkpt>
<trkpt lat="37.818800000" lon="-121.988460000"><ele>115.2</ele><time>2026-09-08T00:00:00Z</time></trkpt>
<trkpt lat="37.818720000" lon="-121.988490000"><ele>115.3</ele><time>2026-09-08T00:00:00Z</time></trkpt>
<trkpt lat="37.818640000" lon="-121.988495000"><ele>115.4</ele><time>2026-09-08T00:00:00Z</time></trkpt>
<trkpt lat="37.818554000" lon="-121.988520000"><ele>115.5</ele><time>2026-09-08T00:00:00Z</time></trkpt>
<trkpt lat="37.818466000" lon="-121.988525000"><ele>115.7</ele><time>2026-09-08T00:00:00Z</time></trkpt>
<trkpt lat="37.818380000" lon="-121.988530000"><ele>116.0</ele><time>2026-09-08T00:00:00Z</time></trkpt>
<trkpt lat="37.818300000" lon="-121.988530000"><ele>116.4</ele><time>2026-09-08T00:00:00Z</time></trkpt>
<trkpt lat="37.818214000" lon="-121.988525000"><ele>116.7</ele><time>2026-09-08T00:00:00Z</time></trkpt>
<trkpt lat="37.818130000" lon="-121.988520000"><ele>117.2</ele><time>2026-09-08T00:00:00Z</time></trkpt>
<trkpt lat="37.818047000" lon="-121.988510000"><ele>117.7</ele><time>2026-09-08T00:00:00Z</time></trkpt>
<trkpt lat="37.817960000" lon="-121.988500000"><ele>118.3</ele><time>2026-09-08T00:00:00Z</time></trkpt>
<trkpt lat="37.817875000" lon="-121.988490000"><ele>118.8</ele><time>2026-09-08T00:00:00Z</time></trkpt>
<trkpt lat="37.817783000" lon="-121.988464000"><ele>119.5</ele><time>2026-09-08T00:00:00Z</time></trkpt>
<trkpt lat="37.817707000" lon="-121.988430000"><ele>120.1</ele><time>2026-09-08T00:00:00Z</time></trkpt>
<trkpt lat="37.817627000" lon="-121.988365000"><ele>120.6</ele><time>2026-09-08T00:00:00Z</time></trkpt>
<trkpt lat="37.817547000" lon="-121.988310000"><ele>121.2</ele><time>2026-09-08T00:00:00Z</time></trkpt>
<trkpt lat="37.817470000" lon="-121.988270000"><ele>121.5</ele><time>2026-09-08T00:00:00Z</time></trkpt>
<trkpt lat="37.817387000" lon="-121.988235000"><ele>121.8</ele><time>2026-09-08T00:00:00Z</time></trkpt>
<trkpt lat="37.817303000" lon="-121.988220000"><ele>122.0</ele><time>2026-09-08T00:00:00Z</time></trkpt>
<trkpt lat="37.817210000" lon="-121.988230000"><ele>122.1</ele><time>2026-09-08T00:00:00Z</time></trkpt>
<trkpt lat="37.817120000" lon="-121.988260000"><ele>122.0</ele><time>2026-09-08T00:00:00Z</time></trkpt>
<trkpt lat="37.817040000" lon="-121.988304000"><ele>121.8</ele><time>2026-09-08T00:00:00Z</time></trkpt>
<trkpt lat="37.816963000" lon="-121.988360000"><ele>121.6</ele><time>2026-09-08T00:00:00Z</time></trkpt>
<trkpt lat="37.816910000" lon="-121.988440000"><ele>121.4</ele><time>2026-09-08T00:00:00Z</time></trkpt>
<trkpt lat="37.816853000" lon="-121.988540000"><ele>121.0</ele><time>2026-09-08T00:00:00Z</time></trkpt>
<trkpt lat="37.816803000" lon="-121.988630000"><ele>120.6</ele><time>2026-09-08T00:00:00Z</time></trkpt>
<trkpt lat="37.816740000" lon="-121.988700000"><ele>120.3</ele><time>2026-09-08T00:00:00Z</time></trkpt>
<trkpt lat="37.816660000" lon="-121.988660000"><ele>119.9</ele><time>2026-09-08T00:00:00Z</time></trkpt>
<trkpt lat="37.816574000" lon="-121.988630000"><ele>119.5</ele><time>2026-09-08T00:00:00Z</time></trkpt>
<trkpt lat="37.816490000" lon="-121.988610000"><ele>119.3</ele><time>2026-09-08T00:00:00Z</time></trkpt>
<trkpt lat="37.816410000" lon="-121.988570000"><ele>119.0</ele><time>2026-09-08T00:00:00Z</time></trkpt>
<trkpt lat="37.816322000" lon="-121.988550000"><ele>118.8</ele><time>2026-09-08T00:00:00Z</time></trkpt>
<trkpt lat="37.816230000" lon="-121.988520000"><ele>118.6</ele><time>2026-09-08T00:00:00Z</time></trkpt>
<trkpt lat="37.816140000" lon="-121.988490000"><ele>118.5</ele><time>2026-09-08T00:00:00Z</time></trkpt>
<trkpt lat="37.816055000" lon="-121.988470000"><ele>118.3</ele><time>2026-09-08T00:00:00Z</time></trkpt>
<trkpt lat="37.815964000" lon="-121.988440000"><ele>118.1</ele><time>2026-09-08T00:00:00Z</time></trkpt>
<trkpt lat="37.815876000" lon="-121.988410000"><ele>117.9</ele><time>2026-09-08T00:00:00Z</time></trkpt>
<trkpt lat="37.815800000" lon="-121.988365000"><ele>117.7</ele><time>2026-09-08T00:00:00Z</time></trkpt>
<trkpt lat="37.815730000" lon="-121.988304000"><ele>117.7</ele><time>2026-09-08T00:00:00Z</time></trkpt>
<trkpt lat="37.815666000" lon="-121.988210000"><ele>117.7</ele><time>2026-09-08T00:00:00Z</time></trkpt>
<trkpt lat="37.815624000" lon="-121.988120000"><ele>117.7</ele><time>2026-09-08T00:00:00Z</time></trkpt>
<trkpt lat="37.815570000" lon="-121.988030000"><ele>117.7</ele><time>2026-09-08T00:00:00Z</time></trkpt>
<trkpt lat="37.815630000" lon="-121.988106000"><ele>117.7</ele><time>2026-09-08T00:00:00Z</time></trkpt>
<trkpt lat="37.815670000" lon="-121.988205000"><ele>117.7</ele><time>2026-09-08T00:00:00Z</time></trkpt>
<trkpt lat="37.815720000" lon="-121.988290000"><ele>117.7</ele><time>2026-09-08T00:00:00Z</time></trkpt>
<trkpt lat="37.815790000" lon="-121.988365000"><ele>117.7</ele><time>2026-09-08T00:00:00Z</time></trkpt>
<trkpt lat="37.815872000" lon="-121.988420000"><ele>117.9</ele><time>2026-09-08T00:00:00Z</time></trkpt>
<trkpt lat="37.815964000" lon="-121.988460000"><ele>118.1</ele><time>2026-09-08T00:00:00Z</time></trkpt>
<trkpt lat="37.816048000" lon="-121.988480000"><ele>118.3</ele><time>2026-09-08T00:00:00Z</time></trkpt>
<trkpt lat="37.816135000" lon="-121.988500000"><ele>118.5</ele><time>2026-09-08T00:00:00Z</time></trkpt>
<trkpt lat="37.816220000" lon="-121.988525000"><ele>118.6</ele><time>2026-09-08T00:00:00Z</time></trkpt>
<trkpt lat="37.816300000" lon="-121.988560000"><ele>118.8</ele><time>2026-09-08T00:00:00Z</time></trkpt>
<trkpt lat="37.816383000" lon="-121.988580000"><ele>119.0</ele><time>2026-09-08T00:00:00Z</time></trkpt>
<trkpt lat="37.816475000" lon="-121.988590000"><ele>119.2</ele><time>2026-09-08T00:00:00Z</time></trkpt>
<trkpt lat="37.816555000" lon="-121.988620000"><ele>119.4</ele><time>2026-09-08T00:00:00Z</time></trkpt>
<trkpt lat="37.816630000" lon="-121.988655000"><ele>119.5</ele><time>2026-09-08T00:00:00Z</time></trkpt>
<trkpt lat="37.816715000" lon="-121.988686000"><ele>119.5</ele><time>2026-09-08T00:00:00Z</time></trkpt>
<trkpt lat="37.816770000" lon="-121.988780000"><ele>119.5</ele><time>2026-09-08T00:00:00Z</time></trkpt>
<trkpt lat="37.816760000" lon="-121.988884000"><ele>119.4</ele><time>2026-09-08T00:00:00Z</time></trkpt>
<trkpt lat="37.816772000" lon="-121.988990000"><ele>119.2</ele><time>2026-09-08T00:00:00Z</time></trkpt>
<trkpt lat="37.816795000" lon="-121.989090000"><ele>118.9</ele><time>2026-09-08T00:00:00Z</time></trkpt>
<trkpt lat="37.816822000" lon="-121.989190000"><ele>118.6</ele><time>2026-09-08T00:00:00Z</time></trkpt>
<trkpt lat="37.816864000" lon="-121.989290000"><ele>118.4</ele><time>2026-09-08T00:00:00Z</time></trkpt>
<trkpt lat="37.816920000" lon="-121.989365000"><ele>118.1</ele><time>2026-09-08T00:00:00Z</time></trkpt>
<trkpt lat="37.816986000" lon="-121.989440000"><ele>117.8</ele><time>2026-09-08T00:00:00Z</time></trkpt>
<trkpt lat="37.817060000" lon="-121.989510000"><ele>117.5</ele><time>2026-09-08T00:00:00Z</time></trkpt>
<trkpt lat="37.817140000" lon="-121.989570000"><ele>117.4</ele><time>2026-09-08T00:00:00Z</time></trkpt>
<trkpt lat="37.817215000" lon="-121.989624000"><ele>117.1</ele><time>2026-09-08T00:00:00Z</time></trkpt>
<trkpt lat="37.817290000" lon="-121.989660000"><ele>116.9</ele><time>2026-09-08T00:00:00Z</time></trkpt>
<trkpt lat="37.817370000" lon="-121.989700000"><ele>116.7</ele><time>2026-09-08T00:00:00Z</time></trkpt>
<trkpt lat="37.817450000" lon="-121.989740000"><ele>116.6</ele><time>2026-09-08T00:00:00Z</time></trkpt>
<trkpt lat="37.817540000" lon="-121.989780000"><ele>116.5</ele><time>2026-09-08T00:00:00Z</time></trkpt>
<trkpt lat="37.817623000" lon="-121.989784000"><ele>116.5</ele><time>2026-09-08T00:00:00Z</time></trkpt>
<trkpt lat="37.817703000" lon="-121.989784000"><ele>116.4</ele><time>2026-09-08T00:00:00Z</time></trkpt>
<trkpt lat="37.817787000" lon="-121.989784000"><ele>116.3</ele><time>2026-09-08T00:00:00Z</time></trkpt>
<trkpt lat="37.817875000" lon="-121.989790000"><ele>116.2</ele><time>2026-09-08T00:00:00Z</time></trkpt>
<trkpt lat="37.817960000" lon="-121.989810000"><ele>116.1</ele><time>2026-09-08T00:00:00Z</time></trkpt>
<trkpt lat="37.818047000" lon="-121.989810000"><ele>116.0</ele><time>2026-09-08T00:00:00Z</time></trkpt>
<trkpt lat="37.818134000" lon="-121.989830000"><ele>116.0</ele><time>2026-09-08T00:00:00Z</time></trkpt>
<trkpt lat="37.818220000" lon="-121.989870000"><ele>115.9</ele><time>2026-09-08T00:00:00Z</time></trkpt>
<trkpt lat="37.818290000" lon="-121.989914000"><ele>115.8</ele><time>2026-09-08T00:00:00Z</time></trkpt>
<trkpt lat="37.818363000" lon="-121.989980000"><ele>115.7</ele><time>2026-09-08T00:00:00Z</time></trkpt>
<trkpt lat="37.818430000" lon="-121.990040000"><ele>115.6</ele><time>2026-09-08T00:00:00Z</time></trkpt>
<trkpt lat="37.818500000" lon="-121.990110000"><ele>115.5</ele><time>2026-09-08T00:00:00Z</time></trkpt>
<trkpt lat="37.818565000" lon="-121.990200000"><ele>115.5</ele><time>2026-09-08T00:00:00Z</time></trkpt>
<trkpt lat="37.818610000" lon="-121.990290000"><ele>115.4</ele><time>2026-09-08T00:00:00Z</time></trkpt>
<trkpt lat="37.818672000" lon="-121.990360000"><ele>115.3</ele><time>2026-09-08T00:00:00Z</time></trkpt>
<trkpt lat="37.818726000" lon="-121.990440000"><ele>115.2</ele><time>2026-09-08T00:00:00Z</time></trkpt>
<trkpt lat="37.818768000" lon="-121.990530000"><ele>115.1</ele><time>2026-09-08T00:00:00Z</time></trkpt>
<trkpt lat="37.818810000" lon="-121.990620000"><ele>115.0</ele><time>2026-09-08T00:00:00Z</time></trkpt>
<trkpt lat="37.818848000" lon="-121.990720000"><ele>115.0</ele><time>2026-09-08T00:00:00Z</time></trkpt>
<trkpt lat="37.818897000" lon="-121.990820000"><ele>115.0</ele><time>2026-09-08T00:00:00Z</time></trkpt>
<trkpt lat="37.818905000" lon="-121.990930000"><ele>115.0</ele><time>2026-09-08T00:00:00Z</time></trkpt>
<trkpt lat="37.818920000" lon="-121.991035000"><ele>115.0</ele><time>2026-09-08T00:00:00Z</time></trkpt>
<trkpt lat="37.818947000" lon="-121.991130000"><ele>115.0</ele><time>2026-09-08T00:00:00Z</time></trkpt>
<trkpt lat="37.818970000" lon="-121.991234000"><ele>115.0</ele><time>2026-09-08T00:00:00Z</time></trkpt>
<trkpt lat="37.819016000" lon="-121.991325000"><ele>115.0</ele><time>2026-09-08T00:00:00Z</time></trkpt>
<trkpt lat="37.819070000" lon="-121.991400000"><ele>115.0</ele><time>2026-09-08T00:00:00Z</time></trkpt>
<trkpt lat="37.819126000" lon="-121.991480000"><ele>115.0</ele><time>2026-09-08T00:00:00Z</time></trkpt>
<trkpt lat="37.819195000" lon="-121.991550000"><ele>115.0</ele><time>2026-09-08T00:00:00Z</time></trkpt>
<trkpt lat="37.819267000" lon="-121.991610000"><ele>115.0</ele><time>2026-09-08T00:00:00Z</time></trkpt>
<trkpt lat="37.819347000" lon="-121.991660000"><ele>115.0</ele><time>2026-09-08T00:00:00Z</time></trkpt>
<trkpt lat="37.819430000" lon="-121.991670000"><ele>115.0</ele><time>2026-09-08T00:00:00Z</time></trkpt>
<trkpt lat="37.819520000" lon="-121.991670000"><ele>115.0</ele><time>2026-09-08T00:00:00Z</time></trkpt>
<trkpt lat="37.819600000" lon="-121.991680000"><ele>115.0</ele><time>2026-09-08T00:00:00Z</time></trkpt>
<trkpt lat="37.819687000" lon="-121.991650000"><ele>115.0</ele><time>2026-09-08T00:00:00Z</time></trkpt>
<trkpt lat="37.819770000" lon="-121.991646000"><ele>115.0</ele><time>2026-09-08T00:00:00Z</time></trkpt>
<trkpt lat="37.819850000" lon="-121.991620000"><ele>115.0</ele><time>2026-09-08T00:00:00Z</time></trkpt>
<trkpt lat="37.819940000" lon="-121.991580000"><ele>115.0</ele><time>2026-09-08T00:00:00Z</time></trkpt>
<trkpt lat="37.820010000" lon="-121.991516000"><ele>115.0</ele><time>2026-09-08T00:00:00Z</time></trkpt>
<trkpt lat="37.820060000" lon="-121.991430000"><ele>115.0</ele><time>2026-09-08T00:00:00Z</time></trkpt>
<trkpt lat="37.820100000" lon="-121.991330000"><ele>115.0</ele><time>2026-09-08T00:00:00Z</time></trkpt>
<trkpt lat="37.820133000" lon="-121.991220000"><ele>115.0</ele><time>2026-09-08T00:00:00Z</time></trkpt>
<trkpt lat="37.820160000" lon="-121.991104000"><ele>115.0</ele><time>2026-09-08T00:00:00Z</time></trkpt>
<trkpt lat="37.820183000" lon="-121.991000000"><ele>115.0</ele><time>2026-09-08T00:00:00Z</time></trkpt>
<trkpt lat="37.820220000" lon="-121.990900000"><ele>115.0</ele><time>2026-09-08T00:00:00Z</time></trkpt>
<trkpt lat="37.820255000" lon="-121.990800000"><ele>115.0</ele><time>2026-09-08T00:00:00Z</time></trkpt>
<trkpt lat="37.820286000" lon="-121.990690000"><ele>115.0</ele><time>2026-09-08T00:00:00Z</time></trkpt>
<trkpt lat="37.820320000" lon="-121.990600000"><ele>115.0</ele><time>2026-09-08T00:00:00Z</time></trkpt>
<trkpt lat="37.820350000" lon="-121.990490000"><ele>114.9</ele><time>2026-09-08T00:00:00Z</time></trkpt>
<trkpt lat="37.820390000" lon="-121.990395000"><ele>114.8</ele><time>2026-09-08T00:00:00Z</time></trkpt>
<trkpt lat="37.820420000" lon="-121.990290000"><ele>114.8</ele><time>2026-09-08T00:00:00Z</time></trkpt>
<trkpt lat="37.820435000" lon="-121.990190000"><ele>114.8</ele><time>2026-09-08T00:00:00Z</time></trkpt>
<trkpt lat="37.820484000" lon="-121.990090000"><ele>114.8</ele><time>2026-09-08T00:00:00Z</time></trkpt>
<trkpt lat="37.820515000" lon="-121.989990000"><ele>114.8</ele><time>2026-09-08T00:00:00Z</time></trkpt>
<trkpt lat="37.820550000" lon="-121.989890000"><ele>114.8</ele><time>2026-09-08T00:00:00Z</time></trkpt>
<trkpt lat="37.820580000" lon="-121.989780000"><ele>114.9</ele><time>2026-09-08T00:00:00Z</time></trkpt>
<trkpt lat="37.820610000" lon="-121.989670000"><ele>115.0</ele><time>2026-09-08T00:00:00Z</time></trkpt>
<trkpt lat="37.820644000" lon="-121.989560000"><ele>115.0</ele><time>2026-09-08T00:00:00Z</time></trkpt>
<trkpt lat="37.820680000" lon="-121.989450000"><ele>115.0</ele><time>2026-09-08T00:00:00Z</time></trkpt>
<trkpt lat="37.820717000" lon="-121.989360000"><ele>115.1</ele><time>2026-09-08T00:00:00Z</time></trkpt>
<trkpt lat="37.820750000" lon="-121.989250000"><ele>115.2</ele><time>2026-09-08T00:00:00Z</time></trkpt>
<trkpt lat="37.820780000" lon="-121.989150000"><ele>115.2</ele><time>2026-09-08T00:00:00Z</time></trkpt>
<trkpt lat="37.820827000" lon="-121.989044000"><ele>115.2</ele><time>2026-09-08T00:00:00Z</time></trkpt>
<trkpt lat="37.820870000" lon="-121.988950000"><ele>115.2</ele><time>2026-09-08T00:00:00Z</time></trkpt>
<trkpt lat="37.820923000" lon="-121.988850000"><ele>115.2</ele><time>2026-09-08T00:00:00Z</time></trkpt>
<trkpt lat="37.820976000" lon="-121.988760000"><ele>115.2</ele><time>2026-09-08T00:00:00Z</time></trkpt>
<trkpt lat="37.821022000" lon="-121.988655000"><ele>115.1</ele><time>2026-09-08T00:00:00Z</time></trkpt>
<trkpt lat="37.821068000" lon="-121.988560000"><ele>114.9</ele><time>2026-09-08T00:00:00Z</time></trkpt>
<trkpt lat="37.821144000" lon="-121.988500000"><ele>114.8</ele><time>2026-09-08T00:00:00Z</time></trkpt>
<trkpt lat="37.821200000" lon="-121.988430000"><ele>114.7</ele><time>2026-09-08T00:00:00Z</time></trkpt>
<trkpt lat="37.821262000" lon="-121.988335000"><ele>114.7</ele><time>2026-09-08T00:00:00Z</time></trkpt>
<trkpt lat="37.821335000" lon="-121.988250000"><ele>114.7</ele><time>2026-09-08T00:00:00Z</time></trkpt>
<trkpt lat="37.821392000" lon="-121.988180000"><ele>114.7</ele><time>2026-09-08T00:00:00Z</time></trkpt>
<trkpt lat="37.821457000" lon="-121.988110000"><ele>114.7</ele><time>2026-09-08T00:00:00Z</time></trkpt>
<trkpt lat="37.821526000" lon="-121.988050000"><ele>114.7</ele><time>2026-09-08T00:00:00Z</time></trkpt>
<trkpt lat="37.821598000" lon="-121.987990000"><ele>114.7</ele><time>2026-09-08T00:00:00Z</time></trkpt>
<trkpt lat="37.821680000" lon="-121.987930000"><ele>114.7</ele><time>2026-09-08T00:00:00Z</time></trkpt>
<trkpt lat="37.821760000" lon="-121.987880000"><ele>114.7</ele><time>2026-09-08T00:00:00Z</time></trkpt>
<trkpt lat="37.821835000" lon="-121.987830000"><ele>114.8</ele><time>2026-09-08T00:00:00Z</time></trkpt>
<trkpt lat="37.821907000" lon="-121.987785000"><ele>114.9</ele><time>2026-09-08T00:00:00Z</time></trkpt>
<trkpt lat="37.821983000" lon="-121.987730000"><ele>115.0</ele><time>2026-09-08T00:00:00Z</time></trkpt>
<trkpt lat="37.822056000" lon="-121.987680000"><ele>115.0</ele><time>2026-09-08T00:00:00Z</time></trkpt>
<trkpt lat="37.822140000" lon="-121.987650000"><ele>115.0</ele><time>2026-09-08T00:00:00Z</time></trkpt>
<trkpt lat="37.822224000" lon="-121.987610000"><ele>115.1</ele><time>2026-09-08T00:00:00Z</time></trkpt>
<trkpt lat="37.822300000" lon="-121.987570000"><ele>115.2</ele><time>2026-09-08T00:00:00Z</time></trkpt>
<trkpt lat="37.822380000" lon="-121.987550000"><ele>115.3</ele><time>2026-09-08T00:00:00Z</time></trkpt>
<trkpt lat="37.822464000" lon="-121.987520000"><ele>115.4</ele><time>2026-09-08T00:00:00Z</time></trkpt>
<trkpt lat="37.822550000" lon="-121.987495000"><ele>115.5</ele><time>2026-09-08T00:00:00Z</time></trkpt>
<trkpt lat="37.822636000" lon="-121.987480000"><ele>115.5</ele><time>2026-09-08T00:00:00Z</time></trkpt>
<trkpt lat="37.822730000" lon="-121.987460000"><ele>115.6</ele><time>2026-09-08T00:00:00Z</time></trkpt>
<trkpt lat="37.822807000" lon="-121.987434000"><ele>115.7</ele><time>2026-09-08T00:00:00Z</time></trkpt>
<trkpt lat="37.822890000" lon="-121.987400000"><ele>115.7</ele><time>2026-09-08T00:00:00Z</time></trkpt>
<trkpt lat="37.822970000" lon="-121.987370000"><ele>115.7</ele><time>2026-09-08T00:00:00Z</time></trkpt>
<trkpt lat="37.822940000" lon="-121.987270000"><ele>115.7</ele><time>2026-09-08T00:00:00Z</time></trkpt>
<trkpt lat="37.822880000" lon="-121.987180000"><ele>115.6</ele><time>2026-09-08T00:00:00Z</time></trkpt>
<trkpt lat="37.822910000" lon="-121.987080000"><ele>115.5</ele><time>2026-09-08T00:00:00Z</time></trkpt>
<trkpt lat="37.822950000" lon="-121.986984000"><ele>115.5</ele><time>2026-09-08T00:00:00Z</time></trkpt>
<trkpt lat="37.822937000" lon="-121.986870000"><ele>115.4</ele><time>2026-09-08T00:00:00Z</time></trkpt>
<trkpt lat="37.822900000" lon="-121.986770000"><ele>115.3</ele><time>2026-09-08T00:00:00Z</time></trkpt>
<trkpt lat="37.822834000" lon="-121.986700000"><ele>115.2</ele><time>2026-09-08T00:00:00Z</time></trkpt>
<trkpt lat="37.822803000" lon="-121.986595000"><ele>115.1</ele><time>2026-09-08T00:00:00Z</time></trkpt>
<trkpt lat="37.822765000" lon="-121.986496000"><ele>115.0</ele><time>2026-09-08T00:00:00Z</time></trkpt>
<trkpt lat="37.822710000" lon="-121.986410000"><ele>115.0</ele><time>2026-09-08T00:00:00Z</time></trkpt>
<trkpt lat="37.822666000" lon="-121.986310000"><ele>115.0</ele><time>2026-09-08T00:00:00Z</time></trkpt>
<trkpt lat="37.822624000" lon="-121.986206000"><ele>115.0</ele><time>2026-09-08T00:00:00Z</time></trkpt>
<trkpt lat="37.822586000" lon="-121.986110000"><ele>115.0</ele><time>2026-09-08T00:00:00Z</time></trkpt>
<trkpt lat="37.822544000" lon="-121.986015000"><ele>115.0</ele><time>2026-09-08T00:00:00Z</time></trkpt>
<trkpt lat="37.822500000" lon="-121.985920000"><ele>115.0</ele><time>2026-09-08T00:00:00Z</time></trkpt>
<trkpt lat="37.822464000" lon="-121.985825000"><ele>115.0</ele><time>2026-09-08T00:00:00Z</time></trkpt>
<trkpt lat="37.822422000" lon="-121.985730000"><ele>115.0</ele><time>2026-09-08T00:00:00Z</time></trkpt>
<trkpt lat="37.822384000" lon="-121.985640000"><ele>115.0</ele><time>2026-09-08T00:00:00Z</time></trkpt>
<trkpt lat="37.822346000" lon="-121.985540000"><ele>115.0</ele><time>2026-09-08T00:00:00Z</time></trkpt>
<trkpt lat="37.822308000" lon="-121.985440000"><ele>115.0</ele><time>2026-09-08T00:00:00Z</time></trkpt>
<trkpt lat="37.822260000" lon="-121.985344000"><ele>115.0</ele><time>2026-09-08T00:00:00Z</time></trkpt>
<trkpt lat="37.822224000" lon="-121.985250000"><ele>115.0</ele><time>2026-09-08T00:00:00Z</time></trkpt>
<trkpt lat="37.822186000" lon="-121.985160000"><ele>115.0</ele><time>2026-09-08T00:00:00Z</time></trkpt>
<trkpt lat="37.822144000" lon="-121.985060000"><ele>115.0</ele><time>2026-09-08T00:00:00Z</time></trkpt>
<trkpt lat="37.822100000" lon="-121.984960000"><ele>115.0</ele><time>2026-09-08T00:00:00Z</time></trkpt>
<trkpt lat="37.822056000" lon="-121.984880000"><ele>115.0</ele><time>2026-09-08T00:00:00Z</time></trkpt>
<trkpt lat="37.822018000" lon="-121.984780000"><ele>115.0</ele><time>2026-09-08T00:00:00Z</time></trkpt>
<trkpt lat="37.821968000" lon="-121.984690000"><ele>115.1</ele><time>2026-09-08T00:00:00Z</time></trkpt>
<trkpt lat="37.821934000" lon="-121.984580000"><ele>115.2</ele><time>2026-09-08T00:00:00Z</time></trkpt>
<trkpt lat="37.821900000" lon="-121.984474000"><ele>115.3</ele><time>2026-09-08T00:00:00Z</time></trkpt>
<trkpt lat="37.821860000" lon="-121.984375000"><ele>115.4</ele><time>2026-09-08T00:00:00Z</time></trkpt>
<trkpt lat="37.821820000" lon="-121.984276000"><ele>115.5</ele><time>2026-09-08T00:00:00Z</time></trkpt>
<trkpt lat="37.821777000" lon="-121.984184000"><ele>115.5</ele><time>2026-09-08T00:00:00Z</time></trkpt>
<trkpt lat="37.821735000" lon="-121.984080000"><ele>115.7</ele><time>2026-09-08T00:00:00Z</time></trkpt>
<trkpt lat="37.821693000" lon="-121.983986000"><ele>115.9</ele><time>2026-09-08T00:00:00Z</time></trkpt>
<trkpt lat="37.821660000" lon="-121.983894000"><ele>116.1</ele><time>2026-09-08T00:00:00Z</time></trkpt>
<trkpt lat="37.821613000" lon="-121.983790000"><ele>116.3</ele><time>2026-09-08T00:00:00Z</time></trkpt>
<trkpt lat="37.821570000" lon="-121.983690000"><ele>116.5</ele><time>2026-09-08T00:00:00Z</time></trkpt>
<trkpt lat="37.821520000" lon="-121.983590000"><ele>116.5</ele><time>2026-09-08T00:00:00Z</time></trkpt>
<trkpt lat="37.821480000" lon="-121.983500000"><ele>116.6</ele><time>2026-09-08T00:00:00Z</time></trkpt>
<trkpt lat="37.821445000" lon="-121.983400000"><ele>116.7</ele><time>2026-09-08T00:00:00Z</time></trkpt>
<trkpt lat="37.821404000" lon="-121.983310000"><ele>116.8</ele><time>2026-09-08T00:00:00Z</time></trkpt>
<trkpt lat="37.821358000" lon="-121.983210000"><ele>116.9</ele><time>2026-09-08T00:00:00Z</time></trkpt>
<trkpt lat="37.821320000" lon="-121.983110000"><ele>117.1</ele><time>2026-09-08T00:00:00Z</time></trkpt>
<trkpt lat="37.821280000" lon="-121.983010000"><ele>117.2</ele><time>2026-09-08T00:00:00Z</time></trkpt>
<trkpt lat="37.821243000" lon="-121.982920000"><ele>117.3</ele><time>2026-09-08T00:00:00Z</time></trkpt>
<trkpt lat="37.821198000" lon="-121.982820000"><ele>117.4</ele><time>2026-09-08T00:00:00Z</time></trkpt>
<trkpt lat="37.821160000" lon="-121.982720000"><ele>117.5</ele><time>2026-09-08T00:00:00Z</time></trkpt>
<trkpt lat="37.821120000" lon="-121.982630000"><ele>117.5</ele><time>2026-09-08T00:00:00Z</time></trkpt>
<trkpt lat="37.821080000" lon="-121.982520000"><ele>117.7</ele><time>2026-09-08T00:00:00Z</time></trkpt>
<trkpt lat="37.821040000" lon="-121.982430000"><ele>117.9</ele><time>2026-09-08T00:00:00Z</time></trkpt>
<trkpt lat="37.820990000" lon="-121.982330000"><ele>118.1</ele><time>2026-09-08T00:00:00Z</time></trkpt>
<trkpt lat="37.820950000" lon="-121.982220000"><ele>118.3</ele><time>2026-09-08T00:00:00Z</time></trkpt>
<trkpt lat="37.820908000" lon="-121.982130000"><ele>118.5</ele><time>2026-09-08T00:00:00Z</time></trkpt>
<trkpt lat="37.820866000" lon="-121.982025000"><ele>118.6</ele><time>2026-09-08T00:00:00Z</time></trkpt>
<trkpt lat="37.820820000" lon="-121.981920000"><ele>118.8</ele><time>2026-09-08T00:00:00Z</time></trkpt>
<trkpt lat="37.820786000" lon="-121.981830000"><ele>118.9</ele><time>2026-09-08T00:00:00Z</time></trkpt>
<trkpt lat="37.820747000" lon="-121.981720000"><ele>119.0</ele><time>2026-09-08T00:00:00Z</time></trkpt>
<trkpt lat="37.820700000" lon="-121.981630000"><ele>119.1</ele><time>2026-09-08T00:00:00Z</time></trkpt>
<trkpt lat="37.820644000" lon="-121.981540000"><ele>119.3</ele><time>2026-09-08T00:00:00Z</time></trkpt>
<trkpt lat="37.820675000" lon="-121.981445000"><ele>119.4</ele><time>2026-09-08T00:00:00Z</time></trkpt>
<trkpt lat="37.820747000" lon="-121.981384000"><ele>119.5</ele><time>2026-09-08T00:00:00Z</time></trkpt>
<trkpt lat="37.820820000" lon="-121.981340000"><ele>119.5</ele><time>2026-09-08T00:00:00Z</time></trkpt>
<trkpt lat="37.820896000" lon="-121.981285000"><ele>119.6</ele><time>2026-09-08T00:00:00Z</time></trkpt>
<trkpt lat="37.820972000" lon="-121.981240000"><ele>119.7</ele><time>2026-09-08T00:00:00Z</time></trkpt>
<trkpt lat="37.821050000" lon="-121.981200000"><ele>119.8</ele><time>2026-09-08T00:00:00Z</time></trkpt>
<trkpt lat="37.821130000" lon="-121.981155000"><ele>119.9</ele><time>2026-09-08T00:00:00Z</time></trkpt>
<trkpt lat="37.821200000" lon="-121.981100000"><ele>120.1</ele><time>2026-09-08T00:00:00Z</time></trkpt>
<trkpt lat="37.821266000" lon="-121.981030000"><ele>120.3</ele><time>2026-09-08T00:00:00Z</time></trkpt>
<trkpt lat="37.821312000" lon="-121.980950000"><ele>120.5</ele><time>2026-09-08T00:00:00Z</time></trkpt>
<trkpt lat="37.821310000" lon="-121.980830000"><ele>120.5</ele><time>2026-09-08T00:00:00Z</time></trkpt>
<trkpt lat="37.821266000" lon="-121.980730000"><ele>120.6</ele><time>2026-09-08T00:00:00Z</time></trkpt>
<trkpt lat="37.821224000" lon="-121.980640000"><ele>120.8</ele><time>2026-09-08T00:00:00Z</time></trkpt>
<trkpt lat="37.821180000" lon="-121.980540000"><ele>121.0</ele><time>2026-09-08T00:00:00Z</time></trkpt>
<trkpt lat="37.821140000" lon="-121.980430000"><ele>121.1</ele><time>2026-09-08T00:00:00Z</time></trkpt>
<trkpt lat="37.821102000" lon="-121.980330000"><ele>121.2</ele><time>2026-09-08T00:00:00Z</time></trkpt>
<trkpt lat="37.821056000" lon="-121.980230000"><ele>121.2</ele><time>2026-09-08T00:00:00Z</time></trkpt>
<trkpt lat="37.820970000" lon="-121.980230000"><ele>121.3</ele><time>2026-09-08T00:00:00Z</time></trkpt>
<trkpt lat="37.820927000" lon="-121.980250000"><ele>121.3</ele><time>2026-09-08T00:00:00Z</time></trkpt>
</trkseg>
</trk>
</gpx>
