<?xml version="1.0" encoding="UTF-8"?>
<gpx
  version="1.1"
  creator="Runkeeper - http://www.runkeeper.com"
  xmlns:xsi="http://www.w3.org/2001/XMLSchema-instance"
  xmlns="http://www.topografix.com/GPX/1/1"
  xsi:schemaLocation="http://www.topografix.com/GPX/1/1 http://www.topografix.com/GPX/1/1/gpx.xsd"
  xmlns:gpxtpx="http://www.garmin.com/xmlschemas/TrackPointExtension/v1">
<trk>
  <name><![CDATA[Walking 8/2/26]]></name>
  <time>2026-08-03T00:00:00Z</time>
<trkseg>
<trkpt lat="37.811820000" lon="-121.980450000"><ele>121.5</ele><time>2026-08-03T00:00:00Z</time></trkpt>
<trkpt lat="37.811800000" lon="-121.980350000"><ele>121.6</ele><time>2026-08-03T00:00:00Z</time></trkpt>
<trkpt lat="37.811790000" lon="-121.980240000"><ele>121.6</ele><time>2026-08-03T00:00:00Z</time></trkpt>
<trkpt lat="37.811806000" lon="-121.980130000"><ele>121.7</ele><time>2026-08-03T00:00:00Z</time></trkpt>
<trkpt lat="37.811880000" lon="-121.980070000"><ele>121.7</ele><time>2026-08-03T00:00:00Z</time></trkpt>
<trkpt lat="37.811970000" lon="-121.980050000"><ele>121.7</ele><time>2026-08-03T00:00:00Z</time></trkpt>
<trkpt lat="37.812054000" lon="-121.980060000"><ele>121.8</ele><time>2026-08-03T00:00:00Z</time></trkpt>
<trkpt lat="37.812138000" lon="-121.980070000"><ele>121.9</ele><time>2026-08-03T00:00:00Z</time></trkpt>
<trkpt lat="37.812225000" lon="-121.980064000"><ele>122.0</ele><time>2026-08-03T00:00:00Z</time></trkpt>
<trkpt lat="37.812310000" lon="-121.980040000"><ele>122.0</ele><time>2026-08-03T00:00:00Z</time></trkpt>
<trkpt lat="37.812397000" lon="-121.980034000"><ele>122.0</ele><time>2026-08-03T00:00:00Z</time></trkpt>
<trkpt lat="37.812477000" lon="-121.980030000"><ele>122.0</ele><time>2026-08-03T00:00:00Z</time></trkpt>
<trkpt lat="37.812393000" lon="-121.980070000"><ele>122.0</ele><time>2026-08-03T00:00:00Z</time></trkpt>
<trkpt lat="37.812305000" lon="-121.980064000"><ele>122.0</ele><time>2026-08-03T00:00:00Z</time></trkpt>
<trkpt lat="37.812220000" lon="-121.980060000"><ele>122.0</ele><time>2026-08-03T00:00:00Z</time></trkpt>
<trkpt lat="37.812134000" lon="-121.980050000"><ele>122.0</ele><time>2026-08-03T00:00:00Z</time></trkpt>
<trkpt lat="37.812042000" lon="-121.980040000"><ele>122.0</ele><time>2026-08-03T00:00:00Z</time></trkpt>
<trkpt lat="37.811954000" lon="-121.980030000"><ele>122.0</ele><time>2026-08-03T00:00:00Z</time></trkpt>
<trkpt lat="37.811863000" lon="-121.980010000"><ele>122.0</ele><time>2026-08-03T00:00:00Z</time></trkpt>
<trkpt lat="37.811806000" lon="-121.979930000"><ele>122.1</ele><time>2026-08-03T00:00:00Z</time></trkpt>
<trkpt lat="37.811817000" lon="-121.979810000"><ele>122.1</ele><time>2026-08-03T00:00:00Z</time></trkpt>
<trkpt lat="37.811813000" lon="-121.979706000"><ele>122.1</ele><time>2026-08-03T00:00:00Z</time></trkpt>
<trkpt lat="37.811820000" lon="-121.979590000"><ele>122.1</ele><time>2026-08-03T00:00:00Z</time></trkpt>
<trkpt lat="37.811836000" lon="-121.979480000"><ele>122.1</ele><time>2026-08-03T00:00:00Z</time></trkpt>
<trkpt lat="37.811910000" lon="-121.979410000"><ele>122.0</ele><time>2026-08-03T00:00:00Z</time></trkpt>
<trkpt lat="37.811874000" lon="-121.979510000"><ele>121.9</ele><time>2026-08-03T00:00:00Z</time></trkpt>
<trkpt lat="37.811836000" lon="-121.979610000"><ele>121.8</ele><time>2026-08-03T00:00:00Z</time></trkpt>
<trkpt lat="37.811800000" lon="-121.979706000"><ele>121.7</ele><time>2026-08-03T00:00:00Z</time></trkpt>
<trkpt lat="37.811760000" lon="-121.979805000"><ele>121.6</ele><time>2026-08-03T00:00:00Z</time></trkpt>
<trkpt lat="37.811752000" lon="-121.979910000"><ele>121.5</ele><time>2026-08-03T00:00:00Z</time></trkpt>
<trkpt lat="37.811745000" lon="-121.980030000"><ele>121.4</ele><time>2026-08-03T00:00:00Z</time></trkpt>
<trkpt lat="37.811740000" lon="-121.980140000"><ele>121.3</ele><time>2026-08-03T00:00:00Z</time></trkpt>
<trkpt lat="37.811737000" lon="-121.980260000"><ele>121.2</ele><time>2026-08-03T00:00:00Z</time></trkpt>
<trkpt lat="37.811740000" lon="-121.980360000"><ele>121.1</ele><time>2026-08-03T00:00:00Z</time></trkpt>
<trkpt lat="37.811745000" lon="-121.980470000"><ele>121.0</ele><time>2026-08-03T00:00:00Z</time></trkpt>
<trkpt lat="37.811768000" lon="-121.980576000"><ele>121.0</ele><time>2026-08-03T00:00:00Z</time></trkpt>
<trkpt lat="37.811800000" lon="-121.980675000"><ele>121.0</ele><time>2026-08-03T00:00:00Z</time></trkpt>
<trkpt lat="37.811806000" lon="-121.980790000"><ele>121.0</ele><time>2026-08-03T00:00:00Z</time></trkpt>
<trkpt lat="37.811817000" lon="-121.980896000"><ele>121.0</ele><time>2026-08-03T00:00:00Z</time></trkpt>
<trkpt lat="37.811813000" lon="-121.981000000"><ele>121.0</ele><time>2026-08-03T00:00:00Z</time></trkpt>
<trkpt lat="37.811832000" lon="-121.981110000"><ele>121.0</ele><time>2026-08-03T00:00:00Z</time></trkpt>
<trkpt lat="37.811832000" lon="-121.981220000"><ele>121.0</ele><time>2026-08-03T00:00:00Z</time></trkpt>
<trkpt lat="37.811870000" lon="-121.981320000"><ele>121.0</ele><time>2026-08-03T00:00:00Z</time></trkpt>
<trkpt lat="37.811954000" lon="-121.981320000"><ele>121.0</ele><time>2026-08-03T00:00:00Z</time></trkpt>
<trkpt lat="37.812040000" lon="-121.981320000"><ele>121.0</ele><time>2026-08-03T00:00:00Z</time></trkpt>
<trkpt lat="37.812130000" lon="-121.981340000"><ele>121.0</ele><time>2026-08-03T00:00:00Z</time></trkpt>
<trkpt lat="37.812220000" lon="-121.981346000"><ele>121.1</ele><time>2026-08-03T00:00:00Z</time></trkpt>
<trkpt lat="37.812310000" lon="-121.981346000"><ele>121.2</ele><time>2026-08-03T00:00:00Z</time></trkpt>
<trkpt lat="37.812400000" lon="-121.981360000"><ele>121.3</ele><time>2026-08-03T00:00:00Z</time></trkpt>
<trkpt lat="37.812490000" lon="-121.981380000"><ele>121.4</ele><time>2026-08-03T00:00:00Z</time></trkpt>
<trkpt lat="37.812576000" lon="-121.981400000"><ele>121.5</ele><time>2026-08-03T00:00:00Z</time></trkpt>
<trkpt lat="37.812653000" lon="-121.981440000"><ele>121.5</ele><time>2026-08-03T00:00:00Z</time></trkpt>
<trkpt lat="37.812730000" lon="-121.981400000"><ele>121.6</ele><time>2026-08-03T00:00:00Z</time></trkpt>
<trkpt lat="37.812805000" lon="-121.981440000"><ele>121.7</ele><time>2026-08-03T00:00:00Z</time></trkpt>
<trkpt lat="37.812870000" lon="-121.981510000"><ele>121.8</ele><time>2026-08-03T00:00:00Z</time></trkpt>
<trkpt lat="37.812950000" lon="-121.981514000"><ele>121.9</ele><time>2026-08-03T00:00:00Z</time></trkpt>
<trkpt lat="37.813026000" lon="-121.981575000"><ele>122.0</ele><time>2026-08-03T00:00:00Z</time></trkpt>
<trkpt lat="37.813107000" lon="-121.981620000"><ele>122.1</ele><time>2026-08-03T00:00:00Z</time></trkpt>
<trkpt lat="37.813190000" lon="-121.981650000"><ele>122.1</ele><time>2026-08-03T00:00:00Z</time></trkpt>
<trkpt lat="37.813270000" lon="-121.981680000"><ele>122.1</ele><time>2026-08-03T00:00:00Z</time></trkpt>
<trkpt lat="37.813354000" lon="-121.981730000"><ele>122.1</ele><time>2026-08-03T00:00:00Z</time></trkpt>
<trkpt lat="37.813440000" lon="-121.981770000"><ele>122.1</ele><time>2026-08-03T00:00:00Z</time></trkpt>
<trkpt lat="37.813526000" lon="-121.981804000"><ele>122.2</ele><time>2026-08-03T00:00:00Z</time></trkpt>
<trkpt lat="37.813614000" lon="-121.981810000"><ele>122.3</ele><time>2026-08-03T00:00:00Z</time></trkpt>
<trkpt lat="37.813705000" lon="-121.981830000"><ele>122.4</ele><time>2026-08-03T00:00:00Z</time></trkpt>
<trkpt lat="37.813786000" lon="-121.981830000"><ele>122.5</ele><time>2026-08-03T00:00:00Z</time></trkpt>
<trkpt lat="37.813873000" lon="-121.981820000"><ele>122.5</ele><time>2026-08-03T00:00:00Z</time></trkpt>
<trkpt lat="37.813957000" lon="-121.981820000"><ele>122.6</ele><time>2026-08-03T00:00:00Z</time></trkpt>
<trkpt lat="37.814050000" lon="-121.981800000"><ele>122.6</ele><time>2026-08-03T00:00:00Z</time></trkpt>
<trkpt lat="37.814144000" lon="-121.981780000"><ele>122.8</ele><time>2026-08-03T00:00:00Z</time></trkpt>
<trkpt lat="37.814220000" lon="-121.981740000"><ele>123.0</ele><time>2026-08-03T00:00:00Z</time></trkpt>
<trkpt lat="37.814310000" lon="-121.981710000"><ele>123.2</ele><time>2026-08-03T00:00:00Z</time></trkpt>
<trkpt lat="37.814384000" lon="-121.981670000"><ele>123.4</ele><time>2026-08-03T00:00:00Z</time></trkpt>
<trkpt lat="37.814460000" lon="-121.981610000"><ele>123.5</ele><time>2026-08-03T00:00:00Z</time></trkpt>
<trkpt lat="37.814537000" lon="-121.981570000"><ele>123.7</ele><time>2026-08-03T00:00:00Z</time></trkpt>
<trkpt lat="37.814600000" lon="-121.981510000"><ele>123.9</ele><time>2026-08-03T00:00:00Z</time></trkpt>
<trkpt lat="37.814682000" lon="-121.981445000"><ele>124.1</ele><time>2026-08-03T00:00:00Z</time></trkpt>
<trkpt lat="37.814760000" lon="-121.981370000"><ele>124.3</ele><time>2026-08-03T00:00:00Z</time></trkpt>
<trkpt lat="37.814823000" lon="-121.981300000"><ele>124.5</ele><time>2026-08-03T00:00:00Z</time></trkpt>
<trkpt lat="37.814884000" lon="-121.981230000"><ele>124.6</ele><time>2026-08-03T00:00:00Z</time></trkpt>
<trkpt lat="37.814945000" lon="-121.981155000"><ele>124.8</ele><time>2026-08-03T00:00:00Z</time></trkpt>
<trkpt lat="37.815006000" lon="-121.981090000"><ele>125.0</ele><time>2026-08-03T00:00:00Z</time></trkpt>
<trkpt lat="37.815052000" lon="-121.980995000"><ele>125.3</ele><time>2026-08-03T00:00:00Z</time></trkpt>
<trkpt lat="37.815067000" lon="-121.980896000"><ele>125.5</ele><time>2026-08-03T00:00:00Z</time></trkpt>
<trkpt lat="37.815033000" lon="-121.980800000"><ele>125.7</ele><time>2026-08-03T00:00:00Z</time></trkpt>
<trkpt lat="37.814983000" lon="-121.980710000"><ele>125.9</ele><time>2026-08-03T00:00:00Z</time></trkpt>
<trkpt lat="37.814920000" lon="-121.980630000"><ele>126.2</ele><time>2026-08-03T00:00:00Z</time></trkpt>
<trkpt lat="37.814854000" lon="-121.980540000"><ele>126.5</ele><time>2026-08-03T00:00:00Z</time></trkpt>
<trkpt lat="37.814820000" lon="-121.980440000"><ele>126.9</ele><time>2026-08-03T00:00:00Z</time></trkpt>
<trkpt lat="37.814780000" lon="-121.980350000"><ele>127.4</ele><time>2026-08-03T00:00:00Z</time></trkpt>
<trkpt lat="37.814760000" lon="-121.980230000"><ele>127.8</ele><time>2026-08-03T00:00:00Z</time></trkpt>
<trkpt lat="37.814743000" lon="-121.980125000"><ele>128.3</ele><time>2026-08-03T00:00:00Z</time></trkpt>
<trkpt lat="37.814743000" lon="-121.980000000"><ele>128.7</ele><time>2026-08-03T00:00:00Z</time></trkpt>
<trkpt lat="37.814766000" lon="-121.979904000"><ele>129.1</ele><time>2026-08-03T00:00:00Z</time></trkpt>
<trkpt lat="37.814808000" lon="-121.979805000"><ele>129.5</ele><time>2026-08-03T00:00:00Z</time></trkpt>
<trkpt lat="37.814857000" lon="-121.979720000"><ele>129.9</ele><time>2026-08-03T00:00:00Z</time></trkpt>
<trkpt lat="37.814903000" lon="-121.979614000"><ele>130.4</ele><time>2026-08-03T00:00:00Z</time></trkpt>
<trkpt lat="37.814953000" lon="-121.979530000"><ele>130.7</ele><time>2026-08-03T00:00:00Z</time></trkpt>
<trkpt lat="37.815000000" lon="-121.979450000"><ele>131.0</ele><time>2026-08-03T00:00:00Z</time></trkpt>
<trkpt lat="37.815050000" lon="-121.979360000"><ele>131.3</ele><time>2026-08-03T00:00:00Z</time></trkpt>
<trkpt lat="37.815098000" lon="-121.979270000"><ele>131.5</ele><time>2026-08-03T00:00:00Z</time></trkpt>
<trkpt lat="37.815150000" lon="-121.979195000"><ele>131.6</ele><time>2026-08-03T00:00:00Z</time></trkpt>
<trkpt lat="37.815193000" lon="-121.979100000"><ele>131.7</ele><time>2026-08-03T00:00:00Z</time></trkpt>
<trkpt lat="37.815240000" lon="-121.979020000"><ele>131.9</ele><time>2026-08-03T00:00:00Z</time></trkpt>
<trkpt lat="37.815290000" lon="-121.978920000"><ele>132.1</ele><time>2026-08-03T00:00:00Z</time></trkpt>
<trkpt lat="37.815334000" lon="-121.978820000"><ele>132.3</ele><time>2026-08-03T00:00:00Z</time></trkpt>
<trkpt lat="37.815384000" lon="-121.978730000"><ele>132.4</ele><time>2026-08-03T00:00:00Z</time></trkpt>
<trkpt lat="37.815430000" lon="-121.978640000"><ele>132.5</ele><time>2026-08-03T00:00:00Z</time></trkpt>
<trkpt lat="37.815470000" lon="-121.978546000"><ele>132.5</ele><time>2026-08-03T00:00:00Z</time></trkpt>
<trkpt lat="37.815517000" lon="-121.978455000"><ele>132.6</ele><time>2026-08-03T00:00:00Z</time></trkpt>
<trkpt lat="37.815567000" lon="-121.978350000"><ele>132.7</ele><time>2026-08-03T00:00:00Z</time></trkpt>
<trkpt lat="37.815613000" lon="-121.978250000"><ele>132.8</ele><time>2026-08-03T00:00:00Z</time></trkpt>
<trkpt lat="37.815660000" lon="-121.978150000"><ele>132.9</ele><time>2026-08-03T00:00:00Z</time></trkpt>
<trkpt lat="37.815710000" lon="-121.978065000"><ele>133.1</ele><time>2026-08-03T00:00:00Z</time></trkpt>
<trkpt lat="37.815758000" lon="-121.977974000"><ele>133.2</ele><time>2026-08-03T00:00:00Z</time></trkpt>
<trkpt lat="37.815810000" lon="-121.977880000"><ele>133.3</ele><time>2026-08-03T00:00:00Z</time></trkpt>
<trkpt lat="37.815870000" lon="-121.977806000"><ele>133.4</ele><time>2026-08-03T00:00:00Z</time></trkpt>
<trkpt lat="37.815926000" lon="-121.977740000"><ele>133.5</ele><time>2026-08-03T00:00:00Z</time></trkpt>
<trkpt lat="37.815987000" lon="-121.977670000"><ele>133.5</ele><time>2026-08-03T00:00:00Z</time></trkpt>
<trkpt lat="37.816060000" lon="-121.977610000"><ele>133.6</ele><time>2026-08-03T00:00:00Z</time></trkpt>
<trkpt lat="37.816130000" lon="-121.977554000"><ele>133.7</ele><time>2026-08-03T00:00:00Z</time></trkpt>
<trkpt lat="37.816204000" lon="-121.977500000"><ele>133.9</ele><time>2026-08-03T00:00:00Z</time></trkpt>
<trkpt lat="37.816280000" lon="-121.977460000"><ele>134.1</ele><time>2026-08-03T00:00:00Z</time></trkpt>
<trkpt lat="37.816360000" lon="-121.977425000"><ele>134.3</ele><time>2026-08-03T00:00:00Z</time></trkpt>
<trkpt lat="37.816437000" lon="-121.977380000"><ele>134.3</ele><time>2026-08-03T00:00:00Z</time></trkpt>
<trkpt lat="37.816525000" lon="-121.977356000"><ele>134.3</ele><time>2026-08-03T00:00:00Z</time></trkpt>
<trkpt lat="37.816616000" lon="-121.977330000"><ele>134.4</ele><time>2026-08-03T00:00:00Z</time></trkpt>
<trkpt lat="37.816708000" lon="-121.977325000"><ele>134.5</ele><time>2026-08-03T00:00:00Z</time></trkpt>
<trkpt lat="37.816800000" lon="-121.977325000"><ele>134.6</ele><time>2026-08-03T00:00:00Z</time></trkpt>
<trkpt lat="37.816890000" lon="-121.977325000"><ele>134.8</ele><time>2026-08-03T00:00:00Z</time></trkpt>
<trkpt lat="37.816975000" lon="-121.977325000"><ele>135.0</ele><time>2026-08-03T00:00:00Z</time></trkpt>
<trkpt lat="37.817020000" lon="-121.977425000"><ele>135.3</ele><time>2026-08-03T00:00:00Z</time></trkpt>
<trkpt lat="37.817028000" lon="-121.977530000"><ele>135.5</ele><time>2026-08-03T00:00:00Z</time></trkpt>
<trkpt lat="37.817017000" lon="-121.977640000"><ele>135.6</ele><time>2026-08-03T00:00:00Z</time></trkpt>
<trkpt lat="37.816998000" lon="-121.977750000"><ele>135.8</ele><time>2026-08-03T00:00:00Z</time></trkpt>
<trkpt lat="37.816956000" lon="-121.977844000"><ele>136.1</ele><time>2026-08-03T00:00:00Z</time></trkpt>
<trkpt lat="37.816900000" lon="-121.977936000"><ele>136.4</ele><time>2026-08-03T00:00:00Z</time></trkpt>
<trkpt lat="37.816837000" lon="-121.978010000"><ele>136.5</ele><time>2026-08-03T00:00:00Z</time></trkpt>
<trkpt lat="37.816765000" lon="-121.978070000"><ele>136.5</ele><time>2026-08-03T00:00:00Z</time></trkpt>
<trkpt lat="37.816692000" lon="-121.978130000"><ele>136.5</ele><time>2026-08-03T00:00:00Z</time></trkpt>
<trkpt lat="37.816624000" lon="-121.978180000"><ele>136.5</ele><time>2026-08-03T00:00:00Z</time></trkpt>
<trkpt lat="37.816547000" lon="-121.978220000"><ele>136.4</ele><time>2026-08-03T00:00:00Z</time></trkpt>
<trkpt lat="37.816470000" lon="-121.978290000"><ele>136.2</ele><time>2026-08-03T00:00:00Z</time></trkpt>
<trkpt lat="37.816400000" lon="-121.978350000"><ele>136.0</ele><time>2026-08-03T00:00:00Z</time></trkpt>
<trkpt lat="37.816322000" lon="-121.978410000"><ele>135.7</ele><time>2026-08-03T00:00:00Z</time></trkpt>
<trkpt lat="37.816254000" lon="-121.978480000"><ele>135.5</ele><time>2026-08-03T00:00:00Z</time></trkpt>
<trkpt lat="37.816193000" lon="-121.978550000"><ele>135.1</ele><time>2026-08-03T00:00:00Z</time></trkpt>
<trkpt lat="37.816130000" lon="-121.978620000"><ele>134.7</ele><time>2026-08-03T00:00:00Z</time></trkpt>
<trkpt lat="37.816074000" lon="-121.978700000"><ele>134.5</ele><time>2026-08-03T00:00:00Z</time></trkpt>
<trkpt lat="37.816010000" lon="-121.978780000"><ele>134.1</ele><time>2026-08-03T00:00:00Z</time></trkpt>
<trkpt lat="37.815956000" lon="-121.978874000"><ele>133.7</ele><time>2026-08-03T00:00:00Z</time></trkpt>
<trkpt lat="37.815907000" lon="-121.978966000"><ele>133.5</ele><time>2026-08-03T00:00:00Z</time></trkpt>
<trkpt lat="37.815860000" lon="-121.979060000"><ele>133.1</ele><time>2026-08-03T00:00:00Z</time></trkpt>
<trkpt lat="37.815820000" lon="-121.979150000"><ele>132.7</ele><time>2026-08-03T00:00:00Z</time></trkpt>
<trkpt lat="37.815780000" lon="-121.979250000"><ele>132.4</ele><time>2026-08-03T00:00:00Z</time></trkpt>
<trkpt lat="37.815742000" lon="-121.979350000"><ele>132.0</ele><time>2026-08-03T00:00:00Z</time></trkpt>
<trkpt lat="37.815712000" lon="-121.979450000"><ele>131.5</ele><time>2026-08-03T00:00:00Z</time></trkpt>
<trkpt lat="37.815680000" lon="-121.979550000"><ele>131.2</ele><time>2026-08-03T00:00:00Z</time></trkpt>
<trkpt lat="37.815662000" lon="-121.979650000"><ele>130.8</ele><time>2026-08-03T00:00:00Z</time></trkpt>
<trkpt lat="37.815640000" lon="-121.979750000"><ele>130.5</ele><time>2026-08-03T00:00:00Z</time></trkpt>
<trkpt lat="37.815613000" lon="-121.979860000"><ele>130.1</ele><time>2026-08-03T00:00:00Z</time></trkpt>
<trkpt lat="37.815590000" lon="-121.979960000"><ele>129.7</ele><time>2026-08-03T00:00:00Z</time></trkpt>
<trkpt lat="37.815567000" lon="-121.980064000"><ele>129.3</ele><time>2026-08-03T00:00:00Z</time></trkpt>
<trkpt lat="37.815544000" lon="-121.980160000"><ele>128.9</ele><time>2026-08-03T00:00:00Z</time></trkpt>
<trkpt lat="37.815506000" lon="-121.980260000"><ele>128.5</ele><time>2026-08-03T00:00:00Z</time></trkpt>
<trkpt lat="37.815464000" lon="-121.980354000"><ele>128.0</ele><time>2026-08-03T00:00:00Z</time></trkpt>
<trkpt lat="37.815420000" lon="-121.980450000"><ele>127.5</ele><time>2026-08-03T00:00:00Z</time></trkpt>
<trkpt lat="37.815372000" lon="-121.980545000"><ele>127.2</ele><time>2026-08-03T00:00:00Z</time></trkpt>
<trkpt lat="37.815320000" lon="-121.980630000"><ele>126.8</ele><time>2026-08-03T00:00:00Z</time></trkpt>
<trkpt lat="37.815260000" lon="-121.980710000"><ele>126.5</ele><time>2026-08-03T00:00:00Z</time></trkpt>
<trkpt lat="37.815205000" lon="-121.980800000"><ele>126.1</ele><time>2026-08-03T00:00:00Z</time></trkpt>
<trkpt lat="37.815132000" lon="-121.980870000"><ele>125.8</ele><time>2026-08-03T00:00:00Z</time></trkpt>
<trkpt lat="37.815067000" lon="-121.980950000"><ele>125.5</ele><time>2026-08-03T00:00:00Z</time></trkpt>
<trkpt lat="37.815006000" lon="-121.981026000"><ele>125.3</ele><time>2026-08-03T00:00:00Z</time></trkpt>
<trkpt lat="37.815000000" lon="-121.981140000"><ele>125.1</ele><time>2026-08-03T00:00:00Z</time></trkpt>
<trkpt lat="37.815000000" lon="-121.981250000"><ele>125.0</ele><time>2026-08-03T00:00:00Z</time></trkpt>
<trkpt lat="37.814945000" lon="-121.981346000"><ele>124.9</ele><time>2026-08-03T00:00:00Z</time></trkpt>
<trkpt lat="37.814960000" lon="-121.981450000"><ele>125.0</ele><time>2026-08-03T00:00:00Z</time></trkpt>
<trkpt lat="37.815010000" lon="-121.981544000"><ele>125.1</ele><time>2026-08-03T00:00:00Z</time></trkpt>
<trkpt lat="37.815060000" lon="-121.981640000"><ele>125.2</ele><time>2026-08-03T00:00:00Z</time></trkpt>
<trkpt lat="37.815120000" lon="-121.981730000"><ele>125.3</ele><time>2026-08-03T00:00:00Z</time></trkpt>
<trkpt lat="37.815180000" lon="-121.981820000"><ele>125.5</ele><time>2026-08-03T00:00:00Z</time></trkpt>
<trkpt lat="37.815235000" lon="-121.981900000"><ele>125.6</ele><time>2026-08-03T00:00:00Z</time></trkpt>
<trkpt lat="37.815273000" lon="-121.982010000"><ele>125.8</ele><time>2026-08-03T00:00:00Z</time></trkpt>
<trkpt lat="37.815304000" lon="-121.982120000"><ele>126.1</ele><time>2026-08-03T00:00:00Z</time></trkpt>
<trkpt lat="37.815315000" lon="-121.982220000"><ele>126.3</ele><time>2026-08-03T00:00:00Z</time></trkpt>
<trkpt lat="37.815323000" lon="-121.982330000"><ele>126.5</ele><time>2026-08-03T00:00:00Z</time></trkpt>
<trkpt lat="37.815330000" lon="-121.982440000"><ele>126.6</ele><time>2026-08-03T00:00:00Z</time></trkpt>
<trkpt lat="37.815330000" lon="-121.982550000"><ele>126.7</ele><time>2026-08-03T00:00:00Z</time></trkpt>
<trkpt lat="37.815323000" lon="-121.982666000"><ele>126.8</ele><time>2026-08-03T00:00:00Z</time></trkpt>
<trkpt lat="37.815342000" lon="-121.982780000"><ele>126.9</ele><time>2026-08-03T00:00:00Z</time></trkpt>
<trkpt lat="37.815342000" lon="-121.982890000"><ele>127.0</ele><time>2026-08-03T00:00:00Z</time></trkpt>
<trkpt lat="37.815296000" lon="-121.982796000"><ele>126.9</ele><time>2026-08-03T00:00:00Z</time></trkpt>
<trkpt lat="37.815310000" lon="-121.982690000"><ele>126.8</ele><time>2026-08-03T00:00:00Z</time></trkpt>
<trkpt lat="37.815315000" lon="-121.982574000"><ele>126.7</ele><time>2026-08-03T00:00:00Z</time></trkpt>
<trkpt lat="37.815310000" lon="-121.982460000"><ele>126.6</ele><time>2026-08-03T00:00:00Z</time></trkpt>
<trkpt lat="37.815304000" lon="-121.982350000"><ele>126.5</ele><time>2026-08-03T00:00:00Z</time></trkpt>
<trkpt lat="37.815266000" lon="-121.982260000"><ele>126.4</ele><time>2026-08-03T00:00:00Z</time></trkpt>
<trkpt lat="37.815290000" lon="-121.982160000"><ele>126.2</ele><time>2026-08-03T00:00:00Z</time></trkpt>
<trkpt lat="37.815266000" lon="-121.982056000"><ele>125.9</ele><time>2026-08-03T00:00:00Z</time></trkpt>
<trkpt lat="37.815235000" lon="-121.981940000"><ele>125.6</ele><time>2026-08-03T00:00:00Z</time></trkpt>
<trkpt lat="37.815193000" lon="-121.981850000"><ele>125.4</ele><time>2026-08-03T00:00:00Z</time></trkpt>
<trkpt lat="37.815136000" lon="-121.981760000"><ele>125.1</ele><time>2026-08-03T00:00:00Z</time></trkpt>
<trkpt lat="37.815067000" lon="-121.981674000"><ele>124.9</ele><time>2026-08-03T00:00:00Z</time></trkpt>
<trkpt lat="37.815000000" lon="-121.981590000"><ele>124.7</ele><time>2026-08-03T00:00:00Z</time></trkpt>
<trkpt lat="37.814922000" lon="-121.981560000"><ele>124.5</ele><time>2026-08-03T00:00:00Z</time></trkpt>
<trkpt lat="37.814865000" lon="-121.981470000"><ele>124.3</ele><time>2026-08-03T00:00:00Z</time></trkpt>
<trkpt lat="37.814774000" lon="-121.981445000"><ele>124.0</ele><time>2026-08-03T00:00:00Z</time></trkpt>
<trkpt lat="37.814682000" lon="-121.981445000"><ele>123.8</ele><time>2026-08-03T00:00:00Z</time></trkpt>
<trkpt lat="37.814606000" lon="-121.981490000"><ele>123.6</ele><time>2026-08-03T00:00:00Z</time></trkpt>
<trkpt lat="37.814537000" lon="-121.981544000"><ele>123.5</ele><time>2026-08-03T00:00:00Z</time></trkpt>
<trkpt lat="37.814457000" lon="-121.981600000"><ele>123.5</ele><time>2026-08-03T00:00:00Z</time></trkpt>
<trkpt lat="37.814373000" lon="-121.981660000"><ele>123.4</ele><time>2026-08-03T00:00:00Z</time></trkpt>
<trkpt lat="37.814293000" lon="-121.981690000"><ele>123.3</ele><time>2026-08-03T00:00:00Z</time></trkpt>
<trkpt lat="37.814205000" lon="-121.981730000"><ele>123.2</ele><time>2026-08-03T00:00:00Z</time></trkpt>
<trkpt lat="37.814117000" lon="-121.981750000"><ele>123.1</ele><time>2026-08-03T00:00:00Z</time></trkpt>
<trkpt lat="37.814026000" lon="-121.981770000"><ele>123.0</ele><time>2026-08-03T00:00:00Z</time></trkpt>
<trkpt lat="37.813934000" lon="-121.981790000"><ele>123.0</ele><time>2026-08-03T00:00:00Z</time></trkpt>
<trkpt lat="37.813840000" lon="-121.981800000"><ele>122.9</ele><time>2026-08-03T00:00:00Z</time></trkpt>
<trkpt lat="37.813744000" lon="-121.981804000"><ele>122.8</ele><time>2026-08-03T00:00:00Z</time></trkpt>
<trkpt lat="37.813656000" lon="-121.981804000"><ele>122.7</ele><time>2026-08-03T00:00:00Z</time></trkpt>
<trkpt lat="37.813572000" lon="-121.981790000"><ele>122.6</ele><time>2026-08-03T00:00:00Z</time></trkpt>
<trkpt lat="37.813480000" lon="-121.981766000"><ele>122.5</ele><time>2026-08-03T00:00:00Z</time></trkpt>
<trkpt lat="37.813396000" lon="-121.981730000"><ele>122.5</ele><time>2026-08-03T00:00:00Z</time></trkpt>
<trkpt lat="37.813316000" lon="-121.981700000"><ele>122.4</ele><time>2026-08-03T00:00:00Z</time></trkpt>
<trkpt lat="37.813230000" lon="-121.981640000"><ele>122.3</ele><time>2026-08-03T00:00:00Z</time></trkpt>
<trkpt lat="37.813150000" lon="-121.981620000"><ele>122.2</ele><time>2026-08-03T00:00:00Z</time></trkpt>
<trkpt lat="37.813065000" lon="-121.981575000"><ele>122.1</ele><time>2026-08-03T00:00:00Z</time></trkpt>
<trkpt lat="37.812977000" lon="-121.981520000"><ele>121.9</ele><time>2026-08-03T00:00:00Z</time></trkpt>
<trkpt lat="37.812900000" lon="-121.981480000"><ele>121.8</ele><time>2026-08-03T00:00:00Z</time></trkpt>
<trkpt lat="37.812813000" lon="-121.981450000"><ele>121.7</ele><time>2026-08-03T00:00:00Z</time></trkpt>
<trkpt lat="37.812730000" lon="-121.981440000"><ele>121.6</ele><time>2026-08-03T00:00:00Z</time></trkpt>
<trkpt lat="37.812637000" lon="-121.981410000"><ele>121.5</ele><time>2026-08-03T00:00:00Z</time></trkpt>
<trkpt lat="37.812542000" lon="-121.981384000"><ele>121.5</ele><time>2026-08-03T00:00:00Z</time></trkpt>
<trkpt lat="37.812458000" lon="-121.981370000"><ele>121.4</ele><time>2026-08-03T00:00:00Z</time></trkpt>
<trkpt lat="37.812374000" lon="-121.981350000"><ele>121.3</ele><time>2026-08-03T00:00:00Z</time></trkpt>
<trkpt lat="37.812290000" lon="-121.981346000"><ele>121.2</ele><time>2026-08-03T00:00:00Z</time></trkpt>
<trkpt lat="37.812200000" lon="-121.981330000"><ele>121.1</ele><time>2026-08-03T00:00:00Z</time></trkpt>
<trkpt lat="37.812120000" lon="-121.981330000"><ele>121.0</ele><time>2026-08-03T00:00:00Z</time></trkpt>
<trkpt lat="37.812030000" lon="-121.981320000"><ele>121.0</ele><time>2026-08-03T00:00:00Z</time></trkpt>
<trkpt lat="37.811940000" lon="-121.981320000"><ele>121.0</ele><time>2026-08-03T00:00:00Z</time></trkpt>
<trkpt lat="37.811863000" lon="-121.981280000"><ele>121.0</ele><time>2026-08-03T00:00:00Z</time></trkpt>
<trkpt lat="37.811850000" lon="-121.981160000"><ele>121.0</ele><time>2026-08-03T00:00:00Z</time></trkpt>
<trkpt lat="37.811850000" lon="-121.981050000"><ele>121.0</ele><time>2026-08-03T00:00:00Z</time></trkpt>
<trkpt lat="37.811850000" lon="-121.980934000"><ele>121.1</ele><time>2026-08-03T00:00:00Z</time></trkpt>
<trkpt lat="37.811840000" lon="-121.980820000"><ele>121.1</ele><time>2026-08-03T00:00:00Z</time></trkpt>
<trkpt lat="37.811830000" lon="-121.980705000"><ele>121.1</ele><time>2026-08-03T00:00:00Z</time></trkpt>
<trkpt lat="37.811806000" lon="-121.980600000"><ele>121.1</ele><time>2026-08-03T00:00:00Z</time></trkpt>
<trkpt lat="37.811817000" lon="-121.980500000"><ele>121.1</ele><time>2026-08-03T00:00:00Z</time></trkpt>
<trkpt lat="37.811830000" lon="-121.980390000"><ele>121.1</ele><time>2026-08-03T00:00:00Z</time></trkpt>
<trkpt lat="37.811802000" lon="-121.980500000"><ele>121.1</ele><time>2026-08-03T00:00:00Z</time></trkpt>
<trkpt lat="37.811790000" lon="-121.980510000"><ele>121.2</ele><time>2026-08-03T00:00:00Z</time></trkpt>
</trkseg>
</trk>
</gpx>
