<?xml version="1.0" encoding="UTF-8"?>
<gpx
  version="1.1"
  creator="Runkeeper - http://www.runkeeper.com"
  xmlns:xsi="http://www.w3.org/2001/XMLSchema-instance"
  xmlns="http://www.topografix.com/GPX/1/1"
  xsi:schemaLocation="http://www.topografix.com/GPX/1/1 http://www.topografix.com/GPX/1/1/gpx.xsd"
  xmlns:gpxtpx="http://www.garmin.com/xmlschemas/TrackPointExtension/v1">
<trk>
  <name><![CDATA[Walking 8/22/26]]></name>
  <time>2026-08-22T00:00:00Z</time>
<trkseg>
<trkpt lat="37.811840000" lon="-121.995950000"><ele>122.5</ele><time>2026-08-22T00:00:00Z</time></trkpt>
<trkpt lat="37.811832000" lon="-121.995840000"><ele>122.4</ele><time>2026-08-22T00:00:00Z</time></trkpt>
<trkpt lat="37.811840000" lon="-121.995740000"><ele>122.4</ele><time>2026-08-22T00:00:00Z</time></trkpt>
<trkpt lat="37.811806000" lon="-121.995640000"><ele>122.3</ele><time>2026-08-22T00:00:00Z</time></trkpt>
<trkpt lat="37.811756000" lon="-121.995560000"><ele>122.4</ele><time>2026-08-22T00:00:00Z</time></trkpt>
<trkpt lat="37.811672000" lon="-121.995570000"><ele>122.5</ele><time>2026-08-22T00:00:00Z</time></trkpt>
<trkpt lat="37.811592000" lon="-121.995580000"><ele>122.5</ele><time>2026-08-22T00:00:00Z</time></trkpt>
<trkpt lat="37.811516000" lon="-121.995530000"><ele>122.5</ele><time>2026-08-22T00:00:00Z</time></trkpt>
<trkpt lat="37.811460000" lon="-121.995600000"><ele>122.5</ele><time>2026-08-22T00:00:00Z</time></trkpt>
<trkpt lat="37.811455000" lon="-121.995705000"><ele>122.7</ele><time>2026-08-22T00:00:00Z</time></trkpt>
<trkpt lat="37.811436000" lon="-121.995804000"><ele>123.0</ele><time>2026-08-22T00:00:00Z</time></trkpt>
<trkpt lat="37.811480000" lon="-121.995890000"><ele>123.3</ele><time>2026-08-22T00:00:00Z</time></trkpt>
<trkpt lat="37.811462000" lon="-121.996000000"><ele>123.5</ele><time>2026-08-22T00:00:00Z</time></trkpt>
<trkpt lat="37.811430000" lon="-121.996100000"><ele>123.8</ele><time>2026-08-22T00:00:00Z</time></trkpt>
<trkpt lat="37.811440000" lon="-121.996210000"><ele>124.1</ele><time>2026-08-22T00:00:00Z</time></trkpt>
<trkpt lat="37.811455000" lon="-121.996315000"><ele>124.3</ele><time>2026-08-22T00:00:00Z</time></trkpt>
<trkpt lat="37.811478000" lon="-121.996420000"><ele>124.5</ele><time>2026-08-22T00:00:00Z</time></trkpt>
<trkpt lat="37.811527000" lon="-121.996506000"><ele>124.8</ele><time>2026-08-22T00:00:00Z</time></trkpt>
<trkpt lat="37.811560000" lon="-121.996605000"><ele>125.1</ele><time>2026-08-22T00:00:00Z</time></trkpt>
<trkpt lat="37.811615000" lon="-121.996690000"><ele>125.3</ele><time>2026-08-22T00:00:00Z</time></trkpt>
<trkpt lat="37.811670000" lon="-121.996765000"><ele>125.5</ele><time>2026-08-22T00:00:00Z</time></trkpt>
<trkpt lat="37.811733000" lon="-121.996830000"><ele>125.5</ele><time>2026-08-22T00:00:00Z</time></trkpt>
<trkpt lat="37.811780000" lon="-121.996925000"><ele>125.6</ele><time>2026-08-22T00:00:00Z</time></trkpt>
<trkpt lat="37.811832000" lon="-121.997010000"><ele>125.7</ele><time>2026-08-22T00:00:00Z</time></trkpt>
<trkpt lat="37.811893000" lon="-121.997086000"><ele>125.8</ele><time>2026-08-22T00:00:00Z</time></trkpt>
<trkpt lat="37.811950000" lon="-121.997160000"><ele>125.9</ele><time>2026-08-22T00:00:00Z</time></trkpt>
<trkpt lat="37.812010000" lon="-121.997246000"><ele>126.1</ele><time>2026-08-22T00:00:00Z</time></trkpt>
<trkpt lat="37.812057000" lon="-121.997330000"><ele>126.2</ele><time>2026-08-22T00:00:00Z</time></trkpt>
<trkpt lat="37.812107000" lon="-121.997420000"><ele>126.3</ele><time>2026-08-22T00:00:00Z</time></trkpt>
<trkpt lat="37.812150000" lon="-121.997510000"><ele>126.5</ele><time>2026-08-22T00:00:00Z</time></trkpt>
<trkpt lat="37.812187000" lon="-121.997610000"><ele>126.6</ele><time>2026-08-22T00:00:00Z</time></trkpt>
<trkpt lat="37.812233000" lon="-121.997700000"><ele>126.8</ele><time>2026-08-22T00:00:00Z</time></trkpt>
<trkpt lat="37.812252000" lon="-121.997820000"><ele>127.0</ele><time>2026-08-22T00:00:00Z</time></trkpt>
<trkpt lat="37.812250000" lon="-121.997930000"><ele>127.3</ele><time>2026-08-22T00:00:00Z</time></trkpt>
<trkpt lat="37.812225000" lon="-121.998030000"><ele>127.5</ele><time>2026-08-22T00:00:00Z</time></trkpt>
<trkpt lat="37.812233000" lon="-121.998140000"><ele>127.8</ele><time>2026-08-22T00:00:00Z</time></trkpt>
<trkpt lat="37.812225000" lon="-121.998245000"><ele>128.1</ele><time>2026-08-22T00:00:00Z</time></trkpt>
<trkpt lat="37.812200000" lon="-121.998344000"><ele>128.3</ele><time>2026-08-22T00:00:00Z</time></trkpt>
<trkpt lat="37.812180000" lon="-121.998440000"><ele>128.5</ele><time>2026-08-22T00:00:00Z</time></trkpt>
<trkpt lat="37.812172000" lon="-121.998550000"><ele>128.6</ele><time>2026-08-22T00:00:00Z</time></trkpt>
<trkpt lat="37.812164000" lon="-121.998660000"><ele>128.7</ele><time>2026-08-22T00:00:00Z</time></trkpt>
<trkpt lat="37.812244000" lon="-121.998720000"><ele>128.7</ele><time>2026-08-22T00:00:00Z</time></trkpt>
<trkpt lat="37.812320000" lon="-121.998764000"><ele>128.7</ele><time>2026-08-22T00:00:00Z</time></trkpt>
<trkpt lat="37.812416000" lon="-121.998790000"><ele>128.7</ele><time>2026-08-22T00:00:00Z</time></trkpt>
<trkpt lat="37.812496000" lon="-121.998810000"><ele>128.7</ele><time>2026-08-22T00:00:00Z</time></trkpt>
<trkpt lat="37.812580000" lon="-121.998850000"><ele>128.7</ele><time>2026-08-22T00:00:00Z</time></trkpt>
<trkpt lat="37.812660000" lon="-121.998856000"><ele>128.7</ele><time>2026-08-22T00:00:00Z</time></trkpt>
<trkpt lat="37.812740000" lon="-121.998886000"><ele>128.7</ele><time>2026-08-22T00:00:00Z</time></trkpt>
<trkpt lat="37.812660000" lon="-121.998880000"><ele>128.7</ele><time>2026-08-22T00:00:00Z</time></trkpt>
<trkpt lat="37.812576000" lon="-121.998856000"><ele>128.8</ele><time>2026-08-22T00:00:00Z</time></trkpt>
<trkpt lat="37.812496000" lon="-121.998820000"><ele>128.9</ele><time>2026-08-22T00:00:00Z</time></trkpt>
<trkpt lat="37.812416000" lon="-121.998795000"><ele>129.0</ele><time>2026-08-22T00:00:00Z</time></trkpt>
<trkpt lat="37.812325000" lon="-121.998770000"><ele>129.3</ele><time>2026-08-22T00:00:00Z</time></trkpt>
<trkpt lat="37.812233000" lon="-121.998750000"><ele>129.5</ele><time>2026-08-22T00:00:00Z</time></trkpt>
<trkpt lat="37.812153000" lon="-121.998764000"><ele>129.8</ele><time>2026-08-22T00:00:00Z</time></trkpt>
<trkpt lat="37.812100000" lon="-121.998856000"><ele>130.1</ele><time>2026-08-22T00:00:00Z</time></trkpt>
<trkpt lat="37.812088000" lon="-121.998960000"><ele>130.4</ele><time>2026-08-22T00:00:00Z</time></trkpt>
<trkpt lat="37.812096000" lon="-121.999070000"><ele>130.7</ele><time>2026-08-22T00:00:00Z</time></trkpt>
<trkpt lat="37.812057000" lon="-121.999176000"><ele>131.1</ele><time>2026-08-22T00:00:00Z</time></trkpt>
<trkpt lat="37.812027000" lon="-121.999275000"><ele>131.5</ele><time>2026-08-22T00:00:00Z</time></trkpt>
<trkpt lat="37.812008000" lon="-121.999380000"><ele>131.7</ele><time>2026-08-22T00:00:00Z</time></trkpt>
<trkpt lat="37.811977000" lon="-121.999490000"><ele>131.9</ele><time>2026-08-22T00:00:00Z</time></trkpt>
<trkpt lat="37.811954000" lon="-121.999596000"><ele>132.1</ele><time>2026-08-22T00:00:00Z</time></trkpt>
<trkpt lat="37.811970000" lon="-121.999700000"><ele>132.2</ele><time>2026-08-22T00:00:00Z</time></trkpt>
<trkpt lat="37.812046000" lon="-121.999756000"><ele>132.3</ele><time>2026-08-22T00:00:00Z</time></trkpt>
<trkpt lat="37.812134000" lon="-121.999794000"><ele>132.4</ele><time>2026-08-22T00:00:00Z</time></trkpt>
<trkpt lat="37.812210000" lon="-121.999840000"><ele>132.3</ele><time>2026-08-22T00:00:00Z</time></trkpt>
<trkpt lat="37.812294000" lon="-121.999880000"><ele>132.2</ele><time>2026-08-22T00:00:00Z</time></trkpt>
<trkpt lat="37.812380000" lon="-121.999850000"><ele>132.0</ele><time>2026-08-22T00:00:00Z</time></trkpt>
<trkpt lat="37.812470000" lon="-121.999890000"><ele>131.8</ele><time>2026-08-22T00:00:00Z</time></trkpt>
<trkpt lat="37.812565000" lon="-121.999910000"><ele>131.6</ele><time>2026-08-22T00:00:00Z</time></trkpt>
<trkpt lat="37.812650000" lon="-121.999916000"><ele>131.5</ele><time>2026-08-22T00:00:00Z</time></trkpt>
<trkpt lat="37.812733000" lon="-121.999916000"><ele>131.3</ele><time>2026-08-22T00:00:00Z</time></trkpt>
<trkpt lat="37.812813000" lon="-121.999910000"><ele>131.1</ele><time>2026-08-22T00:00:00Z</time></trkpt>
<trkpt lat="37.812897000" lon="-121.999910000"><ele>130.9</ele><time>2026-08-22T00:00:00Z</time></trkpt>
<trkpt lat="37.812984000" lon="-121.999920000"><ele>130.7</ele><time>2026-08-22T00:00:00Z</time></trkpt>
<trkpt lat="37.813070000" lon="-121.999900000"><ele>130.5</ele><time>2026-08-22T00:00:00Z</time></trkpt>
<trkpt lat="37.813152000" lon="-121.999910000"><ele>130.5</ele><time>2026-08-22T00:00:00Z</time></trkpt>
<trkpt lat="37.813244000" lon="-121.999900000"><ele>130.3</ele><time>2026-08-22T00:00:00Z</time></trkpt>
<trkpt lat="37.813328000" lon="-121.999900000"><ele>130.1</ele><time>2026-08-22T00:00:00Z</time></trkpt>
<trkpt lat="37.813420000" lon="-121.999890000"><ele>129.9</ele><time>2026-08-22T00:00:00Z</time></trkpt>
<trkpt lat="37.813510000" lon="-121.999900000"><ele>129.7</ele><time>2026-08-22T00:00:00Z</time></trkpt>
<trkpt lat="37.813590000" lon="-121.999890000"><ele>129.5</ele><time>2026-08-22T00:00:00Z</time></trkpt>
<trkpt lat="37.813680000" lon="-121.999900000"><ele>129.3</ele><time>2026-08-22T00:00:00Z</time></trkpt>
<trkpt lat="37.813763000" lon="-121.999860000"><ele>129.1</ele><time>2026-08-22T00:00:00Z</time></trkpt>
<trkpt lat="37.813840000" lon="-121.999910000"><ele>128.8</ele><time>2026-08-22T00:00:00Z</time></trkpt>
<trkpt lat="37.813923000" lon="-121.999910000"><ele>128.5</ele><time>2026-08-22T00:00:00Z</time></trkpt>
<trkpt lat="37.814003000" lon="-121.999930000"><ele>128.2</ele><time>2026-08-22T00:00:00Z</time></trkpt>
<trkpt lat="37.814090000" lon="-121.999940000"><ele>127.8</ele><time>2026-08-22T00:00:00Z</time></trkpt>
<trkpt lat="37.814180000" lon="-121.999940000"><ele>127.5</ele><time>2026-08-22T00:00:00Z</time></trkpt>
<trkpt lat="37.814262000" lon="-121.999950000"><ele>127.1</ele><time>2026-08-22T00:00:00Z</time></trkpt>
<trkpt lat="37.814360000" lon="-121.999950000"><ele>126.7</ele><time>2026-08-22T00:00:00Z</time></trkpt>
<trkpt lat="37.814457000" lon="-121.999950000"><ele>126.4</ele><time>2026-08-22T00:00:00Z</time></trkpt>
<trkpt lat="37.814552000" lon="-121.999940000"><ele>126.1</ele><time>2026-08-22T00:00:00Z</time></trkpt>
<trkpt lat="37.814625000" lon="-121.999860000"><ele>125.8</ele><time>2026-08-22T00:00:00Z</time></trkpt>
<trkpt lat="37.814636000" lon="-121.999750000"><ele>125.5</ele><time>2026-08-22T00:00:00Z</time></trkpt>
<trkpt lat="37.814632000" lon="-121.999630000"><ele>125.4</ele><time>2026-08-22T00:00:00Z</time></trkpt>
<trkpt lat="37.814610000" lon="-121.999535000"><ele>125.2</ele><time>2026-08-22T00:00:00Z</time></trkpt>
<trkpt lat="37.814636000" lon="-121.999430000"><ele>125.1</ele><time>2026-08-22T00:00:00Z</time></trkpt>
<trkpt lat="37.814693000" lon="-121.999510000"><ele>125.0</ele><time>2026-08-22T00:00:00Z</time></trkpt>
<trkpt lat="37.814682000" lon="-121.999620000"><ele>124.9</ele><time>2026-08-22T00:00:00Z</time></trkpt>
<trkpt lat="37.814686000" lon="-121.999740000"><ele>124.8</ele><time>2026-08-22T00:00:00Z</time></trkpt>
<trkpt lat="37.814690000" lon="-121.999855000"><ele>124.7</ele><time>2026-08-22T00:00:00Z</time></trkpt>
<trkpt lat="37.814750000" lon="-121.999940000"><ele>124.5</ele><time>2026-08-22T00:00:00Z</time></trkpt>
<trkpt lat="37.814840000" lon="-121.999940000"><ele>124.4</ele><time>2026-08-22T00:00:00Z</time></trkpt>
<trkpt lat="37.814926000" lon="-121.999950000"><ele>124.2</ele><time>2026-08-22T00:00:00Z</time></trkpt>
<trkpt lat="37.815006000" lon="-121.999940000"><ele>124.0</ele><time>2026-08-22T00:00:00Z</time></trkpt>
<trkpt lat="37.815098000" lon="-121.999940000"><ele>123.8</ele><time>2026-08-22T00:00:00Z</time></trkpt>
<trkpt lat="37.815193000" lon="-121.999940000"><ele>123.6</ele><time>2026-08-22T00:00:00Z</time></trkpt>
<trkpt lat="37.815285000" lon="-121.999920000"><ele>123.5</ele><time>2026-08-22T00:00:00Z</time></trkpt>
<trkpt lat="37.815353000" lon="-121.999850000"><ele>123.3</ele><time>2026-08-22T00:00:00Z</time></trkpt>
<trkpt lat="37.815365000" lon="-121.999730000"><ele>123.2</ele><time>2026-08-22T00:00:00Z</time></trkpt>
<trkpt lat="37.815357000" lon="-121.999626000"><ele>123.1</ele><time>2026-08-22T00:00:00Z</time></trkpt>
<trkpt lat="37.815353000" lon="-121.999510000"><ele>123.0</ele><time>2026-08-22T00:00:00Z</time></trkpt>
<trkpt lat="37.815360000" lon="-121.999400000"><ele>123.0</ele><time>2026-08-22T00:00:00Z</time></trkpt>
<trkpt lat="37.815360000" lon="-121.999280000"><ele>122.9</ele><time>2026-08-22T00:00:00Z</time></trkpt>
<trkpt lat="37.815365000" lon="-121.999176000"><ele>122.8</ele><time>2026-08-22T00:00:00Z</time></trkpt>
<trkpt lat="37.815353000" lon="-121.999060000"><ele>122.7</ele><time>2026-08-22T00:00:00Z</time></trkpt>
<trkpt lat="37.815357000" lon="-121.998950000"><ele>122.6</ele><time>2026-08-22T00:00:00Z</time></trkpt>
<trkpt lat="37.815365000" lon="-121.998830000"><ele>122.5</ele><time>2026-08-22T00:00:00Z</time></trkpt>
<trkpt lat="37.815372000" lon="-121.998720000"><ele>122.5</ele><time>2026-08-22T00:00:00Z</time></trkpt>
<trkpt lat="37.815365000" lon="-121.998604000"><ele>122.4</ele><time>2026-08-22T00:00:00Z</time></trkpt>
<trkpt lat="37.815372000" lon="-121.998480000"><ele>122.2</ele><time>2026-08-22T00:00:00Z</time></trkpt>
<trkpt lat="37.815376000" lon="-121.998380000"><ele>122.0</ele><time>2026-08-22T00:00:00Z</time></trkpt>
<trkpt lat="37.815372000" lon="-121.998260000"><ele>121.8</ele><time>2026-08-22T00:00:00Z</time></trkpt>
<trkpt lat="37.815365000" lon="-121.998160000"><ele>121.6</ele><time>2026-08-22T00:00:00Z</time></trkpt>
<trkpt lat="37.815370000" lon="-121.998055000"><ele>121.6</ele><time>2026-08-22T00:00:00Z</time></trkpt>
<trkpt lat="37.815365000" lon="-121.997950000"><ele>121.6</ele><time>2026-08-22T00:00:00Z</time></trkpt>
<trkpt lat="37.815330000" lon="-121.997840000"><ele>121.6</ele><time>2026-08-22T00:00:00Z</time></trkpt>
<trkpt lat="37.815388000" lon="-121.997920000"><ele>121.6</ele><time>2026-08-22T00:00:00Z</time></trkpt>
<trkpt lat="37.815403000" lon="-121.998024000"><ele>121.6</ele><time>2026-08-22T00:00:00Z</time></trkpt>
<trkpt lat="37.815422000" lon="-121.998140000"><ele>121.6</ele><time>2026-08-22T00:00:00Z</time></trkpt>
<trkpt lat="37.815414000" lon="-121.998250000"><ele>121.6</ele><time>2026-08-22T00:00:00Z</time></trkpt>
<trkpt lat="37.815410000" lon="-121.998370000"><ele>121.7</ele><time>2026-08-22T00:00:00Z</time></trkpt>
<trkpt lat="37.815414000" lon="-121.998474000"><ele>121.8</ele><time>2026-08-22T00:00:00Z</time></trkpt>
<trkpt lat="37.815422000" lon="-121.998580000"><ele>121.9</ele><time>2026-08-22T00:00:00Z</time></trkpt>
<trkpt lat="37.815422000" lon="-121.998690000"><ele>122.0</ele><time>2026-08-22T00:00:00Z</time></trkpt>
<trkpt lat="37.815422000" lon="-121.998800000"><ele>122.0</ele><time>2026-08-22T00:00:00Z</time></trkpt>
<trkpt lat="37.815430000" lon="-121.998910000"><ele>122.0</ele><time>2026-08-22T00:00:00Z</time></trkpt>
<trkpt lat="37.815420000" lon="-121.999010000"><ele>122.0</ele><time>2026-08-22T00:00:00Z</time></trkpt>
<trkpt lat="37.815426000" lon="-121.999115000"><ele>122.0</ele><time>2026-08-22T00:00:00Z</time></trkpt>
<trkpt lat="37.815422000" lon="-121.999220000"><ele>122.1</ele><time>2026-08-22T00:00:00Z</time></trkpt>
<trkpt lat="37.815422000" lon="-121.999340000"><ele>122.2</ele><time>2026-08-22T00:00:00Z</time></trkpt>
<trkpt lat="37.815422000" lon="-121.999460000"><ele>122.3</ele><time>2026-08-22T00:00:00Z</time></trkpt>
<trkpt lat="37.815422000" lon="-121.999570000"><ele>122.4</ele><time>2026-08-22T00:00:00Z</time></trkpt>
<trkpt lat="37.815426000" lon="-121.999690000"><ele>122.5</ele><time>2026-08-22T00:00:00Z</time></trkpt>
<trkpt lat="37.815430000" lon="-121.999794000"><ele>122.5</ele><time>2026-08-22T00:00:00Z</time></trkpt>
<trkpt lat="37.815430000" lon="-121.999910000"><ele>122.5</ele><time>2026-08-22T00:00:00Z</time></trkpt>
<trkpt lat="37.815437000" lon="-122.000020000"><ele>122.4</ele><time>2026-08-22T00:00:00Z</time></trkpt>
<trkpt lat="37.815460000" lon="-122.000130000"><ele>122.3</ele><time>2026-08-22T00:00:00Z</time></trkpt>
<trkpt lat="37.815510000" lon="-122.000206000"><ele>122.2</ele><time>2026-08-22T00:00:00Z</time></trkpt>
<trkpt lat="37.815560000" lon="-122.000300000"><ele>122.1</ele><time>2026-08-22T00:00:00Z</time></trkpt>
<trkpt lat="37.815628000" lon="-122.000374000"><ele>121.8</ele><time>2026-08-22T00:00:00Z</time></trkpt>
<trkpt lat="37.815712000" lon="-122.000410000"><ele>121.5</ele><time>2026-08-22T00:00:00Z</time></trkpt>
<trkpt lat="37.815807000" lon="-122.000420000"><ele>121.3</ele><time>2026-08-22T00:00:00Z</time></trkpt>
<trkpt lat="37.815887000" lon="-122.000400000"><ele>120.9</ele><time>2026-08-22T00:00:00Z</time></trkpt>
<trkpt lat="37.815970000" lon="-122.000420000"><ele>120.5</ele><time>2026-08-22T00:00:00Z</time></trkpt>
<trkpt lat="37.816055000" lon="-122.000450000"><ele>120.3</ele><time>2026-08-22T00:00:00Z</time></trkpt>
<trkpt lat="37.816140000" lon="-122.000435000"><ele>120.0</ele><time>2026-08-22T00:00:00Z</time></trkpt>
<trkpt lat="37.816216000" lon="-122.000380000"><ele>119.7</ele><time>2026-08-22T00:00:00Z</time></trkpt>
<trkpt lat="37.816280000" lon="-122.000310000"><ele>119.5</ele><time>2026-08-22T00:00:00Z</time></trkpt>
<trkpt lat="37.816350000" lon="-122.000240000"><ele>119.2</ele><time>2026-08-22T00:00:00Z</time></trkpt>
<trkpt lat="37.816433000" lon="-122.000180000"><ele>118.9</ele><time>2026-08-22T00:00:00Z</time></trkpt>
<trkpt lat="37.816498000" lon="-122.000110000"><ele>118.7</ele><time>2026-08-22T00:00:00Z</time></trkpt>
<trkpt lat="37.816566000" lon="-122.000050000"><ele>118.5</ele><time>2026-08-22T00:00:00Z</time></trkpt>
<trkpt lat="37.816630000" lon="-121.999990000"><ele>118.4</ele><time>2026-08-22T00:00:00Z</time></trkpt>
<trkpt lat="37.816708000" lon="-121.999916000"><ele>118.4</ele><time>2026-08-22T00:00:00Z</time></trkpt>
<trkpt lat="37.816710000" lon="-121.999820000"><ele>118.4</ele><time>2026-08-22T00:00:00Z</time></trkpt>
<trkpt lat="37.816660000" lon="-121.999710000"><ele>118.4</ele><time>2026-08-22T00:00:00Z</time></trkpt>
<trkpt lat="37.816605000" lon="-121.999620000"><ele>118.4</ele><time>2026-08-22T00:00:00Z</time></trkpt>
<trkpt lat="37.816547000" lon="-121.999535000"><ele>118.5</ele><time>2026-08-22T00:00:00Z</time></trkpt>
<trkpt lat="37.816498000" lon="-121.999440000"><ele>118.5</ele><time>2026-08-22T00:00:00Z</time></trkpt>
<trkpt lat="37.816437000" lon="-121.999350000"><ele>118.6</ele><time>2026-08-22T00:00:00Z</time></trkpt>
<trkpt lat="37.816387000" lon="-121.999270000"><ele>118.7</ele><time>2026-08-22T00:00:00Z</time></trkpt>
<trkpt lat="37.816338000" lon="-121.999176000"><ele>118.8</ele><time>2026-08-22T00:00:00Z</time></trkpt>
<trkpt lat="37.816330000" lon="-121.999060000"><ele>118.9</ele><time>2026-08-22T00:00:00Z</time></trkpt>
<trkpt lat="37.816334000" lon="-121.998955000"><ele>119.0</ele><time>2026-08-22T00:00:00Z</time></trkpt>
<trkpt lat="37.816340000" lon="-121.998840000"><ele>119.0</ele><time>2026-08-22T00:00:00Z</time></trkpt>
<trkpt lat="37.816353000" lon="-121.998720000"><ele>119.0</ele><time>2026-08-22T00:00:00Z</time></trkpt>
<trkpt lat="37.816364000" lon="-121.998604000"><ele>119.0</ele><time>2026-08-22T00:00:00Z</time></trkpt>
<trkpt lat="37.816380000" lon="-121.998490000"><ele>119.0</ele><time>2026-08-22T00:00:00Z</time></trkpt>
<trkpt lat="37.816390000" lon="-121.998375000"><ele>119.0</ele><time>2026-08-22T00:00:00Z</time></trkpt>
<trkpt lat="37.816395000" lon="-121.998250000"><ele>119.0</ele><time>2026-08-22T00:00:00Z</time></trkpt>
<trkpt lat="37.816410000" lon="-121.998140000"><ele>118.9</ele><time>2026-08-22T00:00:00Z</time></trkpt>
<trkpt lat="37.816430000" lon="-121.998024000"><ele>118.8</ele><time>2026-08-22T00:00:00Z</time></trkpt>
<trkpt lat="37.816444000" lon="-121.997920000"><ele>118.7</ele><time>2026-08-22T00:00:00Z</time></trkpt>
<trkpt lat="37.816452000" lon="-121.997800000"><ele>118.6</ele><time>2026-08-22T00:00:00Z</time></trkpt>
<trkpt lat="37.816467000" lon="-121.997696000"><ele>118.5</ele><time>2026-08-22T00:00:00Z</time></trkpt>
<trkpt lat="37.816480000" lon="-121.997590000"><ele>118.5</ele><time>2026-08-22T00:00:00Z</time></trkpt>
<trkpt lat="37.816490000" lon="-121.997475000"><ele>118.3</ele><time>2026-08-22T00:00:00Z</time></trkpt>
<trkpt lat="37.816494000" lon="-121.997370000"><ele>118.1</ele><time>2026-08-22T00:00:00Z</time></trkpt>
<trkpt lat="37.816498000" lon="-121.997260000"><ele>117.9</ele><time>2026-08-22T00:00:00Z</time></trkpt>
<trkpt lat="37.816490000" lon="-121.997150000"><ele>117.7</ele><time>2026-08-22T00:00:00Z</time></trkpt>
<trkpt lat="37.816505000" lon="-121.997030000"><ele>117.5</ele><time>2026-08-22T00:00:00Z</time></trkpt>
<trkpt lat="37.816513000" lon="-121.996925000"><ele>117.5</ele><time>2026-08-22T00:00:00Z</time></trkpt>
<trkpt lat="37.816510000" lon="-121.996826000"><ele>117.4</ele><time>2026-08-22T00:00:00Z</time></trkpt>
<trkpt lat="37.816463000" lon="-121.996730000"><ele>117.3</ele><time>2026-08-22T00:00:00Z</time></trkpt>
<trkpt lat="37.816376000" lon="-121.996740000"><ele>117.3</ele><time>2026-08-22T00:00:00Z</time></trkpt>
<trkpt lat="37.816290000" lon="-121.996740000"><ele>117.3</ele><time>2026-08-22T00:00:00Z</time></trkpt>
<trkpt lat="37.816204000" lon="-121.996740000"><ele>117.3</ele><time>2026-08-22T00:00:00Z</time></trkpt>
<trkpt lat="37.816124000" lon="-121.996720000"><ele>117.4</ele><time>2026-08-22T00:00:00Z</time></trkpt>
<trkpt lat="37.816040000" lon="-121.996704000"><ele>117.5</ele><time>2026-08-22T00:00:00Z</time></trkpt>
<trkpt lat="37.815952000" lon="-121.996710000"><ele>117.7</ele><time>2026-08-22T00:00:00Z</time></trkpt>
<trkpt lat="37.815870000" lon="-121.996660000"><ele>117.9</ele><time>2026-08-22T00:00:00Z</time></trkpt>
<trkpt lat="37.815780000" lon="-121.996660000"><ele>118.1</ele><time>2026-08-22T00:00:00Z</time></trkpt>
<trkpt lat="37.815693000" lon="-121.996630000"><ele>118.3</ele><time>2026-08-22T00:00:00Z</time></trkpt>
<trkpt lat="37.815613000" lon="-121.996605000"><ele>118.5</ele><time>2026-08-22T00:00:00Z</time></trkpt>
<trkpt lat="37.815533000" lon="-121.996560000"><ele>118.6</ele><time>2026-08-22T00:00:00Z</time></trkpt>
<trkpt lat="37.815440000" lon="-121.996570000"><ele>118.7</ele><time>2026-08-22T00:00:00Z</time></trkpt>
<trkpt lat="37.815357000" lon="-121.996540000"><ele>118.8</ele><time>2026-08-22T00:00:00Z</time></trkpt>
<trkpt lat="37.815266000" lon="-121.996510000"><ele>119.0</ele><time>2026-08-22T00:00:00Z</time></trkpt>
<trkpt lat="37.815180000" lon="-121.996490000"><ele>119.2</ele><time>2026-08-22T00:00:00Z</time></trkpt>
<trkpt lat="37.815090000" lon="-121.996490000"><ele>119.3</ele><time>2026-08-22T00:00:00Z</time></trkpt>
<trkpt lat="37.815014000" lon="-121.996460000"><ele>119.5</ele><time>2026-08-22T00:00:00Z</time></trkpt>
<trkpt lat="37.814930000" lon="-121.996430000"><ele>119.6</ele><time>2026-08-22T00:00:00Z</time></trkpt>
<trkpt lat="37.814842000" lon="-121.996445000"><ele>119.8</ele><time>2026-08-22T00:00:00Z</time></trkpt>
<trkpt lat="37.814754000" lon="-121.996445000"><ele>120.0</ele><time>2026-08-22T00:00:00Z</time></trkpt>
<trkpt lat="37.814660000" lon="-121.996440000"><ele>120.2</ele><time>2026-08-22T00:00:00Z</time></trkpt>
<trkpt lat="37.814570000" lon="-121.996414000"><ele>120.4</ele><time>2026-08-22T00:00:00Z</time></trkpt>
<trkpt lat="37.814484000" lon="-121.996390000"><ele>120.5</ele><time>2026-08-22T00:00:00Z</time></trkpt>
<trkpt lat="37.814396000" lon="-121.996390000"><ele>120.7</ele><time>2026-08-22T00:00:00Z</time></trkpt>
<trkpt lat="37.814316000" lon="-121.996376000"><ele>120.9</ele><time>2026-08-22T00:00:00Z</time></trkpt>
<trkpt lat="37.814236000" lon="-121.996340000"><ele>121.1</ele><time>2026-08-22T00:00:00Z</time></trkpt>
<trkpt lat="37.814144000" lon="-121.996350000"><ele>121.3</ele><time>2026-08-22T00:00:00Z</time></trkpt>
<trkpt lat="37.814064000" lon="-121.996346000"><ele>121.4</ele><time>2026-08-22T00:00:00Z</time></trkpt>
<trkpt lat="37.813980000" lon="-121.996320000"><ele>121.5</ele><time>2026-08-22T00:00:00Z</time></trkpt>
<trkpt lat="37.813892000" lon="-121.996330000"><ele>121.5</ele><time>2026-08-22T00:00:00Z</time></trkpt>
<trkpt lat="37.813800000" lon="-121.996320000"><ele>121.6</ele><time>2026-08-22T00:00:00Z</time></trkpt>
<trkpt lat="37.813720000" lon="-121.996284000"><ele>121.7</ele><time>2026-08-22T00:00:00Z</time></trkpt>
<trkpt lat="37.813675000" lon="-121.996190000"><ele>121.9</ele><time>2026-08-22T00:00:00Z</time></trkpt>
<trkpt lat="37.813650000" lon="-121.996086000"><ele>122.0</ele><time>2026-08-22T00:00:00Z</time></trkpt>
<trkpt lat="37.813560000" lon="-121.996056000"><ele>122.1</ele><time>2026-08-22T00:00:00Z</time></trkpt>
<trkpt lat="37.813484000" lon="-121.996020000"><ele>122.1</ele><time>2026-08-22T00:00:00Z</time></trkpt>
<trkpt lat="37.813400000" lon="-121.996010000"><ele>122.0</ele><time>2026-08-22T00:00:00Z</time></trkpt>
<trkpt lat="37.813324000" lon="-121.996050000"><ele>121.9</ele><time>2026-08-22T00:00:00Z</time></trkpt>
<trkpt lat="37.813293000" lon="-121.995960000"><ele>121.9</ele><time>2026-08-22T00:00:00Z</time></trkpt>
<trkpt lat="37.813213000" lon="-121.995926000"><ele>121.9</ele><time>2026-08-22T00:00:00Z</time></trkpt>
<trkpt lat="37.813126000" lon="-121.995950000"><ele>121.9</ele><time>2026-08-22T00:00:00Z</time></trkpt>
<trkpt lat="37.813040000" lon="-121.995895000"><ele>121.9</ele><time>2026-08-22T00:00:00Z</time></trkpt>
<trkpt lat="37.812950000" lon="-121.995880000"><ele>121.9</ele><time>2026-08-22T00:00:00Z</time></trkpt>
<trkpt lat="37.812860000" lon="-121.995880000"><ele>121.8</ele><time>2026-08-22T00:00:00Z</time></trkpt>
<trkpt lat="37.812780000" lon="-121.995820000"><ele>121.8</ele><time>2026-08-22T00:00:00Z</time></trkpt>
<trkpt lat="37.812690000" lon="-121.995810000"><ele>121.8</ele><time>2026-08-22T00:00:00Z</time></trkpt>
<trkpt lat="37.812607000" lon="-121.995804000"><ele>121.8</ele><time>2026-08-22T00:00:00Z</time></trkpt>
<trkpt lat="37.812523000" lon="-121.995780000"><ele>122.0</ele><time>2026-08-22T00:00:00Z</time></trkpt>
<trkpt lat="37.812440000" lon="-121.995766000"><ele>122.2</ele><time>2026-08-22T00:00:00Z</time></trkpt>
<trkpt lat="37.812366000" lon="-121.995820000"><ele>122.3</ele><time>2026-08-22T00:00:00Z</time></trkpt>
<trkpt lat="37.812393000" lon="-121.995926000"><ele>122.4</ele><time>2026-08-22T00:00:00Z</time></trkpt>
<trkpt lat="37.812380000" lon="-121.996050000"><ele>122.5</ele><time>2026-08-22T00:00:00Z</time></trkpt>
<trkpt lat="37.812336000" lon="-121.996150000"><ele>122.5</ele><time>2026-08-22T00:00:00Z</time></trkpt>
<trkpt lat="37.812355000" lon="-121.996254000"><ele>122.6</ele><time>2026-08-22T00:00:00Z</time></trkpt>
<trkpt lat="37.812270000" lon="-121.996280000"><ele>122.7</ele><time>2026-08-22T00:00:00Z</time></trkpt>
<trkpt lat="37.812183000" lon="-121.996240000"><ele>122.8</ele><time>2026-08-22T00:00:00Z</time></trkpt>
<trkpt lat="37.812107000" lon="-121.996200000"><ele>122.9</ele><time>2026-08-22T00:00:00Z</time></trkpt>
<trkpt lat="37.812035000" lon="-121.996155000"><ele>123.0</ele><time>2026-08-22T00:00:00Z</time></trkpt>
<trkpt lat="37.811950000" lon="-121.996100000"><ele>123.0</ele><time>2026-08-22T00:00:00Z</time></trkpt>
<trkpt lat="37.811905000" lon="-121.996000000"><ele>123.0</ele><time>2026-08-22T00:00:00Z</time></trkpt>
<trkpt lat="37.811860000" lon="-121.995995000"><ele>123.0</ele><time>2026-08-22T00:00:00Z</time></trkpt>
</trkseg>
</trk>
</gpx>
