<?xml version="1.0" encoding="UTF-8"?>
<gpx
  version="1.1"
  creator="Runkeeper - http://www.runkeeper.com"
  xmlns:xsi="http://www.w3.org/2001/XMLSchema-instance"
  xmlns="http://www.topografix.com/GPX/1/1"
  xsi:schemaLocation="http://www.topografix.com/GPX/1/1 http://www.topografix.com/GPX/1/1/gpx.xsd"
  xmlns:gpxtpx="http://www.garmin.com/xmlschemas/TrackPointExtension/v1">
<trk>
  <name><![CDATA[Walking 8/4/26]]></name>
  <time>2026-08-05T00:00:00Z</time>
<trkseg>
<trkpt lat="37.834170000" lon="-121.988785000"><ele>139.3</ele><time>2026-08-05T00:00:00Z</time></trkpt>
<trkpt lat="37.834145000" lon="-121.988890000"><ele>139.4</ele><time>2026-08-05T00:00:00Z</time></trkpt>
<trkpt lat="37.834118000" lon="-121.988990000"><ele>139.5</ele><time>2026-08-05T00:00:00Z</time></trkpt>
<trkpt lat="37.834100000" lon="-121.989100000"><ele>139.6</ele><time>2026-08-05T00:00:00Z</time></trkpt>
<trkpt lat="37.834064000" lon="-121.989190000"><ele>139.6</ele><time>2026-08-05T00:00:00Z</time></trkpt>
<trkpt lat="37.834034000" lon="-121.989296000"><ele>139.6</ele><time>2026-08-05T00:00:00Z</time></trkpt>
<trkpt lat="37.834003000" lon="-121.989395000"><ele>139.9</ele><time>2026-08-05T00:00:00Z</time></trkpt>
<trkpt lat="37.833970000" lon="-121.989494000"><ele>140.1</ele><time>2026-08-05T00:00:00Z</time></trkpt>
<trkpt lat="37.833935000" lon="-121.989586000"><ele>140.3</ele><time>2026-08-05T00:00:00Z</time></trkpt>
<trkpt lat="37.833900000" lon="-121.989685000"><ele>140.4</ele><time>2026-08-05T00:00:00Z</time></trkpt>
<trkpt lat="37.833855000" lon="-121.989790000"><ele>140.4</ele><time>2026-08-05T00:00:00Z</time></trkpt>
<trkpt lat="37.833820000" lon="-121.989910000"><ele>140.4</ele><time>2026-08-05T00:00:00Z</time></trkpt>
<trkpt lat="37.833782000" lon="-121.990000000"><ele>140.4</ele><time>2026-08-05T00:00:00Z</time></trkpt>
<trkpt lat="37.833736000" lon="-121.990100000"><ele>140.3</ele><time>2026-08-05T00:00:00Z</time></trkpt>
<trkpt lat="37.833706000" lon="-121.990200000"><ele>140.2</ele><time>2026-08-05T00:00:00Z</time></trkpt>
<trkpt lat="37.833668000" lon="-121.990295000"><ele>140.1</ele><time>2026-08-05T00:00:00Z</time></trkpt>
<trkpt lat="37.833626000" lon="-121.990390000"><ele>139.9</ele><time>2026-08-05T00:00:00Z</time></trkpt>
<trkpt lat="37.833570000" lon="-121.990480000"><ele>139.6</ele><time>2026-08-05T00:00:00Z</time></trkpt>
<trkpt lat="37.833504000" lon="-121.990555000"><ele>139.3</ele><time>2026-08-05T00:00:00Z</time></trkpt>
<trkpt lat="37.833435000" lon="-121.990630000"><ele>138.9</ele><time>2026-08-05T00:00:00Z</time></trkpt>
<trkpt lat="37.833360000" lon="-121.990700000"><ele>138.5</ele><time>2026-08-05T00:00:00Z</time></trkpt>
<trkpt lat="37.833280000" lon="-121.990750000"><ele>138.2</ele><time>2026-08-05T00:00:00Z</time></trkpt>
<trkpt lat="37.833200000" lon="-121.990810000"><ele>137.8</ele><time>2026-08-05T00:00:00Z</time></trkpt>
<trkpt lat="37.833120000" lon="-121.990840000"><ele>137.5</ele><time>2026-08-05T00:00:00Z</time></trkpt>
<trkpt lat="37.833035000" lon="-121.990840000"><ele>137.2</ele><time>2026-08-05T00:00:00Z</time></trkpt>
<trkpt lat="37.832943000" lon="-121.990820000"><ele>136.9</ele><time>2026-08-05T00:00:00Z</time></trkpt>
<trkpt lat="37.832855000" lon="-121.990860000"><ele>136.6</ele><time>2026-08-05T00:00:00Z</time></trkpt>
<trkpt lat="37.832767000" lon="-121.990906000"><ele>136.5</ele><time>2026-08-05T00:00:00Z</time></trkpt>
<trkpt lat="37.832680000" lon="-121.990906000"><ele>136.3</ele><time>2026-08-05T00:00:00Z</time></trkpt>
<trkpt lat="37.832630000" lon="-121.990814000"><ele>136.2</ele><time>2026-08-05T00:00:00Z</time></trkpt>
<trkpt lat="37.832607000" lon="-121.990715000"><ele>136.1</ele><time>2026-08-05T00:00:00Z</time></trkpt>
<trkpt lat="37.832565000" lon="-121.990620000"><ele>135.9</ele><time>2026-08-05T00:00:00Z</time></trkpt>
<trkpt lat="37.832530000" lon="-121.990530000"><ele>135.8</ele><time>2026-08-05T00:00:00Z</time></trkpt>
<trkpt lat="37.832490000" lon="-121.990430000"><ele>135.6</ele><time>2026-08-05T00:00:00Z</time></trkpt>
<trkpt lat="37.832440000" lon="-121.990340000"><ele>135.5</ele><time>2026-08-05T00:00:00Z</time></trkpt>
<trkpt lat="37.832394000" lon="-121.990250000"><ele>135.3</ele><time>2026-08-05T00:00:00Z</time></trkpt>
<trkpt lat="37.832336000" lon="-121.990166000"><ele>135.0</ele><time>2026-08-05T00:00:00Z</time></trkpt>
<trkpt lat="37.832287000" lon="-121.990074000"><ele>134.6</ele><time>2026-08-05T00:00:00Z</time></trkpt>
<trkpt lat="37.832226000" lon="-121.989990000"><ele>134.3</ele><time>2026-08-05T00:00:00Z</time></trkpt>
<trkpt lat="37.832160000" lon="-121.989910000"><ele>133.9</ele><time>2026-08-05T00:00:00Z</time></trkpt>
<trkpt lat="37.832100000" lon="-121.989820000"><ele>133.5</ele><time>2026-08-05T00:00:00Z</time></trkpt>
<trkpt lat="37.832035000" lon="-121.989750000"><ele>132.9</ele><time>2026-08-05T00:00:00Z</time></trkpt>
<trkpt lat="37.831978000" lon="-121.989680000"><ele>132.5</ele><time>2026-08-05T00:00:00Z</time></trkpt>
<trkpt lat="37.831913000" lon="-121.989620000"><ele>132.0</ele><time>2026-08-05T00:00:00Z</time></trkpt>
<trkpt lat="37.831837000" lon="-121.989555000"><ele>131.5</ele><time>2026-08-05T00:00:00Z</time></trkpt>
<trkpt lat="37.831770000" lon="-121.989494000"><ele>131.1</ele><time>2026-08-05T00:00:00Z</time></trkpt>
<trkpt lat="37.831690000" lon="-121.989430000"><ele>130.5</ele><time>2026-08-05T00:00:00Z</time></trkpt>
<trkpt lat="37.831620000" lon="-121.989380000"><ele>130.1</ele><time>2026-08-05T00:00:00Z</time></trkpt>
<trkpt lat="37.831543000" lon="-121.989330000"><ele>129.6</ele><time>2026-08-05T00:00:00Z</time></trkpt>
<trkpt lat="37.831470000" lon="-121.989265000"><ele>129.2</ele><time>2026-08-05T00:00:00Z</time></trkpt>
<trkpt lat="37.831394000" lon="-121.989204000"><ele>128.6</ele><time>2026-08-05T00:00:00Z</time></trkpt>
<trkpt lat="37.831314000" lon="-121.989160000"><ele>128.2</ele><time>2026-08-05T00:00:00Z</time></trkpt>
<trkpt lat="37.831234000" lon="-121.989100000"><ele>127.7</ele><time>2026-08-05T00:00:00Z</time></trkpt>
<trkpt lat="37.831160000" lon="-121.989020000"><ele>127.3</ele><time>2026-08-05T00:00:00Z</time></trkpt>
<trkpt lat="37.831097000" lon="-121.988950000"><ele>126.8</ele><time>2026-08-05T00:00:00Z</time></trkpt>
<trkpt lat="37.831028000" lon="-121.988880000"><ele>126.4</ele><time>2026-08-05T00:00:00Z</time></trkpt>
<trkpt lat="37.830963000" lon="-121.988800000"><ele>125.9</ele><time>2026-08-05T00:00:00Z</time></trkpt>
<trkpt lat="37.830906000" lon="-121.988716000"><ele>125.5</ele><time>2026-08-05T00:00:00Z</time></trkpt>
<trkpt lat="37.830853000" lon="-121.988640000"><ele>125.0</ele><time>2026-08-05T00:00:00Z</time></trkpt>
<trkpt lat="37.830807000" lon="-121.988540000"><ele>124.5</ele><time>2026-08-05T00:00:00Z</time></trkpt>
<trkpt lat="37.830772000" lon="-121.988434000"><ele>124.1</ele><time>2026-08-05T00:00:00Z</time></trkpt>
<trkpt lat="37.830734000" lon="-121.988335000"><ele>123.6</ele><time>2026-08-05T00:00:00Z</time></trkpt>
<trkpt lat="37.830696000" lon="-121.988235000"><ele>123.2</ele><time>2026-08-05T00:00:00Z</time></trkpt>
<trkpt lat="37.830654000" lon="-121.988130000"><ele>122.8</ele><time>2026-08-05T00:00:00Z</time></trkpt>
<trkpt lat="37.830627000" lon="-121.988030000"><ele>122.5</ele><time>2026-08-05T00:00:00Z</time></trkpt>
<trkpt lat="37.830600000" lon="-121.987920000"><ele>122.1</ele><time>2026-08-05T00:00:00Z</time></trkpt>
<trkpt lat="37.830585000" lon="-121.987820000"><ele>121.8</ele><time>2026-08-05T00:00:00Z</time></trkpt>
<trkpt lat="37.830570000" lon="-121.987720000"><ele>121.6</ele><time>2026-08-05T00:00:00Z</time></trkpt>
<trkpt lat="37.830560000" lon="-121.987610000"><ele>121.5</ele><time>2026-08-05T00:00:00Z</time></trkpt>
<trkpt lat="37.830550000" lon="-121.987495000"><ele>121.5</ele><time>2026-08-05T00:00:00Z</time></trkpt>
<trkpt lat="37.830590000" lon="-121.987400000"><ele>121.5</ele><time>2026-08-05T00:00:00Z</time></trkpt>
<trkpt lat="37.830673000" lon="-121.987390000"><ele>121.5</ele><time>2026-08-05T00:00:00Z</time></trkpt>
<trkpt lat="37.830765000" lon="-121.987390000"><ele>121.7</ele><time>2026-08-05T00:00:00Z</time></trkpt>
<trkpt lat="37.830856000" lon="-121.987400000"><ele>122.0</ele><time>2026-08-05T00:00:00Z</time></trkpt>
<trkpt lat="37.830940000" lon="-121.987390000"><ele>122.3</ele><time>2026-08-05T00:00:00Z</time></trkpt>
<trkpt lat="37.831020000" lon="-121.987390000"><ele>122.5</ele><time>2026-08-05T00:00:00Z</time></trkpt>
<trkpt lat="37.831110000" lon="-121.987400000"><ele>122.8</ele><time>2026-08-05T00:00:00Z</time></trkpt>
<trkpt lat="37.831196000" lon="-121.987404000"><ele>123.2</ele><time>2026-08-05T00:00:00Z</time></trkpt>
<trkpt lat="37.831276000" lon="-121.987400000"><ele>123.5</ele><time>2026-08-05T00:00:00Z</time></trkpt>
<trkpt lat="37.831360000" lon="-121.987404000"><ele>123.7</ele><time>2026-08-05T00:00:00Z</time></trkpt>
<trkpt lat="37.831444000" lon="-121.987400000"><ele>124.0</ele><time>2026-08-05T00:00:00Z</time></trkpt>
<trkpt lat="37.831524000" lon="-121.987400000"><ele>124.4</ele><time>2026-08-05T00:00:00Z</time></trkpt>
<trkpt lat="37.831610000" lon="-121.987400000"><ele>124.6</ele><time>2026-08-05T00:00:00Z</time></trkpt>
<trkpt lat="37.831696000" lon="-121.987390000"><ele>124.9</ele><time>2026-08-05T00:00:00Z</time></trkpt>
<trkpt lat="37.831783000" lon="-121.987380000"><ele>125.1</ele><time>2026-08-05T00:00:00Z</time></trkpt>
<trkpt lat="37.831867000" lon="-121.987380000"><ele>125.3</ele><time>2026-08-05T00:00:00Z</time></trkpt>
<trkpt lat="37.831947000" lon="-121.987380000"><ele>125.5</ele><time>2026-08-05T00:00:00Z</time></trkpt>
<trkpt lat="37.832043000" lon="-121.987390000"><ele>125.8</ele><time>2026-08-05T00:00:00Z</time></trkpt>
<trkpt lat="37.832127000" lon="-121.987380000"><ele>126.0</ele><time>2026-08-05T00:00:00Z</time></trkpt>
<trkpt lat="37.832210000" lon="-121.987380000"><ele>126.3</ele><time>2026-08-05T00:00:00Z</time></trkpt>
<trkpt lat="37.832300000" lon="-121.987380000"><ele>126.5</ele><time>2026-08-05T00:00:00Z</time></trkpt>
<trkpt lat="37.832386000" lon="-121.987380000"><ele>126.9</ele><time>2026-08-05T00:00:00Z</time></trkpt>
<trkpt lat="37.832478000" lon="-121.987370000"><ele>127.2</ele><time>2026-08-05T00:00:00Z</time></trkpt>
<trkpt lat="37.832565000" lon="-121.987380000"><ele>127.5</ele><time>2026-08-05T00:00:00Z</time></trkpt>
<trkpt lat="37.832650000" lon="-121.987380000"><ele>127.9</ele><time>2026-08-05T00:00:00Z</time></trkpt>
<trkpt lat="37.832730000" lon="-121.987390000"><ele>128.4</ele><time>2026-08-05T00:00:00Z</time></trkpt>
<trkpt lat="37.832810000" lon="-121.987380000"><ele>128.8</ele><time>2026-08-05T00:00:00Z</time></trkpt>
<trkpt lat="37.832897000" lon="-121.987400000"><ele>129.2</ele><time>2026-08-05T00:00:00Z</time></trkpt>
<trkpt lat="37.832990000" lon="-121.987410000"><ele>129.5</ele><time>2026-08-05T00:00:00Z</time></trkpt>
<trkpt lat="37.833073000" lon="-121.987420000"><ele>130.0</ele><time>2026-08-05T00:00:00Z</time></trkpt>
<trkpt lat="37.833157000" lon="-121.987434000"><ele>130.4</ele><time>2026-08-05T00:00:00Z</time></trkpt>
<trkpt lat="37.833250000" lon="-121.987465000"><ele>130.8</ele><time>2026-08-05T00:00:00Z</time></trkpt>
<trkpt lat="37.833330000" lon="-121.987495000"><ele>131.2</ele><time>2026-08-05T00:00:00Z</time></trkpt>
<trkpt lat="37.833405000" lon="-121.987526000"><ele>131.6</ele><time>2026-08-05T00:00:00Z</time></trkpt>
<trkpt lat="37.833480000" lon="-121.987564000"><ele>132.0</ele><time>2026-08-05T00:00:00Z</time></trkpt>
<trkpt lat="37.833560000" lon="-121.987600000"><ele>132.5</ele><time>2026-08-05T00:00:00Z</time></trkpt>
<trkpt lat="37.833645000" lon="-121.987650000"><ele>132.7</ele><time>2026-08-05T00:00:00Z</time></trkpt>
<trkpt lat="37.833733000" lon="-121.987620000"><ele>133.1</ele><time>2026-08-05T00:00:00Z</time></trkpt>
<trkpt lat="37.833813000" lon="-121.987560000"><ele>133.5</ele><time>2026-08-05T00:00:00Z</time></trkpt>
<trkpt lat="37.833897000" lon="-121.987580000"><ele>133.8</ele><time>2026-08-05T00:00:00Z</time></trkpt>
<trkpt lat="37.833970000" lon="-121.987650000"><ele>134.2</ele><time>2026-08-05T00:00:00Z</time></trkpt>
<trkpt lat="37.834003000" lon="-121.987740000"><ele>134.5</ele><time>2026-08-05T00:00:00Z</time></trkpt>
<trkpt lat="37.834030000" lon="-121.987850000"><ele>134.8</ele><time>2026-08-05T00:00:00Z</time></trkpt>
<trkpt lat="37.834080000" lon="-121.987930000"><ele>135.1</ele><time>2026-08-05T00:00:00Z</time></trkpt>
<trkpt lat="37.834164000" lon="-121.987950000"><ele>135.3</ele><time>2026-08-05T00:00:00Z</time></trkpt>
<trkpt lat="37.834244000" lon="-121.987980000"><ele>135.5</ele><time>2026-08-05T00:00:00Z</time></trkpt>
<trkpt lat="37.834328000" lon="-121.988020000"><ele>135.7</ele><time>2026-08-05T00:00:00Z</time></trkpt>
<trkpt lat="37.834354000" lon="-121.988130000"><ele>136.1</ele><time>2026-08-05T00:00:00Z</time></trkpt>
<trkpt lat="37.834312000" lon="-121.988230000"><ele>136.4</ele><time>2026-08-05T00:00:00Z</time></trkpt>
<trkpt lat="37.834267000" lon="-121.988330000"><ele>136.7</ele><time>2026-08-05T00:00:00Z</time></trkpt>
<trkpt lat="37.834225000" lon="-121.988430000"><ele>137.1</ele><time>2026-08-05T00:00:00Z</time></trkpt>
<trkpt lat="37.834248000" lon="-121.988530000"><ele>137.4</ele><time>2026-08-05T00:00:00Z</time></trkpt>
<trkpt lat="37.834248000" lon="-121.988650000"><ele>137.7</ele><time>2026-08-05T00:00:00Z</time></trkpt>
<trkpt lat="37.834213000" lon="-121.988750000"><ele>138.1</ele><time>2026-08-05T00:00:00Z</time></trkpt>
<trkpt lat="37.834175000" lon="-121.988846000"><ele>138.5</ele><time>2026-08-05T00:00:00Z</time></trkpt>
<trkpt lat="37.834145000" lon="-121.988945000"><ele>138.8</ele><time>2026-08-05T00:00:00Z</time></trkpt>
<trkpt lat="37.834120000" lon="-121.989044000"><ele>139.1</ele><time>2026-08-05T00:00:00Z</time></trkpt>
<trkpt lat="37.834084000" lon="-121.989140000"><ele>139.4</ele><time>2026-08-05T00:00:00Z</time></trkpt>
<trkpt lat="37.834045000" lon="-121.989240000"><ele>139.5</ele><time>2026-08-05T00:00:00Z</time></trkpt>
<trkpt lat="37.834010000" lon="-121.989350000"><ele>139.7</ele><time>2026-08-05T00:00:00Z</time></trkpt>
<trkpt lat="37.833977000" lon="-121.989440000"><ele>139.9</ele><time>2026-08-05T00:00:00Z</time></trkpt>
<trkpt lat="37.833940000" lon="-121.989550000"><ele>140.1</ele><time>2026-08-05T00:00:00Z</time></trkpt>
<trkpt lat="37.833900000" lon="-121.989650000"><ele>140.3</ele><time>2026-08-05T00:00:00Z</time></trkpt>
<trkpt lat="37.833866000" lon="-121.989750000"><ele>140.4</ele><time>2026-08-05T00:00:00Z</time></trkpt>
<trkpt lat="37.833830000" lon="-121.989860000"><ele>140.5</ele><time>2026-08-05T00:00:00Z</time></trkpt>
<trkpt lat="37.833794000" lon="-121.989970000"><ele>140.5</ele><time>2026-08-05T00:00:00Z</time></trkpt>
<trkpt lat="37.833763000" lon="-121.990060000"><ele>140.5</ele><time>2026-08-05T00:00:00Z</time></trkpt>
<trkpt lat="37.833706000" lon="-121.990160000"><ele>140.5</ele><time>2026-08-05T00:00:00Z</time></trkpt>
<trkpt lat="37.833733000" lon="-121.990050000"><ele>140.5</ele><time>2026-08-05T00:00:00Z</time></trkpt>
<trkpt lat="37.833775000" lon="-121.989960000"><ele>140.5</ele><time>2026-08-05T00:00:00Z</time></trkpt>
<trkpt lat="37.833817000" lon="-121.989850000"><ele>140.5</ele><time>2026-08-05T00:00:00Z</time></trkpt>
<trkpt lat="37.833862000" lon="-121.989746000"><ele>140.4</ele><time>2026-08-05T00:00:00Z</time></trkpt>
<trkpt lat="37.833897000" lon="-121.989655000"><ele>140.3</ele><time>2026-08-05T00:00:00Z</time></trkpt>
<trkpt lat="37.833930000" lon="-121.989555000"><ele>140.1</ele><time>2026-08-05T00:00:00Z</time></trkpt>
<trkpt lat="37.833973000" lon="-121.989460000"><ele>139.9</ele><time>2026-08-05T00:00:00Z</time></trkpt>
<trkpt lat="37.834010000" lon="-121.989365000"><ele>139.7</ele><time>2026-08-05T00:00:00Z</time></trkpt>
<trkpt lat="37.834040000" lon="-121.989265000"><ele>139.5</ele><time>2026-08-05T00:00:00Z</time></trkpt>
<trkpt lat="37.834076000" lon="-121.989170000"><ele>139.3</ele><time>2026-08-05T00:00:00Z</time></trkpt>
<trkpt lat="37.834103000" lon="-121.989070000"><ele>139.0</ele><time>2026-08-05T00:00:00Z</time></trkpt>
<trkpt lat="37.834137000" lon="-121.988960000"><ele>138.7</ele><time>2026-08-05T00:00:00Z</time></trkpt>
<trkpt lat="37.834170000" lon="-121.988850000"><ele>138.6</ele><time>2026-08-05T00:00:00Z</time></trkpt>
<trkpt lat="37.834206000" lon="-121.988750000"><ele>138.4</ele><time>2026-08-05T00:00:00Z</time></trkpt>
<trkpt lat="37.834236000" lon="-121.988650000"><ele>138.2</ele><time>2026-08-05T00:00:00Z</time></trkpt>
<trkpt lat="37.834286000" lon="-121.988550000"><ele>138.0</ele><time>2026-08-05T00:00:00Z</time></trkpt>
<trkpt lat="37.834305000" lon="-121.988580000"><ele>137.8</ele><time>2026-08-05T00:00:00Z</time></trkpt>
</trkseg>
</trk>
</gpx>
