<?xml version="1.0" encoding="UTF-8"?>
<gpx
  version="1.1"
  creator="Runkeeper - http://www.runkeeper.com"
  xmlns:xsi="http://www.w3.org/2001/XMLSchema-instance"
  xmlns="http://www.topografix.com/GPX/1/1"
  xsi:schemaLocation="http://www.topografix.com/GPX/1/1 http://www.topografix.com/GPX/1/1/gpx.xsd"
  xmlns:gpxtpx="http://www.garmin.com/xmlschemas/TrackPointExtension/v1">
<trk>
  <name><![CDATA[Walking 8/8/26]]></name>
  <time>2026-08-08T00:00:00Z</time>
<trkseg>
<trkpt lat="37.834377000" lon="-121.991905000"><ele>145.5</ele><time>2026-08-08T00:00:00Z</time></trkpt>
<trkpt lat="37.834350000" lon="-121.992004000"><ele>145.4</ele><time>2026-08-08T00:00:00Z</time></trkpt>
<trkpt lat="37.834340000" lon="-121.992120000"><ele>145.5</ele><time>2026-08-08T00:00:00Z</time></trkpt>
<trkpt lat="37.834370000" lon="-121.992226000"><ele>145.6</ele><time>2026-08-08T00:00:00Z</time></trkpt>
<trkpt lat="37.834446000" lon="-121.992270000"><ele>145.7</ele><time>2026-08-08T00:00:00Z</time></trkpt>
<trkpt lat="37.834522000" lon="-121.992310000"><ele>145.8</ele><time>2026-08-08T00:00:00Z</time></trkpt>
<trkpt lat="37.834606000" lon="-121.992350000"><ele>145.9</ele><time>2026-08-08T00:00:00Z</time></trkpt>
<trkpt lat="37.834690000" lon="-121.992386000"><ele>146.3</ele><time>2026-08-08T00:00:00Z</time></trkpt>
<trkpt lat="37.834770000" lon="-121.992420000"><ele>146.8</ele><time>2026-08-08T00:00:00Z</time></trkpt>
<trkpt lat="37.834854000" lon="-121.992460000"><ele>147.5</ele><time>2026-08-08T00:00:00Z</time></trkpt>
<trkpt lat="37.834930000" lon="-121.992490000"><ele>148.1</ele><time>2026-08-08T00:00:00Z</time></trkpt>
<trkpt lat="37.835010000" lon="-121.992540000"><ele>148.8</ele><time>2026-08-08T00:00:00Z</time></trkpt>
<trkpt lat="37.835090000" lon="-121.992600000"><ele>149.6</ele><time>2026-08-08T00:00:00Z</time></trkpt>
<trkpt lat="37.835163000" lon="-121.992650000"><ele>150.5</ele><time>2026-08-08T00:00:00Z</time></trkpt>
<trkpt lat="37.835236000" lon="-121.992740000"><ele>151.3</ele><time>2026-08-08T00:00:00Z</time></trkpt>
<trkpt lat="37.835304000" lon="-121.992820000"><ele>152.1</ele><time>2026-08-08T00:00:00Z</time></trkpt>
<trkpt lat="37.835370000" lon="-121.992900000"><ele>152.9</ele><time>2026-08-08T00:00:00Z</time></trkpt>
<trkpt lat="37.835440000" lon="-121.992970000"><ele>153.7</ele><time>2026-08-08T00:00:00Z</time></trkpt>
<trkpt lat="37.835506000" lon="-121.993034000"><ele>154.5</ele><time>2026-08-08T00:00:00Z</time></trkpt>
<trkpt lat="37.835575000" lon="-121.993110000"><ele>155.2</ele><time>2026-08-08T00:00:00Z</time></trkpt>
<trkpt lat="37.835644000" lon="-121.993190000"><ele>155.8</ele><time>2026-08-08T00:00:00Z</time></trkpt>
<trkpt lat="37.835712000" lon="-121.993260000"><ele>156.5</ele><time>2026-08-08T00:00:00Z</time></trkpt>
<trkpt lat="37.835780000" lon="-121.993330000"><ele>156.9</ele><time>2026-08-08T00:00:00Z</time></trkpt>
<trkpt lat="37.835854000" lon="-121.993385000"><ele>157.3</ele><time>2026-08-08T00:00:00Z</time></trkpt>
<trkpt lat="37.835934000" lon="-121.993360000"><ele>157.6</ele><time>2026-08-08T00:00:00Z</time></trkpt>
<trkpt lat="37.836002000" lon="-121.993286000"><ele>158.0</ele><time>2026-08-08T00:00:00Z</time></trkpt>
<trkpt lat="37.836050000" lon="-121.993200000"><ele>158.3</ele><time>2026-08-08T00:00:00Z</time></trkpt>
<trkpt lat="37.836094000" lon="-121.993110000"><ele>158.5</ele><time>2026-08-08T00:00:00Z</time></trkpt>
<trkpt lat="37.836150000" lon="-121.993030000"><ele>158.6</ele><time>2026-08-08T00:00:00Z</time></trkpt>
<trkpt lat="37.836205000" lon="-121.992940000"><ele>158.6</ele><time>2026-08-08T00:00:00Z</time></trkpt>
<trkpt lat="37.836250000" lon="-121.992840000"><ele>158.5</ele><time>2026-08-08T00:00:00Z</time></trkpt>
<trkpt lat="37.836308000" lon="-121.992770000"><ele>158.5</ele><time>2026-08-08T00:00:00Z</time></trkpt>
<trkpt lat="37.836370000" lon="-121.992680000"><ele>158.5</ele><time>2026-08-08T00:00:00Z</time></trkpt>
<trkpt lat="37.836422000" lon="-121.992600000"><ele>158.6</ele><time>2026-08-08T00:00:00Z</time></trkpt>
<trkpt lat="37.836460000" lon="-121.992500000"><ele>158.6</ele><time>2026-08-08T00:00:00Z</time></trkpt>
<trkpt lat="37.836483000" lon="-121.992400000"><ele>158.5</ele><time>2026-08-08T00:00:00Z</time></trkpt>
<trkpt lat="37.836506000" lon="-121.992290000"><ele>158.5</ele><time>2026-08-08T00:00:00Z</time></trkpt>
<trkpt lat="37.836582000" lon="-121.992230000"><ele>158.5</ele><time>2026-08-08T00:00:00Z</time></trkpt>
<trkpt lat="37.836548000" lon="-121.992330000"><ele>158.5</ele><time>2026-08-08T00:00:00Z</time></trkpt>
<trkpt lat="37.836514000" lon="-121.992440000"><ele>158.5</ele><time>2026-08-08T00:00:00Z</time></trkpt>
<trkpt lat="37.836470000" lon="-121.992550000"><ele>158.6</ele><time>2026-08-08T00:00:00Z</time></trkpt>
<trkpt lat="37.836422000" lon="-121.992645000"><ele>158.6</ele><time>2026-08-08T00:00:00Z</time></trkpt>
<trkpt lat="37.836370000" lon="-121.992730000"><ele>158.6</ele><time>2026-08-08T00:00:00Z</time></trkpt>
<trkpt lat="37.836308000" lon="-121.992820000"><ele>158.6</ele><time>2026-08-08T00:00:00Z</time></trkpt>
<trkpt lat="37.836246000" lon="-121.992900000"><ele>158.6</ele><time>2026-08-08T00:00:00Z</time></trkpt>
<trkpt lat="37.836190000" lon="-121.992990000"><ele>158.6</ele><time>2026-08-08T00:00:00Z</time></trkpt>
<trkpt lat="37.836130000" lon="-121.993080000"><ele>158.6</ele><time>2026-08-08T00:00:00Z</time></trkpt>
<trkpt lat="37.836070000" lon="-121.993160000"><ele>158.6</ele><time>2026-08-08T00:00:00Z</time></trkpt>
<trkpt lat="37.836010000" lon="-121.993240000"><ele>158.5</ele><time>2026-08-08T00:00:00Z</time></trkpt>
<trkpt lat="37.835957000" lon="-121.993324000"><ele>158.4</ele><time>2026-08-08T00:00:00Z</time></trkpt>
<trkpt lat="37.835890000" lon="-121.993390000"><ele>158.1</ele><time>2026-08-08T00:00:00Z</time></trkpt>
<trkpt lat="37.835840000" lon="-121.993484000"><ele>157.8</ele><time>2026-08-08T00:00:00Z</time></trkpt>
<trkpt lat="37.835780000" lon="-121.993576000"><ele>157.6</ele><time>2026-08-08T00:00:00Z</time></trkpt>
<trkpt lat="37.835724000" lon="-121.993660000"><ele>157.3</ele><time>2026-08-08T00:00:00Z</time></trkpt>
<trkpt lat="37.835660000" lon="-121.993750000"><ele>156.8</ele><time>2026-08-08T00:00:00Z</time></trkpt>
<trkpt lat="37.835606000" lon="-121.993850000"><ele>156.3</ele><time>2026-08-08T00:00:00Z</time></trkpt>
<trkpt lat="37.835556000" lon="-121.993940000"><ele>155.7</ele><time>2026-08-08T00:00:00Z</time></trkpt>
<trkpt lat="37.835490000" lon="-121.994020000"><ele>155.2</ele><time>2026-08-08T00:00:00Z</time></trkpt>
<trkpt lat="37.835438000" lon="-121.994120000"><ele>154.5</ele><time>2026-08-08T00:00:00Z</time></trkpt>
<trkpt lat="37.835377000" lon="-121.994200000"><ele>153.7</ele><time>2026-08-08T00:00:00Z</time></trkpt>
<trkpt lat="37.835310000" lon="-121.994280000"><ele>153.1</ele><time>2026-08-08T00:00:00Z</time></trkpt>
<trkpt lat="37.835255000" lon="-121.994360000"><ele>152.7</ele><time>2026-08-08T00:00:00Z</time></trkpt>
<trkpt lat="37.835194000" lon="-121.994450000"><ele>152.5</ele><time>2026-08-08T00:00:00Z</time></trkpt>
<trkpt lat="37.835140000" lon="-121.994550000"><ele>152.5</ele><time>2026-08-08T00:00:00Z</time></trkpt>
<trkpt lat="37.835180000" lon="-121.994660000"><ele>152.5</ele><time>2026-08-08T00:00:00Z</time></trkpt>
<trkpt lat="37.835247000" lon="-121.994736000"><ele>152.6</ele><time>2026-08-08T00:00:00Z</time></trkpt>
<trkpt lat="37.835310000" lon="-121.994810000"><ele>153.0</ele><time>2026-08-08T00:00:00Z</time></trkpt>
<trkpt lat="37.835377000" lon="-121.994870000"><ele>153.5</ele><time>2026-08-08T00:00:00Z</time></trkpt>
<trkpt lat="37.835445000" lon="-121.994960000"><ele>154.1</ele><time>2026-08-08T00:00:00Z</time></trkpt>
<trkpt lat="37.835510000" lon="-121.995026000"><ele>155.0</ele><time>2026-08-08T00:00:00Z</time></trkpt>
<trkpt lat="37.835575000" lon="-121.995100000"><ele>156.0</ele><time>2026-08-08T00:00:00Z</time></trkpt>
<trkpt lat="37.835650000" lon="-121.995160000"><ele>157.1</ele><time>2026-08-08T00:00:00Z</time></trkpt>
<trkpt lat="37.835730000" lon="-121.995210000"><ele>158.1</ele><time>2026-08-08T00:00:00Z</time></trkpt>
<trkpt lat="37.835815000" lon="-121.995230000"><ele>159.0</ele><time>2026-08-08T00:00:00Z</time></trkpt>
<trkpt lat="37.835910000" lon="-121.995240000"><ele>159.9</ele><time>2026-08-08T00:00:00Z</time></trkpt>
<trkpt lat="37.835995000" lon="-121.995230000"><ele>160.8</ele><time>2026-08-08T00:00:00Z</time></trkpt>
<trkpt lat="37.836082000" lon="-121.995210000"><ele>161.6</ele><time>2026-08-08T00:00:00Z</time></trkpt>
<trkpt lat="37.836170000" lon="-121.995170000"><ele>162.3</ele><time>2026-08-08T00:00:00Z</time></trkpt>
<trkpt lat="37.836258000" lon="-121.995125000"><ele>162.7</ele><time>2026-08-08T00:00:00Z</time></trkpt>
<trkpt lat="37.836340000" lon="-121.995070000"><ele>163.2</ele><time>2026-08-08T00:00:00Z</time></trkpt>
<trkpt lat="37.836422000" lon="-121.995020000"><ele>163.4</ele><time>2026-08-08T00:00:00Z</time></trkpt>
<trkpt lat="37.836372000" lon="-121.995110000"><ele>163.3</ele><time>2026-08-08T00:00:00Z</time></trkpt>
<trkpt lat="37.836292000" lon="-121.995130000"><ele>163.0</ele><time>2026-08-08T00:00:00Z</time></trkpt>
<trkpt lat="37.836212000" lon="-121.995170000"><ele>162.5</ele><time>2026-08-08T00:00:00Z</time></trkpt>
<trkpt lat="37.836136000" lon="-121.995200000"><ele>162.0</ele><time>2026-08-08T00:00:00Z</time></trkpt>
<trkpt lat="37.836050000" lon="-121.995224000"><ele>161.2</ele><time>2026-08-08T00:00:00Z</time></trkpt>
<trkpt lat="37.835960000" lon="-121.995224000"><ele>160.3</ele><time>2026-08-08T00:00:00Z</time></trkpt>
<trkpt lat="37.835873000" lon="-121.995224000"><ele>159.4</ele><time>2026-08-08T00:00:00Z</time></trkpt>
<trkpt lat="37.835780000" lon="-121.995220000"><ele>158.5</ele><time>2026-08-08T00:00:00Z</time></trkpt>
<trkpt lat="37.835697000" lon="-121.995186000"><ele>157.5</ele><time>2026-08-08T00:00:00Z</time></trkpt>
<trkpt lat="37.835613000" lon="-121.995130000"><ele>156.5</ele><time>2026-08-08T00:00:00Z</time></trkpt>
<trkpt lat="37.835530000" lon="-121.995070000"><ele>155.4</ele><time>2026-08-08T00:00:00Z</time></trkpt>
<trkpt lat="37.835470000" lon="-121.995000000"><ele>154.5</ele><time>2026-08-08T00:00:00Z</time></trkpt>
<trkpt lat="37.835403000" lon="-121.994934000"><ele>153.5</ele><time>2026-08-08T00:00:00Z</time></trkpt>
<trkpt lat="37.835330000" lon="-121.994860000"><ele>152.8</ele><time>2026-08-08T00:00:00Z</time></trkpt>
<trkpt lat="37.835262000" lon="-121.994790000"><ele>152.1</ele><time>2026-08-08T00:00:00Z</time></trkpt>
<trkpt lat="37.835186000" lon="-121.994710000"><ele>151.5</ele><time>2026-08-08T00:00:00Z</time></trkpt>
<trkpt lat="37.835106000" lon="-121.994644000"><ele>150.9</ele><time>2026-08-08T00:00:00Z</time></trkpt>
<trkpt lat="37.835030000" lon="-121.994700000"><ele>150.3</ele><time>2026-08-08T00:00:00Z</time></trkpt>
<trkpt lat="37.834976000" lon="-121.994790000"><ele>149.6</ele><time>2026-08-08T00:00:00Z</time></trkpt>
<trkpt lat="37.834915000" lon="-121.994870000"><ele>149.0</ele><time>2026-08-08T00:00:00Z</time></trkpt>
<trkpt lat="37.834858000" lon="-121.994965000"><ele>148.5</ele><time>2026-08-08T00:00:00Z</time></trkpt>
<trkpt lat="37.834793000" lon="-121.995050000"><ele>147.8</ele><time>2026-08-08T00:00:00Z</time></trkpt>
<trkpt lat="37.834743000" lon="-121.995150000"><ele>147.1</ele><time>2026-08-08T00:00:00Z</time></trkpt>
<trkpt lat="37.834690000" lon="-121.995240000"><ele>146.4</ele><time>2026-08-08T00:00:00Z</time></trkpt>
<trkpt lat="37.834620000" lon="-121.995330000"><ele>145.5</ele><time>2026-08-08T00:00:00Z</time></trkpt>
<trkpt lat="37.834553000" lon="-121.995415000"><ele>144.4</ele><time>2026-08-08T00:00:00Z</time></trkpt>
<trkpt lat="37.834484000" lon="-121.995500000"><ele>143.2</ele><time>2026-08-08T00:00:00Z</time></trkpt>
<trkpt lat="37.834420000" lon="-121.995580000"><ele>141.9</ele><time>2026-08-08T00:00:00Z</time></trkpt>
<trkpt lat="37.834347000" lon="-121.995660000"><ele>140.6</ele><time>2026-08-08T00:00:00Z</time></trkpt>
<trkpt lat="37.834267000" lon="-121.995730000"><ele>139.4</ele><time>2026-08-08T00:00:00Z</time></trkpt>
<trkpt lat="37.834183000" lon="-121.995770000"><ele>138.1</ele><time>2026-08-08T00:00:00Z</time></trkpt>
<trkpt lat="37.834095000" lon="-121.995820000"><ele>136.9</ele><time>2026-08-08T00:00:00Z</time></trkpt>
<trkpt lat="37.834010000" lon="-121.995850000"><ele>135.8</ele><time>2026-08-08T00:00:00Z</time></trkpt>
<trkpt lat="37.833920000" lon="-121.995865000"><ele>134.9</ele><time>2026-08-08T00:00:00Z</time></trkpt>
<trkpt lat="37.833828000" lon="-121.995865000"><ele>134.2</ele><time>2026-08-08T00:00:00Z</time></trkpt>
<trkpt lat="37.833740000" lon="-121.995850000"><ele>133.6</ele><time>2026-08-08T00:00:00Z</time></trkpt>
<trkpt lat="37.833650000" lon="-121.995820000"><ele>133.3</ele><time>2026-08-08T00:00:00Z</time></trkpt>
<trkpt lat="37.833560000" lon="-121.995780000"><ele>133.1</ele><time>2026-08-08T00:00:00Z</time></trkpt>
<trkpt lat="37.833515000" lon="-121.995680000"><ele>133.0</ele><time>2026-08-08T00:00:00Z</time></trkpt>
<trkpt lat="37.833520000" lon="-121.995575000"><ele>133.0</ele><time>2026-08-08T00:00:00Z</time></trkpt>
<trkpt lat="37.833500000" lon="-121.995470000"><ele>133.1</ele><time>2026-08-08T00:00:00Z</time></trkpt>
<trkpt lat="37.833466000" lon="-121.995360000"><ele>133.4</ele><time>2026-08-08T00:00:00Z</time></trkpt>
<trkpt lat="37.833420000" lon="-121.995260000"><ele>133.7</ele><time>2026-08-08T00:00:00Z</time></trkpt>
<trkpt lat="37.833370000" lon="-121.995180000"><ele>134.2</ele><time>2026-08-08T00:00:00Z</time></trkpt>
<trkpt lat="37.833324000" lon="-121.995080000"><ele>134.5</ele><time>2026-08-08T00:00:00Z</time></trkpt>
<trkpt lat="37.833282000" lon="-121.994980000"><ele>134.8</ele><time>2026-08-08T00:00:00Z</time></trkpt>
<trkpt lat="37.833244000" lon="-121.994870000"><ele>135.1</ele><time>2026-08-08T00:00:00Z</time></trkpt>
<trkpt lat="37.833225000" lon="-121.994760000"><ele>135.4</ele><time>2026-08-08T00:00:00Z</time></trkpt>
<trkpt lat="37.833180000" lon="-121.994660000"><ele>135.6</ele><time>2026-08-08T00:00:00Z</time></trkpt>
<trkpt lat="37.833153000" lon="-121.994570000"><ele>135.9</ele><time>2026-08-08T00:00:00Z</time></trkpt>
<trkpt lat="37.833153000" lon="-121.994446000"><ele>136.2</ele><time>2026-08-08T00:00:00Z</time></trkpt>
<trkpt lat="37.833157000" lon="-121.994340000"><ele>136.5</ele><time>2026-08-08T00:00:00Z</time></trkpt>
<trkpt lat="37.833168000" lon="-121.994230000"><ele>136.7</ele><time>2026-08-08T00:00:00Z</time></trkpt>
<trkpt lat="37.833183000" lon="-121.994130000"><ele>137.0</ele><time>2026-08-08T00:00:00Z</time></trkpt>
<trkpt lat="37.833202000" lon="-121.994026000"><ele>137.4</ele><time>2026-08-08T00:00:00Z</time></trkpt>
<trkpt lat="37.833256000" lon="-121.993950000"><ele>137.7</ele><time>2026-08-08T00:00:00Z</time></trkpt>
<trkpt lat="37.833317000" lon="-121.993870000"><ele>138.1</ele><time>2026-08-08T00:00:00Z</time></trkpt>
<trkpt lat="37.833374000" lon="-121.993774000"><ele>138.3</ele><time>2026-08-08T00:00:00Z</time></trkpt>
<trkpt lat="37.833430000" lon="-121.993680000"><ele>138.5</ele><time>2026-08-08T00:00:00Z</time></trkpt>
<trkpt lat="37.833490000" lon="-121.993610000"><ele>138.8</ele><time>2026-08-08T00:00:00Z</time></trkpt>
<trkpt lat="37.833546000" lon="-121.993515000"><ele>139.1</ele><time>2026-08-08T00:00:00Z</time></trkpt>
<trkpt lat="37.833595000" lon="-121.993430000"><ele>139.4</ele><time>2026-08-08T00:00:00Z</time></trkpt>
<trkpt lat="37.833650000" lon="-121.993350000"><ele>139.6</ele><time>2026-08-08T00:00:00Z</time></trkpt>
<trkpt lat="37.833702000" lon="-121.993270000"><ele>139.9</ele><time>2026-08-08T00:00:00Z</time></trkpt>
<trkpt lat="37.833755000" lon="-121.993190000"><ele>140.1</ele><time>2026-08-08T00:00:00Z</time></trkpt>
<trkpt lat="37.833810000" lon="-121.993110000"><ele>140.3</ele><time>2026-08-08T00:00:00Z</time></trkpt>
<trkpt lat="37.833866000" lon="-121.993034000"><ele>140.5</ele><time>2026-08-08T00:00:00Z</time></trkpt>
<trkpt lat="37.833923000" lon="-121.992960000"><ele>140.8</ele><time>2026-08-08T00:00:00Z</time></trkpt>
<trkpt lat="37.833984000" lon="-121.992874000"><ele>141.2</ele><time>2026-08-08T00:00:00Z</time></trkpt>
<trkpt lat="37.834034000" lon="-121.992800000"><ele>141.5</ele><time>2026-08-08T00:00:00Z</time></trkpt>
<trkpt lat="37.834087000" lon="-121.992710000"><ele>141.9</ele><time>2026-08-08T00:00:00Z</time></trkpt>
<trkpt lat="37.834152000" lon="-121.992615000"><ele>142.4</ele><time>2026-08-08T00:00:00Z</time></trkpt>
<trkpt lat="37.834198000" lon="-121.992530000"><ele>142.9</ele><time>2026-08-08T00:00:00Z</time></trkpt>
<trkpt lat="37.834232000" lon="-121.992430000"><ele>143.5</ele><time>2026-08-08T00:00:00Z</time></trkpt>
<trkpt lat="37.834270000" lon="-121.992330000"><ele>144.1</ele><time>2026-08-08T00:00:00Z</time></trkpt>
<trkpt lat="37.834293000" lon="-121.992230000"><ele>144.4</ele><time>2026-08-08T00:00:00Z</time></trkpt>
<trkpt lat="37.834330000" lon="-121.992134000"><ele>144.7</ele><time>2026-08-08T00:00:00Z</time></trkpt>
<trkpt lat="37.834354000" lon="-121.992035000"><ele>144.9</ele><time>2026-08-08T00:00:00Z</time></trkpt>
<trkpt lat="37.834330000" lon="-121.991930000"><ele>145.1</ele><time>2026-08-08T00:00:00Z</time></trkpt>
<trkpt lat="37.834330000" lon="-121.991905000"><ele>145.5</ele><time>2026-08-08T00:00:00Z</time></trkpt>
</trkseg>
</trk>
</gpx>
