<?xml version="1.0" encoding="UTF-8"?>
<gpx
  version="1.1"
  creator="Runkeeper - http://www.runkeeper.com"
  xmlns:xsi="http://www.w3.org/2001/XMLSchema-instance"
  xmlns="http://www.topografix.com/GPX/1/1"
  xsi:schemaLocation="http://www.topografix.com/GPX/1/1 http://www.topografix.com/GPX/1/1/gpx.xsd"
  xmlns:gpxtpx="http://www.garmin.com/xmlschemas/TrackPointExtension/v1">
<trk>
  <name><![CDATA[Walking 8/3/26]]></name>
  <time>2026-08-04T00:00:00Z</time>
<trkseg>
<trkpt lat="37.813150000" lon="-121.976550000"><ele>125.0</ele><time>2026-08-04T00:00:00Z</time></trkpt>
<trkpt lat="37.813090000" lon="-121.976340000"><ele>125.1</ele><time>2026-08-04T00:00:00Z</time></trkpt>
<trkpt lat="37.813133000" lon="-121.976430000"><ele>125.1</ele><time>2026-08-04T00:00:00Z</time></trkpt>
<trkpt lat="37.813137000" lon="-121.976326000"><ele>125.1</ele><time>2026-08-04T00:00:00Z</time></trkpt>
<trkpt lat="37.813150000" lon="-121.976220000"><ele>125.1</ele><time>2026-08-04T00:00:00Z</time></trkpt>
<trkpt lat="37.813187000" lon="-121.976130000"><ele>125.1</ele><time>2026-08-04T00:00:00Z</time></trkpt>
<trkpt lat="37.813225000" lon="-121.976030000"><ele>125.1</ele><time>2026-08-04T00:00:00Z</time></trkpt>
<trkpt lat="37.813260000" lon="-121.975920000"><ele>125.2</ele><time>2026-08-04T00:00:00Z</time></trkpt>
<trkpt lat="37.813300000" lon="-121.975815000"><ele>125.3</ele><time>2026-08-04T00:00:00Z</time></trkpt>
<trkpt lat="37.813354000" lon="-121.975720000"><ele>125.4</ele><time>2026-08-04T00:00:00Z</time></trkpt>
<trkpt lat="37.813400000" lon="-121.975640000"><ele>125.5</ele><time>2026-08-04T00:00:00Z</time></trkpt>
<trkpt lat="37.813435000" lon="-121.975540000"><ele>125.5</ele><time>2026-08-04T00:00:00Z</time></trkpt>
<trkpt lat="37.813470000" lon="-121.975440000"><ele>125.5</ele><time>2026-08-04T00:00:00Z</time></trkpt>
<trkpt lat="37.813515000" lon="-121.975350000"><ele>125.6</ele><time>2026-08-04T00:00:00Z</time></trkpt>
<trkpt lat="37.813570000" lon="-121.975250000"><ele>125.7</ele><time>2026-08-04T00:00:00Z</time></trkpt>
<trkpt lat="37.813650000" lon="-121.975204000"><ele>125.8</ele><time>2026-08-04T00:00:00Z</time></trkpt>
<trkpt lat="37.813736000" lon="-121.975210000"><ele>125.9</ele><time>2026-08-04T00:00:00Z</time></trkpt>
<trkpt lat="37.813816000" lon="-121.975240000"><ele>126.0</ele><time>2026-08-04T00:00:00Z</time></trkpt>
<trkpt lat="37.813890000" lon="-121.975310000"><ele>126.0</ele><time>2026-08-04T00:00:00Z</time></trkpt>
<trkpt lat="37.813940000" lon="-121.975400000"><ele>126.0</ele><time>2026-08-04T00:00:00Z</time></trkpt>
<trkpt lat="37.814022000" lon="-121.975460000"><ele>126.0</ele><time>2026-08-04T00:00:00Z</time></trkpt>
<trkpt lat="37.814037000" lon="-121.975560000"><ele>126.0</ele><time>2026-08-04T00:00:00Z</time></trkpt>
<trkpt lat="37.814037000" lon="-121.975670000"><ele>126.0</ele><time>2026-08-04T00:00:00Z</time></trkpt>
<trkpt lat="37.814053000" lon="-121.975770000"><ele>126.0</ele><time>2026-08-04T00:00:00Z</time></trkpt>
<trkpt lat="37.814075000" lon="-121.975660000"><ele>126.0</ele><time>2026-08-04T00:00:00Z</time></trkpt>
<trkpt lat="37.814050000" lon="-121.975555000"><ele>126.0</ele><time>2026-08-04T00:00:00Z</time></trkpt>
<trkpt lat="37.814026000" lon="-121.975450000"><ele>126.0</ele><time>2026-08-04T00:00:00Z</time></trkpt>
<trkpt lat="37.813995000" lon="-121.975340000"><ele>126.0</ele><time>2026-08-04T00:00:00Z</time></trkpt>
<trkpt lat="37.813940000" lon="-121.975250000"><ele>126.0</ele><time>2026-08-04T00:00:00Z</time></trkpt>
<trkpt lat="37.813870000" lon="-121.975200000"><ele>126.0</ele><time>2026-08-04T00:00:00Z</time></trkpt>
<trkpt lat="37.813793000" lon="-121.975140000"><ele>126.0</ele><time>2026-08-04T00:00:00Z</time></trkpt>
<trkpt lat="37.813713000" lon="-121.975120000"><ele>126.0</ele><time>2026-08-04T00:00:00Z</time></trkpt>
<trkpt lat="37.813630000" lon="-121.975130000"><ele>125.9</ele><time>2026-08-04T00:00:00Z</time></trkpt>
<trkpt lat="37.813557000" lon="-121.975180000"><ele>125.8</ele><time>2026-08-04T00:00:00Z</time></trkpt>
<trkpt lat="37.813500000" lon="-121.975260000"><ele>125.7</ele><time>2026-08-04T00:00:00Z</time></trkpt>
<trkpt lat="37.813450000" lon="-121.975350000"><ele>125.6</ele><time>2026-08-04T00:00:00Z</time></trkpt>
<trkpt lat="37.813400000" lon="-121.975460000"><ele>125.5</ele><time>2026-08-04T00:00:00Z</time></trkpt>
<trkpt lat="37.813362000" lon="-121.975555000"><ele>125.5</ele><time>2026-08-04T00:00:00Z</time></trkpt>
<trkpt lat="37.813324000" lon="-121.975650000"><ele>125.4</ele><time>2026-08-04T00:00:00Z</time></trkpt>
<trkpt lat="37.813282000" lon="-121.975746000"><ele>125.3</ele><time>2026-08-04T00:00:00Z</time></trkpt>
<trkpt lat="37.813240000" lon="-121.975845000"><ele>125.2</ele><time>2026-08-04T00:00:00Z</time></trkpt>
<trkpt lat="37.813200000" lon="-121.975940000"><ele>125.1</ele><time>2026-08-04T00:00:00Z</time></trkpt>
<trkpt lat="37.813164000" lon="-121.976030000"><ele>125.0</ele><time>2026-08-04T00:00:00Z</time></trkpt>
<trkpt lat="37.813133000" lon="-121.976130000"><ele>125.0</ele><time>2026-08-04T00:00:00Z</time></trkpt>
<trkpt lat="37.813114000" lon="-121.976240000"><ele>125.0</ele><time>2026-08-04T00:00:00Z</time></trkpt>
<trkpt lat="37.813120000" lon="-121.976350000"><ele>125.0</ele><time>2026-08-04T00:00:00Z</time></trkpt>
<trkpt lat="37.813137000" lon="-121.976456000"><ele>125.0</ele><time>2026-08-04T00:00:00Z</time></trkpt>
<trkpt lat="37.813198000" lon="-121.976540000"><ele>125.0</ele><time>2026-08-04T00:00:00Z</time></trkpt>
<trkpt lat="37.813282000" lon="-121.976510000"><ele>125.0</ele><time>2026-08-04T00:00:00Z</time></trkpt>
<trkpt lat="37.813360000" lon="-121.976450000"><ele>125.0</ele><time>2026-08-04T00:00:00Z</time></trkpt>
<trkpt lat="37.813435000" lon="-121.976410000"><ele>125.0</ele><time>2026-08-04T00:00:00Z</time></trkpt>
<trkpt lat="37.813522000" lon="-121.976410000"><ele>125.0</ele><time>2026-08-04T00:00:00Z</time></trkpt>
<trkpt lat="37.813454000" lon="-121.976490000"><ele>125.0</ele><time>2026-08-04T00:00:00Z</time></trkpt>
<trkpt lat="37.813377000" lon="-121.976555000"><ele>125.0</ele><time>2026-08-04T00:00:00Z</time></trkpt>
<trkpt lat="37.813290000" lon="-121.976585000"><ele>125.0</ele><time>2026-08-04T00:00:00Z</time></trkpt>
<trkpt lat="37.813210000" lon="-121.976610000"><ele>125.0</ele><time>2026-08-04T00:00:00Z</time></trkpt>
<trkpt lat="37.813120000" lon="-121.976630000"><ele>125.0</ele><time>2026-08-04T00:00:00Z</time></trkpt>
<trkpt lat="37.813030000" lon="-121.976630000"><ele>125.0</ele><time>2026-08-04T00:00:00Z</time></trkpt>
<trkpt lat="37.812943000" lon="-121.976654000"><ele>125.0</ele><time>2026-08-04T00:00:00Z</time></trkpt>
<trkpt lat="37.812954000" lon="-121.976760000"><ele>124.9</ele><time>2026-08-04T00:00:00Z</time></trkpt>
<trkpt lat="37.813034000" lon="-121.976776000"><ele>124.8</ele><time>2026-08-04T00:00:00Z</time></trkpt>
<trkpt lat="37.813114000" lon="-121.976750000"><ele>124.7</ele><time>2026-08-04T00:00:00Z</time></trkpt>
<trkpt lat="37.813170000" lon="-121.976840000"><ele>124.6</ele><time>2026-08-04T00:00:00Z</time></trkpt>
<trkpt lat="37.813190000" lon="-121.976950000"><ele>124.5</ele><time>2026-08-04T00:00:00Z</time></trkpt>
<trkpt lat="37.813200000" lon="-121.977066000"><ele>124.5</ele><time>2026-08-04T00:00:00Z</time></trkpt>
<trkpt lat="37.813126000" lon="-121.977120000"><ele>124.4</ele><time>2026-08-04T00:00:00Z</time></trkpt>
<trkpt lat="37.813038000" lon="-121.977150000"><ele>124.3</ele><time>2026-08-04T00:00:00Z</time></trkpt>
<trkpt lat="37.812958000" lon="-121.977170000"><ele>124.2</ele><time>2026-08-04T00:00:00Z</time></trkpt>
<trkpt lat="37.812866000" lon="-121.977165000"><ele>124.1</ele><time>2026-08-04T00:00:00Z</time></trkpt>
<trkpt lat="37.812780000" lon="-121.977140000"><ele>124.0</ele><time>2026-08-04T00:00:00Z</time></trkpt>
<trkpt lat="37.812702000" lon="-121.977104000"><ele>124.0</ele><time>2026-08-04T00:00:00Z</time></trkpt>
<trkpt lat="37.812622000" lon="-121.977066000"><ele>124.1</ele><time>2026-08-04T00:00:00Z</time></trkpt>
<trkpt lat="37.812540000" lon="-121.977010000"><ele>124.2</ele><time>2026-08-04T00:00:00Z</time></trkpt>
<trkpt lat="37.812466000" lon="-121.976960000"><ele>124.2</ele><time>2026-08-04T00:00:00Z</time></trkpt>
<trkpt lat="37.812386000" lon="-121.976906000"><ele>124.2</ele><time>2026-08-04T00:00:00Z</time></trkpt>
<trkpt lat="37.812397000" lon="-121.976800000"><ele>124.2</ele><time>2026-08-04T00:00:00Z</time></trkpt>
<trkpt lat="37.812443000" lon="-121.976690000"><ele>124.3</ele><time>2026-08-04T00:00:00Z</time></trkpt>
<trkpt lat="37.812485000" lon="-121.976590000"><ele>124.4</ele><time>2026-08-04T00:00:00Z</time></trkpt>
<trkpt lat="37.812523000" lon="-121.976490000"><ele>124.5</ele><time>2026-08-04T00:00:00Z</time></trkpt>
<trkpt lat="37.812570000" lon="-121.976395000"><ele>124.5</ele><time>2026-08-04T00:00:00Z</time></trkpt>
<trkpt lat="37.812614000" lon="-121.976300000"><ele>124.6</ele><time>2026-08-04T00:00:00Z</time></trkpt>
<trkpt lat="37.812645000" lon="-121.976200000"><ele>124.7</ele><time>2026-08-04T00:00:00Z</time></trkpt>
<trkpt lat="37.812700000" lon="-121.976120000"><ele>124.7</ele><time>2026-08-04T00:00:00Z</time></trkpt>
<trkpt lat="37.812748000" lon="-121.976030000"><ele>124.7</ele><time>2026-08-04T00:00:00Z</time></trkpt>
<trkpt lat="37.812786000" lon="-121.975930000"><ele>124.9</ele><time>2026-08-04T00:00:00Z</time></trkpt>
<trkpt lat="37.812820000" lon="-121.975820000"><ele>125.1</ele><time>2026-08-04T00:00:00Z</time></trkpt>
<trkpt lat="37.812847000" lon="-121.975716000"><ele>125.3</ele><time>2026-08-04T00:00:00Z</time></trkpt>
<trkpt lat="37.812893000" lon="-121.975610000"><ele>125.3</ele><time>2026-08-04T00:00:00Z</time></trkpt>
<trkpt lat="37.812897000" lon="-121.975494000"><ele>125.3</ele><time>2026-08-04T00:00:00Z</time></trkpt>
<trkpt lat="37.812970000" lon="-121.975430000"><ele>125.4</ele><time>2026-08-04T00:00:00Z</time></trkpt>
<trkpt lat="37.813010000" lon="-121.975334000"><ele>125.5</ele><time>2026-08-04T00:00:00Z</time></trkpt>
<trkpt lat="37.813038000" lon="-121.975230000"><ele>125.5</ele><time>2026-08-04T00:00:00Z</time></trkpt>
<trkpt lat="37.813072000" lon="-121.975110000"><ele>125.6</ele><time>2026-08-04T00:00:00Z</time></trkpt>
<trkpt lat="37.813114000" lon="-121.975006000"><ele>125.7</ele><time>2026-08-04T00:00:00Z</time></trkpt>
<trkpt lat="37.813133000" lon="-121.974900000"><ele>125.8</ele><time>2026-08-04T00:00:00Z</time></trkpt>
<trkpt lat="37.813150000" lon="-121.974800000"><ele>125.8</ele><time>2026-08-04T00:00:00Z</time></trkpt>
<trkpt lat="37.813206000" lon="-121.974710000"><ele>125.8</ele><time>2026-08-04T00:00:00Z</time></trkpt>
<trkpt lat="37.813250000" lon="-121.974625000"><ele>125.8</ele><time>2026-08-04T00:00:00Z</time></trkpt>
<trkpt lat="37.813293000" lon="-121.974530000"><ele>126.0</ele><time>2026-08-04T00:00:00Z</time></trkpt>
<trkpt lat="37.813347000" lon="-121.974434000"><ele>126.2</ele><time>2026-08-04T00:00:00Z</time></trkpt>
<trkpt lat="37.813385000" lon="-121.974335000"><ele>126.3</ele><time>2026-08-04T00:00:00Z</time></trkpt>
<trkpt lat="37.813440000" lon="-121.974240000"><ele>126.3</ele><time>2026-08-04T00:00:00Z</time></trkpt>
<trkpt lat="37.813477000" lon="-121.974140000"><ele>126.3</ele><time>2026-08-04T00:00:00Z</time></trkpt>
<trkpt lat="37.813522000" lon="-121.974045000"><ele>126.4</ele><time>2026-08-04T00:00:00Z</time></trkpt>
<trkpt lat="37.813560000" lon="-121.973946000"><ele>126.5</ele><time>2026-08-04T00:00:00Z</time></trkpt>
<trkpt lat="37.813610000" lon="-121.973860000"><ele>126.5</ele><time>2026-08-04T00:00:00Z</time></trkpt>
<trkpt lat="37.813660000" lon="-121.973770000"><ele>126.6</ele><time>2026-08-04T00:00:00Z</time></trkpt>
<trkpt lat="37.813700000" lon="-121.973690000"><ele>126.7</ele><time>2026-08-04T00:00:00Z</time></trkpt>
<trkpt lat="37.813760000" lon="-121.973595000"><ele>126.8</ele><time>2026-08-04T00:00:00Z</time></trkpt>
<trkpt lat="37.813800000" lon="-121.973500000"><ele>126.8</ele><time>2026-08-04T00:00:00Z</time></trkpt>
<trkpt lat="37.813847000" lon="-121.973410000"><ele>126.8</ele><time>2026-08-04T00:00:00Z</time></trkpt>
<trkpt lat="37.813900000" lon="-121.973320000"><ele>126.8</ele><time>2026-08-04T00:00:00Z</time></trkpt>
<trkpt lat="37.813953000" lon="-121.973230000"><ele>126.9</ele><time>2026-08-04T00:00:00Z</time></trkpt>
<trkpt lat="37.814000000" lon="-121.973130000"><ele>127.0</ele><time>2026-08-04T00:00:00Z</time></trkpt>
<trkpt lat="37.814050000" lon="-121.973040000"><ele>127.0</ele><time>2026-08-04T00:00:00Z</time></trkpt>
<trkpt lat="37.814102000" lon="-121.972960000"><ele>127.0</ele><time>2026-08-04T00:00:00Z</time></trkpt>
<trkpt lat="37.814160000" lon="-121.972880000"><ele>127.1</ele><time>2026-08-04T00:00:00Z</time></trkpt>
<trkpt lat="37.814213000" lon="-121.972790000"><ele>127.1</ele><time>2026-08-04T00:00:00Z</time></trkpt>
<trkpt lat="37.814270000" lon="-121.972700000"><ele>127.1</ele><time>2026-08-04T00:00:00Z</time></trkpt>
<trkpt lat="37.814316000" lon="-121.972610000"><ele>127.1</ele><time>2026-08-04T00:00:00Z</time></trkpt>
<trkpt lat="37.814360000" lon="-121.972520000"><ele>127.2</ele><time>2026-08-04T00:00:00Z</time></trkpt>
<trkpt lat="37.814420000" lon="-121.972430000"><ele>127.3</ele><time>2026-08-04T00:00:00Z</time></trkpt>
<trkpt lat="37.814465000" lon="-121.972336000"><ele>127.4</ele><time>2026-08-04T00:00:00Z</time></trkpt>
<trkpt lat="37.814518000" lon="-121.972250000"><ele>127.4</ele><time>2026-08-04T00:00:00Z</time></trkpt>
<trkpt lat="37.814560000" lon="-121.972160000"><ele>127.5</ele><time>2026-08-04T00:00:00Z</time></trkpt>
<trkpt lat="37.814613000" lon="-121.972080000"><ele>127.5</ele><time>2026-08-04T00:00:00Z</time></trkpt>
<trkpt lat="37.814667000" lon="-121.971990000"><ele>127.7</ele><time>2026-08-04T00:00:00Z</time></trkpt>
<trkpt lat="37.814716000" lon="-121.971890000"><ele>127.8</ele><time>2026-08-04T00:00:00Z</time></trkpt>
<trkpt lat="37.814780000" lon="-121.971820000"><ele>128.0</ele><time>2026-08-04T00:00:00Z</time></trkpt>
<trkpt lat="37.814840000" lon="-121.971725000"><ele>128.2</ele><time>2026-08-04T00:00:00Z</time></trkpt>
<trkpt lat="37.814890000" lon="-121.971640000"><ele>128.5</ele><time>2026-08-04T00:00:00Z</time></trkpt>
<trkpt lat="37.814950000" lon="-121.971560000"><ele>128.6</ele><time>2026-08-04T00:00:00Z</time></trkpt>
<trkpt lat="37.814983000" lon="-121.971460000"><ele>128.7</ele><time>2026-08-04T00:00:00Z</time></trkpt>
<trkpt lat="37.814972000" lon="-121.971340000"><ele>128.8</ele><time>2026-08-04T00:00:00Z</time></trkpt>
<trkpt lat="37.814940000" lon="-121.971240000"><ele>129.0</ele><time>2026-08-04T00:00:00Z</time></trkpt>
<trkpt lat="37.814900000" lon="-121.971146000"><ele>129.1</ele><time>2026-08-04T00:00:00Z</time></trkpt>
<trkpt lat="37.814930000" lon="-121.971050000"><ele>129.2</ele><time>2026-08-04T00:00:00Z</time></trkpt>
<trkpt lat="37.814980000" lon="-121.970955000"><ele>129.2</ele><time>2026-08-04T00:00:00Z</time></trkpt>
<trkpt lat="37.814983000" lon="-121.970856000"><ele>129.2</ele><time>2026-08-04T00:00:00Z</time></trkpt>
<trkpt lat="37.814922000" lon="-121.970780000"><ele>129.3</ele><time>2026-08-04T00:00:00Z</time></trkpt>
<trkpt lat="37.814854000" lon="-121.970710000"><ele>129.4</ele><time>2026-08-04T00:00:00Z</time></trkpt>
<trkpt lat="37.814777000" lon="-121.970760000"><ele>129.4</ele><time>2026-08-04T00:00:00Z</time></trkpt>
<trkpt lat="37.814728000" lon="-121.970840000"><ele>129.4</ele><time>2026-08-04T00:00:00Z</time></trkpt>
<trkpt lat="37.814674000" lon="-121.970930000"><ele>129.4</ele><time>2026-08-04T00:00:00Z</time></trkpt>
<trkpt lat="37.814625000" lon="-121.971020000"><ele>129.5</ele><time>2026-08-04T00:00:00Z</time></trkpt>
<trkpt lat="37.814575000" lon="-121.971120000"><ele>129.5</ele><time>2026-08-04T00:00:00Z</time></trkpt>
<trkpt lat="37.814526000" lon="-121.971210000"><ele>129.6</ele><time>2026-08-04T00:00:00Z</time></trkpt>
<trkpt lat="37.814465000" lon="-121.971300000"><ele>129.7</ele><time>2026-08-04T00:00:00Z</time></trkpt>
<trkpt lat="37.814415000" lon="-121.971400000"><ele>129.7</ele><time>2026-08-04T00:00:00Z</time></trkpt>
<trkpt lat="37.814358000" lon="-121.971490000"><ele>129.7</ele><time>2026-08-04T00:00:00Z</time></trkpt>
<trkpt lat="37.814312000" lon="-121.971590000"><ele>129.6</ele><time>2026-08-04T00:00:00Z</time></trkpt>
<trkpt lat="37.814255000" lon="-121.971670000"><ele>129.5</ele><time>2026-08-04T00:00:00Z</time></trkpt>
<trkpt lat="37.814200000" lon="-121.971760000"><ele>129.5</ele><time>2026-08-04T00:00:00Z</time></trkpt>
<trkpt lat="37.814156000" lon="-121.971860000"><ele>129.4</ele><time>2026-08-04T00:00:00Z</time></trkpt>
<trkpt lat="37.814106000" lon="-121.971960000"><ele>129.3</ele><time>2026-08-04T00:00:00Z</time></trkpt>
<trkpt lat="37.814050000" lon="-121.972050000"><ele>129.1</ele><time>2026-08-04T00:00:00Z</time></trkpt>
<trkpt lat="37.814000000" lon="-121.972140000"><ele>128.9</ele><time>2026-08-04T00:00:00Z</time></trkpt>
<trkpt lat="37.813946000" lon="-121.972230000"><ele>128.7</ele><time>2026-08-04T00:00:00Z</time></trkpt>
<trkpt lat="37.813892000" lon="-121.972330000"><ele>128.5</ele><time>2026-08-04T00:00:00Z</time></trkpt>
<trkpt lat="37.813835000" lon="-121.972420000"><ele>128.5</ele><time>2026-08-04T00:00:00Z</time></trkpt>
<trkpt lat="37.813790000" lon="-121.972510000"><ele>128.4</ele><time>2026-08-04T00:00:00Z</time></trkpt>
<trkpt lat="37.813736000" lon="-121.972595000"><ele>128.3</ele><time>2026-08-04T00:00:00Z</time></trkpt>
<trkpt lat="37.813683000" lon="-121.972690000"><ele>128.2</ele><time>2026-08-04T00:00:00Z</time></trkpt>
<trkpt lat="37.813630000" lon="-121.972786000"><ele>128.0</ele><time>2026-08-04T00:00:00Z</time></trkpt>
<trkpt lat="37.813580000" lon="-121.972880000"><ele>127.8</ele><time>2026-08-04T00:00:00Z</time></trkpt>
<trkpt lat="37.813520000" lon="-121.972970000"><ele>127.7</ele><time>2026-08-04T00:00:00Z</time></trkpt>
<trkpt lat="37.813470000" lon="-121.973050000"><ele>127.6</ele><time>2026-08-04T00:00:00Z</time></trkpt>
<trkpt lat="37.813408000" lon="-121.973140000"><ele>127.5</ele><time>2026-08-04T00:00:00Z</time></trkpt>
<trkpt lat="37.813366000" lon="-121.973236000"><ele>127.5</ele><time>2026-08-04T00:00:00Z</time></trkpt>
<trkpt lat="37.813313000" lon="-121.973320000"><ele>127.4</ele><time>2026-08-04T00:00:00Z</time></trkpt>
<trkpt lat="37.813274000" lon="-121.973430000"><ele>127.3</ele><time>2026-08-04T00:00:00Z</time></trkpt>
<trkpt lat="37.813225000" lon="-121.973510000"><ele>127.2</ele><time>2026-08-04T00:00:00Z</time></trkpt>
<trkpt lat="37.813133000" lon="-121.973550000"><ele>127.1</ele><time>2026-08-04T00:00:00Z</time></trkpt>
<trkpt lat="37.813114000" lon="-121.973650000"><ele>127.0</ele><time>2026-08-04T00:00:00Z</time></trkpt>
<trkpt lat="37.813087000" lon="-121.973770000"><ele>126.9</ele><time>2026-08-04T00:00:00Z</time></trkpt>
<trkpt lat="37.813040000" lon="-121.973870000"><ele>126.8</ele><time>2026-08-04T00:00:00Z</time></trkpt>
<trkpt lat="37.813000000" lon="-121.973970000"><ele>126.7</ele><time>2026-08-04T00:00:00Z</time></trkpt>
<trkpt lat="37.812958000" lon="-121.974070000"><ele>126.6</ele><time>2026-08-04T00:00:00Z</time></trkpt>
<trkpt lat="37.812910000" lon="-121.974150000"><ele>126.5</ele><time>2026-08-04T00:00:00Z</time></trkpt>
<trkpt lat="37.812870000" lon="-121.974240000"><ele>126.5</ele><time>2026-08-04T00:00:00Z</time></trkpt>
<trkpt lat="37.812836000" lon="-121.974340000"><ele>126.4</ele><time>2026-08-04T00:00:00Z</time></trkpt>
<trkpt lat="37.812794000" lon="-121.974440000"><ele>126.3</ele><time>2026-08-04T00:00:00Z</time></trkpt>
<trkpt lat="37.812760000" lon="-121.974550000"><ele>126.2</ele><time>2026-08-04T00:00:00Z</time></trkpt>
<trkpt lat="37.812717000" lon="-121.974630000"><ele>126.1</ele><time>2026-08-04T00:00:00Z</time></trkpt>
<trkpt lat="37.812675000" lon="-121.974740000"><ele>125.9</ele><time>2026-08-04T00:00:00Z</time></trkpt>
<trkpt lat="37.812640000" lon="-121.974830000"><ele>125.8</ele><time>2026-08-04T00:00:00Z</time></trkpt>
<trkpt lat="37.812603000" lon="-121.974920000"><ele>125.7</ele><time>2026-08-04T00:00:00Z</time></trkpt>
<trkpt lat="37.812565000" lon="-121.975020000"><ele>125.6</ele><time>2026-08-04T00:00:00Z</time></trkpt>
<trkpt lat="37.812515000" lon="-121.975120000"><ele>125.5</ele><time>2026-08-04T00:00:00Z</time></trkpt>
<trkpt lat="37.812473000" lon="-121.975210000"><ele>125.5</ele><time>2026-08-04T00:00:00Z</time></trkpt>
<trkpt lat="37.812430000" lon="-121.975300000"><ele>125.4</ele><time>2026-08-04T00:00:00Z</time></trkpt>
<trkpt lat="37.812386000" lon="-121.975400000"><ele>125.3</ele><time>2026-08-04T00:00:00Z</time></trkpt>
<trkpt lat="37.812355000" lon="-121.975510000"><ele>125.2</ele><time>2026-08-04T00:00:00Z</time></trkpt>
<trkpt lat="37.812313000" lon="-121.975600000"><ele>125.1</ele><time>2026-08-04T00:00:00Z</time></trkpt>
<trkpt lat="37.812270000" lon="-121.975690000"><ele>125.0</ele><time>2026-08-04T00:00:00Z</time></trkpt>
<trkpt lat="37.812220000" lon="-121.975790000"><ele>125.0</ele><time>2026-08-04T00:00:00Z</time></trkpt>
<trkpt lat="37.812190000" lon="-121.975900000"><ele>125.0</ele><time>2026-08-04T00:00:00Z</time></trkpt>
<trkpt lat="37.812160000" lon="-121.975990000"><ele>125.0</ele><time>2026-08-04T00:00:00Z</time></trkpt>
<trkpt lat="37.812115000" lon="-121.976090000"><ele>124.9</ele><time>2026-08-04T00:00:00Z</time></trkpt>
<trkpt lat="37.812060000" lon="-121.976180000"><ele>124.8</ele><time>2026-08-04T00:00:00Z</time></trkpt>
<trkpt lat="37.812016000" lon="-121.976270000"><ele>124.7</ele><time>2026-08-04T00:00:00Z</time></trkpt>
<trkpt lat="37.811974000" lon="-121.976364000"><ele>124.6</ele><time>2026-08-04T00:00:00Z</time></trkpt>
<trkpt lat="37.811940000" lon="-121.976456000"><ele>124.5</ele><time>2026-08-04T00:00:00Z</time></trkpt>
<trkpt lat="37.811890000" lon="-121.976550000"><ele>124.5</ele><time>2026-08-04T00:00:00Z</time></trkpt>
<trkpt lat="37.811810000" lon="-121.976524000"><ele>124.4</ele><time>2026-08-04T00:00:00Z</time></trkpt>
<trkpt lat="37.811737000" lon="-121.976470000"><ele>124.3</ele><time>2026-08-04T00:00:00Z</time></trkpt>
<trkpt lat="37.811660000" lon="-121.976410000"><ele>124.2</ele><time>2026-08-04T00:00:00Z</time></trkpt>
<trkpt lat="37.811573000" lon="-121.976360000"><ele>124.1</ele><time>2026-08-04T00:00:00Z</time></trkpt>
<trkpt lat="37.811490000" lon="-121.976310000"><ele>124.0</ele><time>2026-08-04T00:00:00Z</time></trkpt>
<trkpt lat="37.811410000" lon="-121.976280000"><ele>124.1</ele><time>2026-08-04T00:00:00Z</time></trkpt>
<trkpt lat="37.811320000" lon="-121.976250000"><ele>124.2</ele><time>2026-08-04T00:00:00Z</time></trkpt>
<trkpt lat="37.811234000" lon="-121.976230000"><ele>124.3</ele><time>2026-08-04T00:00:00Z</time></trkpt>
<trkpt lat="37.811146000" lon="-121.976220000"><ele>124.4</ele><time>2026-08-04T00:00:00Z</time></trkpt>
<trkpt lat="37.811058000" lon="-121.976204000"><ele>124.5</ele><time>2026-08-04T00:00:00Z</time></trkpt>
<trkpt lat="37.810966000" lon="-121.976180000"><ele>124.5</ele><time>2026-08-04T00:00:00Z</time></trkpt>
<trkpt lat="37.810886000" lon="-121.976190000"><ele>124.6</ele><time>2026-08-04T00:00:00Z</time></trkpt>
<trkpt lat="37.810800000" lon="-121.976190000"><ele>124.6</ele><time>2026-08-04T00:00:00Z</time></trkpt>
<trkpt lat="37.810720000" lon="-121.976210000"><ele>124.6</ele><time>2026-08-04T00:00:00Z</time></trkpt>
<trkpt lat="37.810627000" lon="-121.976234000"><ele>124.6</ele><time>2026-08-04T00:00:00Z</time></trkpt>
<trkpt lat="37.810543000" lon="-121.976260000"><ele>124.7</ele><time>2026-08-04T00:00:00Z</time></trkpt>
<trkpt lat="37.810455000" lon="-121.976295000"><ele>124.7</ele><time>2026-08-04T00:00:00Z</time></trkpt>
<trkpt lat="37.810375000" lon="-121.976350000"><ele>124.6</ele><time>2026-08-04T00:00:00Z</time></trkpt>
<trkpt lat="37.810300000" lon="-121.976410000"><ele>124.5</ele><time>2026-08-04T00:00:00Z</time></trkpt>
<trkpt lat="37.810220000" lon="-121.976456000"><ele>124.5</ele><time>2026-08-04T00:00:00Z</time></trkpt>
<trkpt lat="37.810143000" lon="-121.976500000"><ele>124.4</ele><time>2026-08-04T00:00:00Z</time></trkpt>
<trkpt lat="37.810062000" lon="-121.976555000"><ele>124.3</ele><time>2026-08-04T00:00:00Z</time></trkpt>
<trkpt lat="37.810074000" lon="-121.976660000"><ele>124.3</ele><time>2026-08-04T00:00:00Z</time></trkpt>
<trkpt lat="37.810160000" lon="-121.976685000"><ele>124.3</ele><time>2026-08-04T00:00:00Z</time></trkpt>
<trkpt lat="37.810234000" lon="-121.976630000"><ele>124.3</ele><time>2026-08-04T00:00:00Z</time></trkpt>
<trkpt lat="37.810318000" lon="-121.976650000"><ele>124.3</ele><time>2026-08-04T00:00:00Z</time></trkpt>
<trkpt lat="37.810370000" lon="-121.976720000"><ele>124.2</ele><time>2026-08-04T00:00:00Z</time></trkpt>
<trkpt lat="37.810450000" lon="-121.976700000"><ele>124.2</ele><time>2026-08-04T00:00:00Z</time></trkpt>
<trkpt lat="37.810417000" lon="-121.976600000"><ele>124.3</ele><time>2026-08-04T00:00:00Z</time></trkpt>
<trkpt lat="37.810444000" lon="-121.976500000"><ele>124.4</ele><time>2026-08-04T00:00:00Z</time></trkpt>
<trkpt lat="37.810528000" lon="-121.976460000"><ele>124.5</ele><time>2026-08-04T00:00:00Z</time></trkpt>
<trkpt lat="37.810616000" lon="-121.976430000"><ele>124.5</ele><time>2026-08-04T00:00:00Z</time></trkpt>
<trkpt lat="37.810707000" lon="-121.976420000"><ele>124.5</ele><time>2026-08-04T00:00:00Z</time></trkpt>
<trkpt lat="37.810795000" lon="-121.976400000"><ele>124.4</ele><time>2026-08-04T00:00:00Z</time></trkpt>
<trkpt lat="37.810875000" lon="-121.976390000"><ele>124.4</ele><time>2026-08-04T00:00:00Z</time></trkpt>
<trkpt lat="37.810963000" lon="-121.976390000"><ele>124.4</ele><time>2026-08-04T00:00:00Z</time></trkpt>
<trkpt lat="37.811047000" lon="-121.976395000"><ele>124.4</ele><time>2026-08-04T00:00:00Z</time></trkpt>
<trkpt lat="37.811127000" lon="-121.976420000"><ele>124.4</ele><time>2026-08-04T00:00:00Z</time></trkpt>
<trkpt lat="37.811207000" lon="-121.976440000"><ele>124.3</ele><time>2026-08-04T00:00:00Z</time></trkpt>
<trkpt lat="37.811290000" lon="-121.976470000"><ele>124.2</ele><time>2026-08-04T00:00:00Z</time></trkpt>
<trkpt lat="37.811370000" lon="-121.976500000"><ele>124.1</ele><time>2026-08-04T00:00:00Z</time></trkpt>
<trkpt lat="37.811450000" lon="-121.976555000"><ele>124.0</ele><time>2026-08-04T00:00:00Z</time></trkpt>
<trkpt lat="37.811535000" lon="-121.976610000"><ele>124.0</ele><time>2026-08-04T00:00:00Z</time></trkpt>
<trkpt lat="37.811620000" lon="-121.976654000"><ele>124.0</ele><time>2026-08-04T00:00:00Z</time></trkpt>
<trkpt lat="37.811687000" lon="-121.976710000"><ele>123.9</ele><time>2026-08-04T00:00:00Z</time></trkpt>
<trkpt lat="37.811750000" lon="-121.976790000"><ele>123.8</ele><time>2026-08-04T00:00:00Z</time></trkpt>
<trkpt lat="37.811832000" lon="-121.976814000"><ele>123.7</ele><time>2026-08-04T00:00:00Z</time></trkpt>
<trkpt lat="37.811916000" lon="-121.976860000"><ele>123.6</ele><time>2026-08-04T00:00:00Z</time></trkpt>
<trkpt lat="37.811990000" lon="-121.976930000"><ele>123.5</ele><time>2026-08-04T00:00:00Z</time></trkpt>
<trkpt lat="37.812060000" lon="-121.977005000"><ele>123.5</ele><time>2026-08-04T00:00:00Z</time></trkpt>
<trkpt lat="37.812153000" lon="-121.977020000"><ele>123.5</ele><time>2026-08-04T00:00:00Z</time></trkpt>
<trkpt lat="37.812237000" lon="-121.977060000"><ele>123.4</ele><time>2026-08-04T00:00:00Z</time></trkpt>
<trkpt lat="37.812290000" lon="-121.977150000"><ele>123.3</ele><time>2026-08-04T00:00:00Z</time></trkpt>
<trkpt lat="37.812263000" lon="-121.977240000"><ele>123.2</ele><time>2026-08-04T00:00:00Z</time></trkpt>
<trkpt lat="37.812230000" lon="-121.977340000"><ele>123.1</ele><time>2026-08-04T00:00:00Z</time></trkpt>
<trkpt lat="37.812195000" lon="-121.977440000"><ele>123.1</ele><time>2026-08-04T00:00:00Z</time></trkpt>
<trkpt lat="37.812157000" lon="-121.977550000"><ele>123.1</ele><time>2026-08-04T00:00:00Z</time></trkpt>
<trkpt lat="37.812115000" lon="-121.977660000"><ele>123.1</ele><time>2026-08-04T00:00:00Z</time></trkpt>
<trkpt lat="37.812070000" lon="-121.977750000"><ele>123.1</ele><time>2026-08-04T00:00:00Z</time></trkpt>
<trkpt lat="37.812050000" lon="-121.977850000"><ele>123.0</ele><time>2026-08-04T00:00:00Z</time></trkpt>
<trkpt lat="37.812042000" lon="-121.977960000"><ele>122.9</ele><time>2026-08-04T00:00:00Z</time></trkpt>
<trkpt lat="37.812004000" lon="-121.978060000"><ele>122.7</ele><time>2026-08-04T00:00:00Z</time></trkpt>
<trkpt lat="37.811960000" lon="-121.978140000"><ele>122.6</ele><time>2026-08-04T00:00:00Z</time></trkpt>
<trkpt lat="37.811924000" lon="-121.978240000"><ele>122.5</ele><time>2026-08-04T00:00:00Z</time></trkpt>
<trkpt lat="37.811870000" lon="-121.978330000"><ele>122.5</ele><time>2026-08-04T00:00:00Z</time></trkpt>
<trkpt lat="37.811830000" lon="-121.978440000"><ele>122.4</ele><time>2026-08-04T00:00:00Z</time></trkpt>
<trkpt lat="37.811817000" lon="-121.978550000"><ele>122.3</ele><time>2026-08-04T00:00:00Z</time></trkpt>
<trkpt lat="37.811775000" lon="-121.978645000"><ele>122.2</ele><time>2026-08-04T00:00:00Z</time></trkpt>
<trkpt lat="37.811750000" lon="-121.978750000"><ele>122.1</ele><time>2026-08-04T00:00:00Z</time></trkpt>
<trkpt lat="37.811756000" lon="-121.978860000"><ele>122.0</ele><time>2026-08-04T00:00:00Z</time></trkpt>
<trkpt lat="37.811764000" lon="-121.978966000"><ele>122.1</ele><time>2026-08-04T00:00:00Z</time></trkpt>
<trkpt lat="37.811764000" lon="-121.979070000"><ele>122.2</ele><time>2026-08-04T00:00:00Z</time></trkpt>
<trkpt lat="37.811770000" lon="-121.979170000"><ele>122.3</ele><time>2026-08-04T00:00:00Z</time></trkpt>
<trkpt lat="37.811760000" lon="-121.979280000"><ele>122.4</ele><time>2026-08-04T00:00:00Z</time></trkpt>
<trkpt lat="37.811787000" lon="-121.979380000"><ele>122.5</ele><time>2026-08-04T00:00:00Z</time></trkpt>
<trkpt lat="37.811880000" lon="-121.979416000"><ele>122.5</ele><time>2026-08-04T00:00:00Z</time></trkpt>
<trkpt lat="37.811960000" lon="-121.979410000"><ele>122.6</ele><time>2026-08-04T00:00:00Z</time></trkpt>
<trkpt lat="37.812042000" lon="-121.979400000"><ele>122.7</ele><time>2026-08-04T00:00:00Z</time></trkpt>
<trkpt lat="37.812138000" lon="-121.979390000"><ele>122.8</ele><time>2026-08-04T00:00:00Z</time></trkpt>
<trkpt lat="37.812218000" lon="-121.979385000"><ele>123.0</ele><time>2026-08-04T00:00:00Z</time></trkpt>
<trkpt lat="37.812305000" lon="-121.979385000"><ele>123.2</ele><time>2026-08-04T00:00:00Z</time></trkpt>
<trkpt lat="37.812390000" lon="-121.979370000"><ele>123.3</ele><time>2026-08-04T00:00:00Z</time></trkpt>
<trkpt lat="37.812473000" lon="-121.979360000"><ele>123.4</ele><time>2026-08-04T00:00:00Z</time></trkpt>
<trkpt lat="37.812560000" lon="-121.979360000"><ele>123.5</ele><time>2026-08-04T00:00:00Z</time></trkpt>
<trkpt lat="37.812626000" lon="-121.979280000"><ele>123.5</ele><time>2026-08-04T00:00:00Z</time></trkpt>
<trkpt lat="37.812680000" lon="-121.979195000"><ele>123.6</ele><time>2026-08-04T00:00:00Z</time></trkpt>
<trkpt lat="37.812690000" lon="-121.979070000"><ele>123.7</ele><time>2026-08-04T00:00:00Z</time></trkpt>
<trkpt lat="37.812714000" lon="-121.978970000"><ele>123.8</ele><time>2026-08-04T00:00:00Z</time></trkpt>
<trkpt lat="37.812798000" lon="-121.978970000"><ele>124.0</ele><time>2026-08-04T00:00:00Z</time></trkpt>
<trkpt lat="37.812870000" lon="-121.978920000"><ele>124.2</ele><time>2026-08-04T00:00:00Z</time></trkpt>
<trkpt lat="37.812885000" lon="-121.978810000"><ele>124.3</ele><time>2026-08-04T00:00:00Z</time></trkpt>
<trkpt lat="37.812900000" lon="-121.978714000"><ele>124.4</ele><time>2026-08-04T00:00:00Z</time></trkpt>
<trkpt lat="37.812897000" lon="-121.978600000"><ele>124.5</ele><time>2026-08-04T00:00:00Z</time></trkpt>
<trkpt lat="37.812920000" lon="-121.978500000"><ele>124.5</ele><time>2026-08-04T00:00:00Z</time></trkpt>
<trkpt lat="37.812935000" lon="-121.978390000"><ele>124.6</ele><time>2026-08-04T00:00:00Z</time></trkpt>
<trkpt lat="37.812970000" lon="-121.978280000"><ele>124.8</ele><time>2026-08-04T00:00:00Z</time></trkpt>
<trkpt lat="37.813050000" lon="-121.978240000"><ele>125.0</ele><time>2026-08-04T00:00:00Z</time></trkpt>
<trkpt lat="37.813107000" lon="-121.978325000"><ele>125.2</ele><time>2026-08-04T00:00:00Z</time></trkpt>
<trkpt lat="37.813133000" lon="-121.978450000"><ele>125.4</ele><time>2026-08-04T00:00:00Z</time></trkpt>
<trkpt lat="37.813175000" lon="-121.978540000"><ele>125.5</ele><time>2026-08-04T00:00:00Z</time></trkpt>
<trkpt lat="37.813255000" lon="-121.978580000"><ele>125.5</ele><time>2026-08-04T00:00:00Z</time></trkpt>
<trkpt lat="37.813343000" lon="-121.978570000"><ele>125.7</ele><time>2026-08-04T00:00:00Z</time></trkpt>
<trkpt lat="37.813430000" lon="-121.978584000"><ele>125.9</ele><time>2026-08-04T00:00:00Z</time></trkpt>
<trkpt lat="37.813510000" lon="-121.978620000"><ele>126.1</ele><time>2026-08-04T00:00:00Z</time></trkpt>
<trkpt lat="37.813600000" lon="-121.978645000"><ele>126.3</ele><time>2026-08-04T00:00:00Z</time></trkpt>
<trkpt lat="37.813683000" lon="-121.978690000"><ele>126.4</ele><time>2026-08-04T00:00:00Z</time></trkpt>
<trkpt lat="37.813763000" lon="-121.978750000"><ele>126.4</ele><time>2026-08-04T00:00:00Z</time></trkpt>
<trkpt lat="37.813800000" lon="-121.978840000"><ele>126.4</ele><time>2026-08-04T00:00:00Z</time></trkpt>
<trkpt lat="37.813797000" lon="-121.978966000"><ele>126.4</ele><time>2026-08-04T00:00:00Z</time></trkpt>
<trkpt lat="37.813774000" lon="-121.979070000"><ele>126.4</ele><time>2026-08-04T00:00:00Z</time></trkpt>
<trkpt lat="37.813747000" lon="-121.979180000"><ele>126.4</ele><time>2026-08-04T00:00:00Z</time></trkpt>
<trkpt lat="37.813705000" lon="-121.979290000"><ele>126.4</ele><time>2026-08-04T00:00:00Z</time></trkpt>
<trkpt lat="37.813660000" lon="-121.979385000"><ele>126.3</ele><time>2026-08-04T00:00:00Z</time></trkpt>
<trkpt lat="37.813620000" lon="-121.979490000"><ele>126.2</ele><time>2026-08-04T00:00:00Z</time></trkpt>
<trkpt lat="37.813590000" lon="-121.979590000"><ele>126.1</ele><time>2026-08-04T00:00:00Z</time></trkpt>
<trkpt lat="37.813570000" lon="-121.979700000"><ele>126.0</ele><time>2026-08-04T00:00:00Z</time></trkpt>
<trkpt lat="37.813590000" lon="-121.979805000"><ele>126.0</ele><time>2026-08-04T00:00:00Z</time></trkpt>
<trkpt lat="37.813633000" lon="-121.979900000"><ele>126.0</ele><time>2026-08-04T00:00:00Z</time></trkpt>
<trkpt lat="37.813713000" lon="-121.979960000"><ele>126.0</ele><time>2026-08-04T00:00:00Z</time></trkpt>
<trkpt lat="37.813805000" lon="-121.979970000"><ele>126.0</ele><time>2026-08-04T00:00:00Z</time></trkpt>
<trkpt lat="37.813896000" lon="-121.979980000"><ele>126.0</ele><time>2026-08-04T00:00:00Z</time></trkpt>
<trkpt lat="37.813824000" lon="-121.980034000"><ele>125.9</ele><time>2026-08-04T00:00:00Z</time></trkpt>
<trkpt lat="37.813732000" lon="-121.980010000"><ele>125.8</ele><time>2026-08-04T00:00:00Z</time></trkpt>
<trkpt lat="37.813652000" lon="-121.979980000"><ele>125.7</ele><time>2026-08-04T00:00:00Z</time></trkpt>
<trkpt lat="37.813560000" lon="-121.979960000"><ele>125.6</ele><time>2026-08-04T00:00:00Z</time></trkpt>
<trkpt lat="37.813477000" lon="-121.979970000"><ele>125.5</ele><time>2026-08-04T00:00:00Z</time></trkpt>
<trkpt lat="37.813420000" lon="-121.980070000"><ele>125.5</ele><time>2026-08-04T00:00:00Z</time></trkpt>
<trkpt lat="37.813390000" lon="-121.980180000"><ele>125.4</ele><time>2026-08-04T00:00:00Z</time></trkpt>
<trkpt lat="37.813370000" lon="-121.980286000"><ele>125.3</ele><time>2026-08-04T00:00:00Z</time></trkpt>
<trkpt lat="37.813347000" lon="-121.980390000"><ele>125.2</ele><time>2026-08-04T00:00:00Z</time></trkpt>
<trkpt lat="37.813340000" lon="-121.980510000"><ele>125.1</ele><time>2026-08-04T00:00:00Z</time></trkpt>
<trkpt lat="37.813343000" lon="-121.980620000"><ele>125.0</ele><time>2026-08-04T00:00:00Z</time></trkpt>
<trkpt lat="37.813320000" lon="-121.980515000"><ele>125.0</ele><time>2026-08-04T00:00:00Z</time></trkpt>
<trkpt lat="37.813320000" lon="-121.980410000"><ele>125.0</ele><time>2026-08-04T00:00:00Z</time></trkpt>
<trkpt lat="37.813328000" lon="-121.980286000"><ele>125.0</ele><time>2026-08-04T00:00:00Z</time></trkpt>
<trkpt lat="37.813335000" lon="-121.980180000"><ele>125.0</ele><time>2026-08-04T00:00:00Z</time></trkpt>
<trkpt lat="37.813366000" lon="-121.980070000"><ele>125.0</ele><time>2026-08-04T00:00:00Z</time></trkpt>
<trkpt lat="37.813404000" lon="-121.979980000"><ele>125.0</ele><time>2026-08-04T00:00:00Z</time></trkpt>
<trkpt lat="37.813423000" lon="-121.979870000"><ele>125.0</ele><time>2026-08-04T00:00:00Z</time></trkpt>
<trkpt lat="37.813400000" lon="-121.979774000"><ele>125.0</ele><time>2026-08-04T00:00:00Z</time></trkpt>
<trkpt lat="37.813330000" lon="-121.979706000"><ele>125.0</ele><time>2026-08-04T00:00:00Z</time></trkpt>
<trkpt lat="37.813250000" lon="-121.979650000"><ele>125.0</ele><time>2026-08-04T00:00:00Z</time></trkpt>
<trkpt lat="37.813164000" lon="-121.979620000"><ele>125.0</ele><time>2026-08-04T00:00:00Z</time></trkpt>
<trkpt lat="37.813076000" lon="-121.979620000"><ele>125.0</ele><time>2026-08-04T00:00:00Z</time></trkpt>
<trkpt lat="37.812984000" lon="-121.979610000"><ele>125.0</ele><time>2026-08-04T00:00:00Z</time></trkpt>
<trkpt lat="37.813060000" lon="-121.979570000"><ele>125.1</ele><time>2026-08-04T00:00:00Z</time></trkpt>
<trkpt lat="37.813140000" lon="-121.979576000"><ele>125.2</ele><time>2026-08-04T00:00:00Z</time></trkpt>
<trkpt lat="37.813236000" lon="-121.979610000"><ele>125.3</ele><time>2026-08-04T00:00:00Z</time></trkpt>
<trkpt lat="37.813320000" lon="-121.979650000"><ele>125.4</ele><time>2026-08-04T00:00:00Z</time></trkpt>
<trkpt lat="37.813404000" lon="-121.979700000"><ele>125.5</ele><time>2026-08-04T00:00:00Z</time></trkpt>
<trkpt lat="37.813496000" lon="-121.979720000"><ele>125.5</ele><time>2026-08-04T00:00:00Z</time></trkpt>
<trkpt lat="37.813534000" lon="-121.979614000"><ele>125.6</ele><time>2026-08-04T00:00:00Z</time></trkpt>
<trkpt lat="37.813557000" lon="-121.979510000"><ele>125.7</ele><time>2026-08-04T00:00:00Z</time></trkpt>
<trkpt lat="37.813587000" lon="-121.979410000"><ele>125.9</ele><time>2026-08-04T00:00:00Z</time></trkpt>
<trkpt lat="37.813633000" lon="-121.979310000"><ele>126.1</ele><time>2026-08-04T00:00:00Z</time></trkpt>
<trkpt lat="37.813680000" lon="-121.979210000"><ele>126.2</ele><time>2026-08-04T00:00:00Z</time></trkpt>
<trkpt lat="37.813717000" lon="-121.979100000"><ele>126.2</ele><time>2026-08-04T00:00:00Z</time></trkpt>
<trkpt lat="37.813750000" lon="-121.979000000"><ele>126.2</ele><time>2026-08-04T00:00:00Z</time></trkpt>
<trkpt lat="37.813778000" lon="-121.978900000"><ele>126.2</ele><time>2026-08-04T00:00:00Z</time></trkpt>
<trkpt lat="37.813770000" lon="-121.978790000"><ele>126.2</ele><time>2026-08-04T00:00:00Z</time></trkpt>
<trkpt lat="37.813698000" lon="-121.978740000"><ele>126.2</ele><time>2026-08-04T00:00:00Z</time></trkpt>
<trkpt lat="37.813618000" lon="-121.978714000"><ele>126.1</ele><time>2026-08-04T00:00:00Z</time></trkpt>
<trkpt lat="37.813534000" lon="-121.978690000"><ele>126.0</ele><time>2026-08-04T00:00:00Z</time></trkpt>
<trkpt lat="37.813454000" lon="-121.978660000"><ele>125.9</ele><time>2026-08-04T00:00:00Z</time></trkpt>
<trkpt lat="37.813370000" lon="-121.978615000"><ele>125.7</ele><time>2026-08-04T00:00:00Z</time></trkpt>
<trkpt lat="37.813274000" lon="-121.978600000"><ele>125.5</ele><time>2026-08-04T00:00:00Z</time></trkpt>
<trkpt lat="37.813183000" lon="-121.978615000"><ele>125.5</ele><time>2026-08-04T00:00:00Z</time></trkpt>
<trkpt lat="37.813107000" lon="-121.978550000"><ele>125.4</ele><time>2026-08-04T00:00:00Z</time></trkpt>
<trkpt lat="37.813087000" lon="-121.978440000"><ele>125.3</ele><time>2026-08-04T00:00:00Z</time></trkpt>
<trkpt lat="37.813087000" lon="-121.978320000"><ele>125.2</ele><time>2026-08-04T00:00:00Z</time></trkpt>
<trkpt lat="37.813087000" lon="-121.978210000"><ele>125.1</ele><time>2026-08-04T00:00:00Z</time></trkpt>
<trkpt lat="37.813110000" lon="-121.978096000"><ele>125.0</ele><time>2026-08-04T00:00:00Z</time></trkpt>
<trkpt lat="37.813140000" lon="-121.977990000"><ele>125.0</ele><time>2026-08-04T00:00:00Z</time></trkpt>
<trkpt lat="37.813156000" lon="-121.977875000"><ele>125.0</ele><time>2026-08-04T00:00:00Z</time></trkpt>
<trkpt lat="37.813183000" lon="-121.977770000"><ele>124.9</ele><time>2026-08-04T00:00:00Z</time></trkpt>
<trkpt lat="37.813210000" lon="-121.977670000"><ele>124.8</ele><time>2026-08-04T00:00:00Z</time></trkpt>
<trkpt lat="37.813263000" lon="-121.977585000"><ele>124.8</ele><time>2026-08-04T00:00:00Z</time></trkpt>
<trkpt lat="37.813282000" lon="-121.977480000"><ele>124.7</ele><time>2026-08-04T00:00:00Z</time></trkpt>
<trkpt lat="37.813250000" lon="-121.977390000"><ele>124.6</ele><time>2026-08-04T00:00:00Z</time></trkpt>
<trkpt lat="37.813282000" lon="-121.977280000"><ele>124.5</ele><time>2026-08-04T00:00:00Z</time></trkpt>
<trkpt lat="37.813366000" lon="-121.977234000"><ele>124.5</ele><time>2026-08-04T00:00:00Z</time></trkpt>
<trkpt lat="37.813430000" lon="-121.977170000"><ele>124.5</ele><time>2026-08-04T00:00:00Z</time></trkpt>
<trkpt lat="37.813393000" lon="-121.977066000"><ele>124.5</ele><time>2026-08-04T00:00:00Z</time></trkpt>
<trkpt lat="37.813347000" lon="-121.976974000"><ele>124.5</ele><time>2026-08-04T00:00:00Z</time></trkpt>
<trkpt lat="37.813324000" lon="-121.976870000"><ele>124.5</ele><time>2026-08-04T00:00:00Z</time></trkpt>
<trkpt lat="37.813282000" lon="-121.976770000"><ele>124.6</ele><time>2026-08-04T00:00:00Z</time></trkpt>
<trkpt lat="37.813255000" lon="-121.976670000"><ele>124.7</ele><time>2026-08-04T00:00:00Z</time></trkpt>
<trkpt lat="37.813217000" lon="-121.976570000"><ele>124.7</ele><time>2026-08-04T00:00:00Z</time></trkpt>
<trkpt lat="37.813187000" lon="-121.976460000"><ele>124.8</ele><time>2026-08-04T00:00:00Z</time></trkpt>
<trkpt lat="37.813270000" lon="-121.976450000"><ele>124.9</ele><time>2026-08-04T00:00:00Z</time></trkpt>
<trkpt lat="37.813286000" lon="-121.976494000"><ele>125.0</ele><time>2026-08-04T00:00:00Z</time></trkpt>
</trkseg>
</trk>
</gpx>
