<?xml version="1.0" encoding="UTF-8"?>
<gpx
  version="1.1"
  creator="Runkeeper - http://www.runkeeper.com"
  xmlns:xsi="http://www.w3.org/2001/XMLSchema-instance"
  xmlns="http://www.topografix.com/GPX/1/1"
  xsi:schemaLocation="http://www.topografix.com/GPX/1/1 http://www.topografix.com/GPX/1/1/gpx.xsd"
  xmlns:gpxtpx="http://www.garmin.com/xmlschemas/TrackPointExtension/v1">
<trk>
  <name><![CDATA[Walking 8/2/26]]></name>
  <time>2026-08-02T00:00:00Z</time>
<trkseg>
<trkpt lat="37.807560000" lon="-121.927710000"><ele>189.0</ele><time>2026-08-02T00:00:00Z</time></trkpt>
<trkpt lat="37.807518000" lon="-121.927610000"><ele>189.0</ele><time>2026-08-02T00:00:00Z</time></trkpt>
<trkpt lat="37.807450000" lon="-121.927550000"><ele>189.0</ele><time>2026-08-02T00:00:00Z</time></trkpt>
<trkpt lat="37.807384000" lon="-121.927470000"><ele>189.0</ele><time>2026-08-02T00:00:00Z</time></trkpt>
<trkpt lat="37.807312000" lon="-121.927400000"><ele>189.0</ele><time>2026-08-02T00:00:00Z</time></trkpt>
<trkpt lat="37.807220000" lon="-121.927410000"><ele>189.0</ele><time>2026-08-02T00:00:00Z</time></trkpt>
<trkpt lat="37.807144000" lon="-121.927450000"><ele>188.9</ele><time>2026-08-02T00:00:00Z</time></trkpt>
<trkpt lat="37.807076000" lon="-121.927520000"><ele>188.9</ele><time>2026-08-02T00:00:00Z</time></trkpt>
<trkpt lat="37.807014000" lon="-121.927610000"><ele>189.0</ele><time>2026-08-02T00:00:00Z</time></trkpt>
<trkpt lat="37.806957000" lon="-121.927710000"><ele>189.2</ele><time>2026-08-02T00:00:00Z</time></trkpt>
<trkpt lat="37.806908000" lon="-121.927810000"><ele>189.3</ele><time>2026-08-02T00:00:00Z</time></trkpt>
<trkpt lat="37.806850000" lon="-121.927900000"><ele>189.3</ele><time>2026-08-02T00:00:00Z</time></trkpt>
<trkpt lat="37.806800000" lon="-121.928000000"><ele>189.3</ele><time>2026-08-02T00:00:00Z</time></trkpt>
<trkpt lat="37.806770000" lon="-121.928100000"><ele>189.3</ele><time>2026-08-02T00:00:00Z</time></trkpt>
<trkpt lat="37.806730000" lon="-121.928190000"><ele>189.3</ele><time>2026-08-02T00:00:00Z</time></trkpt>
<trkpt lat="37.806686000" lon="-121.928290000"><ele>189.3</ele><time>2026-08-02T00:00:00Z</time></trkpt>
<trkpt lat="37.806670000" lon="-121.928185000"><ele>189.3</ele><time>2026-08-02T00:00:00Z</time></trkpt>
<trkpt lat="37.806725000" lon="-121.928080000"><ele>189.2</ele><time>2026-08-02T00:00:00Z</time></trkpt>
<trkpt lat="37.806774000" lon="-121.928000000"><ele>189.1</ele><time>2026-08-02T00:00:00Z</time></trkpt>
<trkpt lat="37.806824000" lon="-121.927895000"><ele>189.0</ele><time>2026-08-02T00:00:00Z</time></trkpt>
<trkpt lat="37.806873000" lon="-121.927795000"><ele>188.9</ele><time>2026-08-02T00:00:00Z</time></trkpt>
<trkpt lat="37.806927000" lon="-121.927690000"><ele>188.8</ele><time>2026-08-02T00:00:00Z</time></trkpt>
<trkpt lat="37.806984000" lon="-121.927600000"><ele>188.7</ele><time>2026-08-02T00:00:00Z</time></trkpt>
<trkpt lat="37.807053000" lon="-121.927510000"><ele>188.6</ele><time>2026-08-02T00:00:00Z</time></trkpt>
<trkpt lat="37.807130000" lon="-121.927444000"><ele>188.5</ele><time>2026-08-02T00:00:00Z</time></trkpt>
<trkpt lat="37.807210000" lon="-121.927400000"><ele>188.5</ele><time>2026-08-02T00:00:00Z</time></trkpt>
<trkpt lat="37.807293000" lon="-121.927390000"><ele>188.4</ele><time>2026-08-02T00:00:00Z</time></trkpt>
<trkpt lat="37.807377000" lon="-121.927376000"><ele>188.2</ele><time>2026-08-02T00:00:00Z</time></trkpt>
<trkpt lat="37.807312000" lon="-121.927290000"><ele>188.0</ele><time>2026-08-02T00:00:00Z</time></trkpt>
<trkpt lat="37.807260000" lon="-121.927210000"><ele>187.8</ele><time>2026-08-02T00:00:00Z</time></trkpt>
<trkpt lat="37.807175000" lon="-121.927200000"><ele>187.5</ele><time>2026-08-02T00:00:00Z</time></trkpt>
<trkpt lat="37.807120000" lon="-121.927110000"><ele>187.3</ele><time>2026-08-02T00:00:00Z</time></trkpt>
<trkpt lat="37.807068000" lon="-121.927010000"><ele>187.1</ele><time>2026-08-02T00:00:00Z</time></trkpt>
<trkpt lat="37.807020000" lon="-121.926920000"><ele>187.0</ele><time>2026-08-02T00:00:00Z</time></trkpt>
<trkpt lat="37.806960000" lon="-121.926834000"><ele>186.9</ele><time>2026-08-02T00:00:00Z</time></trkpt>
<trkpt lat="37.806900000" lon="-121.926765000"><ele>186.8</ele><time>2026-08-02T00:00:00Z</time></trkpt>
<trkpt lat="37.806830000" lon="-121.926704000"><ele>186.7</ele><time>2026-08-02T00:00:00Z</time></trkpt>
<trkpt lat="37.806910000" lon="-121.926670000"><ele>186.7</ele><time>2026-08-02T00:00:00Z</time></trkpt>
<trkpt lat="37.806990000" lon="-121.926690000"><ele>186.8</ele><time>2026-08-02T00:00:00Z</time></trkpt>
<trkpt lat="37.807045000" lon="-121.926770000"><ele>187.0</ele><time>2026-08-02T00:00:00Z</time></trkpt>
<trkpt lat="37.807090000" lon="-121.926870000"><ele>187.3</ele><time>2026-08-02T00:00:00Z</time></trkpt>
<trkpt lat="37.807140000" lon="-121.926956000"><ele>187.5</ele><time>2026-08-02T00:00:00Z</time></trkpt>
<trkpt lat="37.807186000" lon="-121.927050000"><ele>187.6</ele><time>2026-08-02T00:00:00Z</time></trkpt>
<trkpt lat="37.807243000" lon="-121.927130000"><ele>187.8</ele><time>2026-08-02T00:00:00Z</time></trkpt>
<trkpt lat="37.807300000" lon="-121.927216000"><ele>188.0</ele><time>2026-08-02T00:00:00Z</time></trkpt>
<trkpt lat="37.807365000" lon="-121.927300000"><ele>188.2</ele><time>2026-08-02T00:00:00Z</time></trkpt>
<trkpt lat="37.807423000" lon="-121.927390000"><ele>188.4</ele><time>2026-08-02T00:00:00Z</time></trkpt>
<trkpt lat="37.807487000" lon="-121.927475000"><ele>188.5</ele><time>2026-08-02T00:00:00Z</time></trkpt>
<trkpt lat="37.807556000" lon="-121.927540000"><ele>188.6</ele><time>2026-08-02T00:00:00Z</time></trkpt>
<trkpt lat="37.807625000" lon="-121.927630000"><ele>188.7</ele><time>2026-08-02T00:00:00Z</time></trkpt>
<trkpt lat="37.807700000" lon="-121.927700000"><ele>188.9</ele><time>2026-08-02T00:00:00Z</time></trkpt>
<trkpt lat="37.807777000" lon="-121.927760000"><ele>189.0</ele><time>2026-08-02T00:00:00Z</time></trkpt>
<trkpt lat="37.807858000" lon="-121.927800000"><ele>189.2</ele><time>2026-08-02T00:00:00Z</time></trkpt>
<trkpt lat="37.807940000" lon="-121.927840000"><ele>189.4</ele><time>2026-08-02T00:00:00Z</time></trkpt>
<trkpt lat="37.808030000" lon="-121.927880000"><ele>189.5</ele><time>2026-08-02T00:00:00Z</time></trkpt>
<trkpt lat="37.808117000" lon="-121.927920000"><ele>189.7</ele><time>2026-08-02T00:00:00Z</time></trkpt>
<trkpt lat="37.808200000" lon="-121.927956000"><ele>189.9</ele><time>2026-08-02T00:00:00Z</time></trkpt>
<trkpt lat="37.808285000" lon="-121.927990000"><ele>190.2</ele><time>2026-08-02T00:00:00Z</time></trkpt>
<trkpt lat="37.808365000" lon="-121.928030000"><ele>190.5</ele><time>2026-08-02T00:00:00Z</time></trkpt>
<trkpt lat="37.808456000" lon="-121.928070000"><ele>190.7</ele><time>2026-08-02T00:00:00Z</time></trkpt>
<trkpt lat="37.808537000" lon="-121.928110000"><ele>191.0</ele><time>2026-08-02T00:00:00Z</time></trkpt>
<trkpt lat="37.808624000" lon="-121.928150000"><ele>191.2</ele><time>2026-08-02T00:00:00Z</time></trkpt>
<trkpt lat="37.808704000" lon="-121.928200000"><ele>191.4</ele><time>2026-08-02T00:00:00Z</time></trkpt>
<trkpt lat="37.808792000" lon="-121.928240000"><ele>191.5</ele><time>2026-08-02T00:00:00Z</time></trkpt>
<trkpt lat="37.808880000" lon="-121.928276000"><ele>191.7</ele><time>2026-08-02T00:00:00Z</time></trkpt>
<trkpt lat="37.808960000" lon="-121.928314000"><ele>191.9</ele><time>2026-08-02T00:00:00Z</time></trkpt>
<trkpt lat="37.809050000" lon="-121.928350000"><ele>192.1</ele><time>2026-08-02T00:00:00Z</time></trkpt>
<trkpt lat="37.809140000" lon="-121.928400000"><ele>192.3</ele><time>2026-08-02T00:00:00Z</time></trkpt>
<trkpt lat="37.809227000" lon="-121.928400000"><ele>192.5</ele><time>2026-08-02T00:00:00Z</time></trkpt>
<trkpt lat="37.809288000" lon="-121.928330000"><ele>192.7</ele><time>2026-08-02T00:00:00Z</time></trkpt>
<trkpt lat="37.809334000" lon="-121.928230000"><ele>193.0</ele><time>2026-08-02T00:00:00Z</time></trkpt>
<trkpt lat="37.809372000" lon="-121.928130000"><ele>193.4</ele><time>2026-08-02T00:00:00Z</time></trkpt>
<trkpt lat="37.809406000" lon="-121.928030000"><ele>193.8</ele><time>2026-08-02T00:00:00Z</time></trkpt>
<trkpt lat="37.809440000" lon="-121.927920000"><ele>194.3</ele><time>2026-08-02T00:00:00Z</time></trkpt>
<trkpt lat="37.809456000" lon="-121.927800000"><ele>194.8</ele><time>2026-08-02T00:00:00Z</time></trkpt>
<trkpt lat="37.809467000" lon="-121.927690000"><ele>195.5</ele><time>2026-08-02T00:00:00Z</time></trkpt>
<trkpt lat="37.809475000" lon="-121.927574000"><ele>196.0</ele><time>2026-08-02T00:00:00Z</time></trkpt>
<trkpt lat="37.809480000" lon="-121.927450000"><ele>196.6</ele><time>2026-08-02T00:00:00Z</time></trkpt>
<trkpt lat="37.809475000" lon="-121.927330000"><ele>197.3</ele><time>2026-08-02T00:00:00Z</time></trkpt>
<trkpt lat="37.809452000" lon="-121.927220000"><ele>197.8</ele><time>2026-08-02T00:00:00Z</time></trkpt>
<trkpt lat="37.809418000" lon="-121.927110000"><ele>198.3</ele><time>2026-08-02T00:00:00Z</time></trkpt>
<trkpt lat="37.809353000" lon="-121.927030000"><ele>198.8</ele><time>2026-08-02T00:00:00Z</time></trkpt>
<trkpt lat="37.809284000" lon="-121.926956000"><ele>199.3</ele><time>2026-08-02T00:00:00Z</time></trkpt>
<trkpt lat="37.809208000" lon="-121.926890000"><ele>199.6</ele><time>2026-08-02T00:00:00Z</time></trkpt>
<trkpt lat="37.809135000" lon="-121.926820000"><ele>200.0</ele><time>2026-08-02T00:00:00Z</time></trkpt>
<trkpt lat="37.809067000" lon="-121.926740000"><ele>200.3</ele><time>2026-08-02T00:00:00Z</time></trkpt>
<trkpt lat="37.808990000" lon="-121.926674000"><ele>200.5</ele><time>2026-08-02T00:00:00Z</time></trkpt>
<trkpt lat="37.808926000" lon="-121.926590000"><ele>200.6</ele><time>2026-08-02T00:00:00Z</time></trkpt>
<trkpt lat="37.808853000" lon="-121.926520000"><ele>200.8</ele><time>2026-08-02T00:00:00Z</time></trkpt>
<trkpt lat="37.808770000" lon="-121.926450000"><ele>201.0</ele><time>2026-08-02T00:00:00Z</time></trkpt>
<trkpt lat="37.808680000" lon="-121.926414000"><ele>201.1</ele><time>2026-08-02T00:00:00Z</time></trkpt>
<trkpt lat="37.808590000" lon="-121.926390000"><ele>201.2</ele><time>2026-08-02T00:00:00Z</time></trkpt>
<trkpt lat="37.808506000" lon="-121.926440000"><ele>201.2</ele><time>2026-08-02T00:00:00Z</time></trkpt>
<trkpt lat="37.808422000" lon="-121.926445000"><ele>201.2</ele><time>2026-08-02T00:00:00Z</time></trkpt>
<trkpt lat="37.808470000" lon="-121.926350000"><ele>201.2</ele><time>2026-08-02T00:00:00Z</time></trkpt>
<trkpt lat="37.808556000" lon="-121.926340000"><ele>201.2</ele><time>2026-08-02T00:00:00Z</time></trkpt>
<trkpt lat="37.808650000" lon="-121.926340000"><ele>201.2</ele><time>2026-08-02T00:00:00Z</time></trkpt>
<trkpt lat="37.808743000" lon="-121.926370000"><ele>201.1</ele><time>2026-08-02T00:00:00Z</time></trkpt>
<trkpt lat="37.808820000" lon="-121.926420000"><ele>201.0</ele><time>2026-08-02T00:00:00Z</time></trkpt>
<trkpt lat="37.808895000" lon="-121.926480000"><ele>200.8</ele><time>2026-08-02T00:00:00Z</time></trkpt>
<trkpt lat="37.808970000" lon="-121.926544000"><ele>200.5</ele><time>2026-08-02T00:00:00Z</time></trkpt>
<trkpt lat="37.809048000" lon="-121.926620000"><ele>200.4</ele><time>2026-08-02T00:00:00Z</time></trkpt>
<trkpt lat="37.809113000" lon="-121.926690000"><ele>200.2</ele><time>2026-08-02T00:00:00Z</time></trkpt>
<trkpt lat="37.809185000" lon="-121.926765000"><ele>199.9</ele><time>2026-08-02T00:00:00Z</time></trkpt>
<trkpt lat="37.809250000" lon="-121.926850000"><ele>199.6</ele><time>2026-08-02T00:00:00Z</time></trkpt>
<trkpt lat="37.809322000" lon="-121.926926000"><ele>199.3</ele><time>2026-08-02T00:00:00Z</time></trkpt>
<trkpt lat="37.809383000" lon="-121.926994000"><ele>198.9</ele><time>2026-08-02T00:00:00Z</time></trkpt>
<trkpt lat="37.809444000" lon="-121.927060000"><ele>198.5</ele><time>2026-08-02T00:00:00Z</time></trkpt>
<trkpt lat="37.809498000" lon="-121.927155000"><ele>198.1</ele><time>2026-08-02T00:00:00Z</time></trkpt>
<trkpt lat="37.809525000" lon="-121.927270000"><ele>197.6</ele><time>2026-08-02T00:00:00Z</time></trkpt>
<trkpt lat="37.809536000" lon="-121.927380000"><ele>197.1</ele><time>2026-08-02T00:00:00Z</time></trkpt>
<trkpt lat="37.809540000" lon="-121.927505000"><ele>196.5</ele><time>2026-08-02T00:00:00Z</time></trkpt>
<trkpt lat="37.809536000" lon="-121.927605000"><ele>196.0</ele><time>2026-08-02T00:00:00Z</time></trkpt>
<trkpt lat="37.809536000" lon="-121.927730000"><ele>195.5</ele><time>2026-08-02T00:00:00Z</time></trkpt>
<trkpt lat="37.809525000" lon="-121.927840000"><ele>195.0</ele><time>2026-08-02T00:00:00Z</time></trkpt>
<trkpt lat="37.809498000" lon="-121.927960000"><ele>194.5</ele><time>2026-08-02T00:00:00Z</time></trkpt>
<trkpt lat="37.809467000" lon="-121.928055000"><ele>194.2</ele><time>2026-08-02T00:00:00Z</time></trkpt>
<trkpt lat="37.809440000" lon="-121.928170000"><ele>193.8</ele><time>2026-08-02T00:00:00Z</time></trkpt>
<trkpt lat="37.809395000" lon="-121.928270000"><ele>193.6</ele><time>2026-08-02T00:00:00Z</time></trkpt>
<trkpt lat="37.809357000" lon="-121.928375000"><ele>193.5</ele><time>2026-08-02T00:00:00Z</time></trkpt>
<trkpt lat="37.809414000" lon="-121.928450000"><ele>193.4</ele><time>2026-08-02T00:00:00Z</time></trkpt>
<trkpt lat="37.809460000" lon="-121.928540000"><ele>193.4</ele><time>2026-08-02T00:00:00Z</time></trkpt>
<trkpt lat="37.809513000" lon="-121.928620000"><ele>193.5</ele><time>2026-08-02T00:00:00Z</time></trkpt>
<trkpt lat="37.809580000" lon="-121.928690000"><ele>193.6</ele><time>2026-08-02T00:00:00Z</time></trkpt>
<trkpt lat="37.809647000" lon="-121.928750000"><ele>193.8</ele><time>2026-08-02T00:00:00Z</time></trkpt>
<trkpt lat="37.809710000" lon="-121.928825000"><ele>194.0</ele><time>2026-08-02T00:00:00Z</time></trkpt>
<trkpt lat="37.809776000" lon="-121.928910000"><ele>194.2</ele><time>2026-08-02T00:00:00Z</time></trkpt>
<trkpt lat="37.809845000" lon="-121.928986000"><ele>194.4</ele><time>2026-08-02T00:00:00Z</time></trkpt>
<trkpt lat="37.809887000" lon="-121.929080000"><ele>194.6</ele><time>2026-08-02T00:00:00Z</time></trkpt>
<trkpt lat="37.809895000" lon="-121.929184000"><ele>195.0</ele><time>2026-08-02T00:00:00Z</time></trkpt>
<trkpt lat="37.809856000" lon="-121.929276000"><ele>195.4</ele><time>2026-08-02T00:00:00Z</time></trkpt>
<trkpt lat="37.809807000" lon="-121.929370000"><ele>195.8</ele><time>2026-08-02T00:00:00Z</time></trkpt>
<trkpt lat="37.809760000" lon="-121.929450000"><ele>196.4</ele><time>2026-08-02T00:00:00Z</time></trkpt>
<trkpt lat="37.809710000" lon="-121.929560000"><ele>196.9</ele><time>2026-08-02T00:00:00Z</time></trkpt>
<trkpt lat="37.809658000" lon="-121.929640000"><ele>197.5</ele><time>2026-08-02T00:00:00Z</time></trkpt>
<trkpt lat="37.809600000" lon="-121.929726000"><ele>198.1</ele><time>2026-08-02T00:00:00Z</time></trkpt>
<trkpt lat="37.809555000" lon="-121.929820000"><ele>198.7</ele><time>2026-08-02T00:00:00Z</time></trkpt>
<trkpt lat="37.809510000" lon="-121.929920000"><ele>199.5</ele><time>2026-08-02T00:00:00Z</time></trkpt>
<trkpt lat="37.809440000" lon="-121.929980000"><ele>200.2</ele><time>2026-08-02T00:00:00Z</time></trkpt>
<trkpt lat="37.809357000" lon="-121.930016000"><ele>200.8</ele><time>2026-08-02T00:00:00Z</time></trkpt>
<trkpt lat="37.809273000" lon="-121.930030000"><ele>201.3</ele><time>2026-08-02T00:00:00Z</time></trkpt>
<trkpt lat="37.809185000" lon="-121.930016000"><ele>201.7</ele><time>2026-08-02T00:00:00Z</time></trkpt>
<trkpt lat="37.809105000" lon="-121.929980000"><ele>202.1</ele><time>2026-08-02T00:00:00Z</time></trkpt>
<trkpt lat="37.809025000" lon="-121.929930000"><ele>202.3</ele><time>2026-08-02T00:00:00Z</time></trkpt>
<trkpt lat="37.808950000" lon="-121.929880000"><ele>202.5</ele><time>2026-08-02T00:00:00Z</time></trkpt>
<trkpt lat="37.808870000" lon="-121.929825000"><ele>202.6</ele><time>2026-08-02T00:00:00Z</time></trkpt>
<trkpt lat="37.808790000" lon="-121.929760000"><ele>202.7</ele><time>2026-08-02T00:00:00Z</time></trkpt>
<trkpt lat="37.808700000" lon="-121.929726000"><ele>202.8</ele><time>2026-08-02T00:00:00Z</time></trkpt>
<trkpt lat="37.808790000" lon="-121.929700000"><ele>202.7</ele><time>2026-08-02T00:00:00Z</time></trkpt>
<trkpt lat="37.808870000" lon="-121.929760000"><ele>202.5</ele><time>2026-08-02T00:00:00Z</time></trkpt>
<trkpt lat="37.808945000" lon="-121.929825000"><ele>202.3</ele><time>2026-08-02T00:00:00Z</time></trkpt>
<trkpt lat="37.809025000" lon="-121.929880000"><ele>202.0</ele><time>2026-08-02T00:00:00Z</time></trkpt>
<trkpt lat="37.809105000" lon="-121.929924000"><ele>201.6</ele><time>2026-08-02T00:00:00Z</time></trkpt>
<trkpt lat="37.809193000" lon="-121.929955000"><ele>201.3</ele><time>2026-08-02T00:00:00Z</time></trkpt>
<trkpt lat="37.809284000" lon="-121.929970000"><ele>200.9</ele><time>2026-08-02T00:00:00Z</time></trkpt>
<trkpt lat="37.809376000" lon="-121.929955000"><ele>200.5</ele><time>2026-08-02T00:00:00Z</time></trkpt>
<trkpt lat="37.809456000" lon="-121.929890000"><ele>199.7</ele><time>2026-08-02T00:00:00Z</time></trkpt>
<trkpt lat="37.809513000" lon="-121.929810000"><ele>199.0</ele><time>2026-08-02T00:00:00Z</time></trkpt>
<trkpt lat="37.809560000" lon="-121.929710000"><ele>198.3</ele><time>2026-08-02T00:00:00Z</time></trkpt>
<trkpt lat="37.809610000" lon="-121.929610000"><ele>197.6</ele><time>2026-08-02T00:00:00Z</time></trkpt>
<trkpt lat="37.809658000" lon="-121.929520000"><ele>197.1</ele><time>2026-08-02T00:00:00Z</time></trkpt>
<trkpt lat="37.809704000" lon="-121.929410000"><ele>196.6</ele><time>2026-08-02T00:00:00Z</time></trkpt>
<trkpt lat="37.809760000" lon="-121.929310000"><ele>196.2</ele><time>2026-08-02T00:00:00Z</time></trkpt>
<trkpt lat="37.809814000" lon="-121.929240000"><ele>195.9</ele><time>2026-08-02T00:00:00Z</time></trkpt>
<trkpt lat="37.809870000" lon="-121.929150000"><ele>195.6</ele><time>2026-08-02T00:00:00Z</time></trkpt>
<trkpt lat="37.809944000" lon="-121.929090000"><ele>195.5</ele><time>2026-08-02T00:00:00Z</time></trkpt>
<trkpt lat="37.810024000" lon="-121.929070000"><ele>195.5</ele><time>2026-08-02T00:00:00Z</time></trkpt>
<trkpt lat="37.810100000" lon="-121.929115000"><ele>195.8</ele><time>2026-08-02T00:00:00Z</time></trkpt>
<trkpt lat="37.810173000" lon="-121.929180000"><ele>196.1</ele><time>2026-08-02T00:00:00Z</time></trkpt>
<trkpt lat="37.810240000" lon="-121.929240000"><ele>196.5</ele><time>2026-08-02T00:00:00Z</time></trkpt>
<trkpt lat="37.810310000" lon="-121.929290000"><ele>196.8</ele><time>2026-08-02T00:00:00Z</time></trkpt>
<trkpt lat="37.810383000" lon="-121.929360000"><ele>197.2</ele><time>2026-08-02T00:00:00Z</time></trkpt>
<trkpt lat="37.810460000" lon="-121.929430000"><ele>197.5</ele><time>2026-08-02T00:00:00Z</time></trkpt>
<trkpt lat="37.810535000" lon="-121.929500000"><ele>197.9</ele><time>2026-08-02T00:00:00Z</time></trkpt>
<trkpt lat="37.810616000" lon="-121.929550000"><ele>198.2</ele><time>2026-08-02T00:00:00Z</time></trkpt>
<trkpt lat="37.810690000" lon="-121.929610000"><ele>198.5</ele><time>2026-08-02T00:00:00Z</time></trkpt>
<trkpt lat="37.810772000" lon="-121.929665000"><ele>198.7</ele><time>2026-08-02T00:00:00Z</time></trkpt>
<trkpt lat="37.810840000" lon="-121.929740000"><ele>198.9</ele><time>2026-08-02T00:00:00Z</time></trkpt>
<trkpt lat="37.810917000" lon="-121.929800000"><ele>199.0</ele><time>2026-08-02T00:00:00Z</time></trkpt>
<trkpt lat="37.810980000" lon="-121.929870000"><ele>199.1</ele><time>2026-08-02T00:00:00Z</time></trkpt>
<trkpt lat="37.810898000" lon="-121.929890000"><ele>199.0</ele><time>2026-08-02T00:00:00Z</time></trkpt>
<trkpt lat="37.810825000" lon="-121.929825000"><ele>198.9</ele><time>2026-08-02T00:00:00Z</time></trkpt>
<trkpt lat="37.810757000" lon="-121.929760000"><ele>198.7</ele><time>2026-08-02T00:00:00Z</time></trkpt>
<trkpt lat="37.810680000" lon="-121.929690000"><ele>198.5</ele><time>2026-08-02T00:00:00Z</time></trkpt>
<trkpt lat="37.810600000" lon="-121.929630000"><ele>198.3</ele><time>2026-08-02T00:00:00Z</time></trkpt>
<trkpt lat="37.810528000" lon="-121.929565000"><ele>198.0</ele><time>2026-08-02T00:00:00Z</time></trkpt>
<trkpt lat="37.810455000" lon="-121.929500000"><ele>197.5</ele><time>2026-08-02T00:00:00Z</time></trkpt>
<trkpt lat="37.810383000" lon="-121.929430000"><ele>197.2</ele><time>2026-08-02T00:00:00Z</time></trkpt>
<trkpt lat="37.810307000" lon="-121.929350000"><ele>196.9</ele><time>2026-08-02T00:00:00Z</time></trkpt>
<trkpt lat="37.810240000" lon="-121.929290000"><ele>196.6</ele><time>2026-08-02T00:00:00Z</time></trkpt>
<trkpt lat="37.810173000" lon="-121.929214000"><ele>196.5</ele><time>2026-08-02T00:00:00Z</time></trkpt>
<trkpt lat="37.810097000" lon="-121.929140000"><ele>196.4</ele><time>2026-08-02T00:00:00Z</time></trkpt>
<trkpt lat="37.810055000" lon="-121.929040000"><ele>196.3</ele><time>2026-08-02T00:00:00Z</time></trkpt>
<trkpt lat="37.810120000" lon="-121.928960000"><ele>196.4</ele><time>2026-08-02T00:00:00Z</time></trkpt>
<trkpt lat="37.810215000" lon="-121.928990000"><ele>196.5</ele><time>2026-08-02T00:00:00Z</time></trkpt>
<trkpt lat="37.810300000" lon="-121.929050000"><ele>196.6</ele><time>2026-08-02T00:00:00Z</time></trkpt>
<trkpt lat="37.810370000" lon="-121.929100000"><ele>196.9</ele><time>2026-08-02T00:00:00Z</time></trkpt>
<trkpt lat="37.810436000" lon="-121.929180000"><ele>197.3</ele><time>2026-08-02T00:00:00Z</time></trkpt>
<trkpt lat="37.810500000" lon="-121.929245000"><ele>197.6</ele><time>2026-08-02T00:00:00Z</time></trkpt>
<trkpt lat="37.810574000" lon="-121.929290000"><ele>198.0</ele><time>2026-08-02T00:00:00Z</time></trkpt>
<trkpt lat="37.810646000" lon="-121.929360000"><ele>198.4</ele><time>2026-08-02T00:00:00Z</time></trkpt>
<trkpt lat="37.810715000" lon="-121.929410000"><ele>198.6</ele><time>2026-08-02T00:00:00Z</time></trkpt>
<trkpt lat="37.810795000" lon="-121.929474000"><ele>198.9</ele><time>2026-08-02T00:00:00Z</time></trkpt>
<trkpt lat="37.810867000" lon="-121.929535000"><ele>199.2</ele><time>2026-08-02T00:00:00Z</time></trkpt>
<trkpt lat="37.810936000" lon="-121.929590000"><ele>199.4</ele><time>2026-08-02T00:00:00Z</time></trkpt>
<trkpt lat="37.811010000" lon="-121.929650000"><ele>199.5</ele><time>2026-08-02T00:00:00Z</time></trkpt>
<trkpt lat="37.811080000" lon="-121.929710000"><ele>199.6</ele><time>2026-08-02T00:00:00Z</time></trkpt>
<trkpt lat="37.811157000" lon="-121.929780000"><ele>199.6</ele><time>2026-08-02T00:00:00Z</time></trkpt>
<trkpt lat="37.811234000" lon="-121.929840000"><ele>199.6</ele><time>2026-08-02T00:00:00Z</time></trkpt>
<trkpt lat="37.811306000" lon="-121.929886000"><ele>199.6</ele><time>2026-08-02T00:00:00Z</time></trkpt>
<trkpt lat="37.811390000" lon="-121.929930000"><ele>199.6</ele><time>2026-08-02T00:00:00Z</time></trkpt>
<trkpt lat="37.811460000" lon="-121.930010000"><ele>199.6</ele><time>2026-08-02T00:00:00Z</time></trkpt>
<trkpt lat="37.811530000" lon="-121.930080000"><ele>199.6</ele><time>2026-08-02T00:00:00Z</time></trkpt>
<trkpt lat="37.811604000" lon="-121.930130000"><ele>199.6</ele><time>2026-08-02T00:00:00Z</time></trkpt>
<trkpt lat="37.811680000" lon="-121.930200000"><ele>199.7</ele><time>2026-08-02T00:00:00Z</time></trkpt>
<trkpt lat="37.811752000" lon="-121.930244000"><ele>199.8</ele><time>2026-08-02T00:00:00Z</time></trkpt>
<trkpt lat="37.811820000" lon="-121.930300000"><ele>199.8</ele><time>2026-08-02T00:00:00Z</time></trkpt>
<trkpt lat="37.811893000" lon="-121.930340000"><ele>200.0</ele><time>2026-08-02T00:00:00Z</time></trkpt>
<trkpt lat="37.811966000" lon="-121.930390000"><ele>200.3</ele><time>2026-08-02T00:00:00Z</time></trkpt>
<trkpt lat="37.812050000" lon="-121.930435000"><ele>200.5</ele><time>2026-08-02T00:00:00Z</time></trkpt>
<trkpt lat="37.812134000" lon="-121.930490000"><ele>200.9</ele><time>2026-08-02T00:00:00Z</time></trkpt>
<trkpt lat="37.812210000" lon="-121.930534000"><ele>201.2</ele><time>2026-08-02T00:00:00Z</time></trkpt>
<trkpt lat="37.812290000" lon="-121.930590000"><ele>201.5</ele><time>2026-08-02T00:00:00Z</time></trkpt>
<trkpt lat="37.812370000" lon="-121.930630000"><ele>201.7</ele><time>2026-08-02T00:00:00Z</time></trkpt>
<trkpt lat="37.812454000" lon="-121.930680000"><ele>202.1</ele><time>2026-08-02T00:00:00Z</time></trkpt>
<trkpt lat="37.812540000" lon="-121.930730000"><ele>202.4</ele><time>2026-08-02T00:00:00Z</time></trkpt>
<trkpt lat="37.812622000" lon="-121.930780000"><ele>202.7</ele><time>2026-08-02T00:00:00Z</time></trkpt>
<trkpt lat="37.812706000" lon="-121.930824000"><ele>203.2</ele><time>2026-08-02T00:00:00Z</time></trkpt>
<trkpt lat="37.812782000" lon="-121.930880000"><ele>203.6</ele><time>2026-08-02T00:00:00Z</time></trkpt>
<trkpt lat="37.812866000" lon="-121.930930000"><ele>204.1</ele><time>2026-08-02T00:00:00Z</time></trkpt>
<trkpt lat="37.812946000" lon="-121.930984000"><ele>204.5</ele><time>2026-08-02T00:00:00Z</time></trkpt>
<trkpt lat="37.813020000" lon="-121.931030000"><ele>204.9</ele><time>2026-08-02T00:00:00Z</time></trkpt>
<trkpt lat="37.813107000" lon="-121.931076000"><ele>205.3</ele><time>2026-08-02T00:00:00Z</time></trkpt>
<trkpt lat="37.813190000" lon="-121.931130000"><ele>205.7</ele><time>2026-08-02T00:00:00Z</time></trkpt>
<trkpt lat="37.813274000" lon="-121.931175000"><ele>206.2</ele><time>2026-08-02T00:00:00Z</time></trkpt>
<trkpt lat="37.813354000" lon="-121.931220000"><ele>206.5</ele><time>2026-08-02T00:00:00Z</time></trkpt>
<trkpt lat="37.813435000" lon="-121.931280000"><ele>206.8</ele><time>2026-08-02T00:00:00Z</time></trkpt>
<trkpt lat="37.813515000" lon="-121.931330000"><ele>207.1</ele><time>2026-08-02T00:00:00Z</time></trkpt>
<trkpt lat="37.813602000" lon="-121.931366000"><ele>207.5</ele><time>2026-08-02T00:00:00Z</time></trkpt>
<trkpt lat="37.813686000" lon="-121.931380000"><ele>207.6</ele><time>2026-08-02T00:00:00Z</time></trkpt>
<trkpt lat="37.813774000" lon="-121.931400000"><ele>207.7</ele><time>2026-08-02T00:00:00Z</time></trkpt>
<trkpt lat="37.813866000" lon="-121.931400000"><ele>207.7</ele><time>2026-08-02T00:00:00Z</time></trkpt>
<trkpt lat="37.813957000" lon="-121.931430000"><ele>207.8</ele><time>2026-08-02T00:00:00Z</time></trkpt>
<trkpt lat="37.814030000" lon="-121.931470000"><ele>207.9</ele><time>2026-08-02T00:00:00Z</time></trkpt>
<trkpt lat="37.814100000" lon="-121.931530000"><ele>207.9</ele><time>2026-08-02T00:00:00Z</time></trkpt>
<trkpt lat="37.814180000" lon="-121.931600000"><ele>208.0</ele><time>2026-08-02T00:00:00Z</time></trkpt>
<trkpt lat="37.814240000" lon="-121.931670000"><ele>208.2</ele><time>2026-08-02T00:00:00Z</time></trkpt>
<trkpt lat="37.814320000" lon="-121.931730000"><ele>208.4</ele><time>2026-08-02T00:00:00Z</time></trkpt>
<trkpt lat="37.814404000" lon="-121.931790000"><ele>208.5</ele><time>2026-08-02T00:00:00Z</time></trkpt>
<trkpt lat="37.814484000" lon="-121.931840000"><ele>208.6</ele><time>2026-08-02T00:00:00Z</time></trkpt>
<trkpt lat="37.814568000" lon="-121.931860000"><ele>208.8</ele><time>2026-08-02T00:00:00Z</time></trkpt>
<trkpt lat="37.814648000" lon="-121.931885000"><ele>209.0</ele><time>2026-08-02T00:00:00Z</time></trkpt>
<trkpt lat="37.814730000" lon="-121.931910000"><ele>209.3</ele><time>2026-08-02T00:00:00Z</time></trkpt>
<trkpt lat="37.814810000" lon="-121.931930000"><ele>209.4</ele><time>2026-08-02T00:00:00Z</time></trkpt>
<trkpt lat="37.814903000" lon="-121.931960000"><ele>209.5</ele><time>2026-08-02T00:00:00Z</time></trkpt>
<trkpt lat="37.814990000" lon="-121.931990000"><ele>209.5</ele><time>2026-08-02T00:00:00Z</time></trkpt>
<trkpt lat="37.814900000" lon="-121.931980000"><ele>209.4</ele><time>2026-08-02T00:00:00Z</time></trkpt>
<trkpt lat="37.814810000" lon="-121.931946000"><ele>209.3</ele><time>2026-08-02T00:00:00Z</time></trkpt>
<trkpt lat="37.814720000" lon="-121.931920000"><ele>209.1</ele><time>2026-08-02T00:00:00Z</time></trkpt>
<trkpt lat="37.814630000" lon="-121.931910000"><ele>208.8</ele><time>2026-08-02T00:00:00Z</time></trkpt>
<trkpt lat="37.814537000" lon="-121.931880000"><ele>208.5</ele><time>2026-08-02T00:00:00Z</time></trkpt>
<trkpt lat="37.814457000" lon="-121.931850000"><ele>208.4</ele><time>2026-08-02T00:00:00Z</time></trkpt>
<trkpt lat="37.814373000" lon="-121.931786000"><ele>208.2</ele><time>2026-08-02T00:00:00Z</time></trkpt>
<trkpt lat="37.814297000" lon="-121.931725000"><ele>207.9</ele><time>2026-08-02T00:00:00Z</time></trkpt>
<trkpt lat="37.814228000" lon="-121.931670000"><ele>207.7</ele><time>2026-08-02T00:00:00Z</time></trkpt>
<trkpt lat="37.814148000" lon="-121.931600000"><ele>207.5</ele><time>2026-08-02T00:00:00Z</time></trkpt>
<trkpt lat="37.814068000" lon="-121.931540000"><ele>207.5</ele><time>2026-08-02T00:00:00Z</time></trkpt>
<trkpt lat="37.813988000" lon="-121.931480000"><ele>207.5</ele><time>2026-08-02T00:00:00Z</time></trkpt>
<trkpt lat="37.813908000" lon="-121.931440000"><ele>207.5</ele><time>2026-08-02T00:00:00Z</time></trkpt>
<trkpt lat="37.813816000" lon="-121.931404000"><ele>207.4</ele><time>2026-08-02T00:00:00Z</time></trkpt>
<trkpt lat="37.813720000" lon="-121.931390000"><ele>207.4</ele><time>2026-08-02T00:00:00Z</time></trkpt>
<trkpt lat="37.813633000" lon="-121.931380000"><ele>207.4</ele><time>2026-08-02T00:00:00Z</time></trkpt>
<trkpt lat="37.813545000" lon="-121.931335000"><ele>207.2</ele><time>2026-08-02T00:00:00Z</time></trkpt>
<trkpt lat="37.813457000" lon="-121.931290000"><ele>206.9</ele><time>2026-08-02T00:00:00Z</time></trkpt>
<trkpt lat="37.813374000" lon="-121.931230000"><ele>206.7</ele><time>2026-08-02T00:00:00Z</time></trkpt>
<trkpt lat="37.813300000" lon="-121.931180000"><ele>206.5</ele><time>2026-08-02T00:00:00Z</time></trkpt>
<trkpt lat="37.813220000" lon="-121.931140000"><ele>206.2</ele><time>2026-08-02T00:00:00Z</time></trkpt>
<trkpt lat="37.813145000" lon="-121.931090000"><ele>205.8</ele><time>2026-08-02T00:00:00Z</time></trkpt>
<trkpt lat="37.813060000" lon="-121.931030000"><ele>205.4</ele><time>2026-08-02T00:00:00Z</time></trkpt>
<trkpt lat="37.812977000" lon="-121.930984000"><ele>204.8</ele><time>2026-08-02T00:00:00Z</time></trkpt>
<trkpt lat="37.812885000" lon="-121.930940000"><ele>204.4</ele><time>2026-08-02T00:00:00Z</time></trkpt>
<trkpt lat="37.812810000" lon="-121.930890000"><ele>203.9</ele><time>2026-08-02T00:00:00Z</time></trkpt>
<trkpt lat="37.812730000" lon="-121.930850000"><ele>203.4</ele><time>2026-08-02T00:00:00Z</time></trkpt>
<trkpt lat="37.812650000" lon="-121.930810000"><ele>202.8</ele><time>2026-08-02T00:00:00Z</time></trkpt>
<trkpt lat="37.812572000" lon="-121.930770000"><ele>202.5</ele><time>2026-08-02T00:00:00Z</time></trkpt>
<trkpt lat="37.812480000" lon="-121.930720000"><ele>202.1</ele><time>2026-08-02T00:00:00Z</time></trkpt>
<trkpt lat="37.812397000" lon="-121.930660000"><ele>201.8</ele><time>2026-08-02T00:00:00Z</time></trkpt>
<trkpt lat="37.812325000" lon="-121.930610000"><ele>201.5</ele><time>2026-08-02T00:00:00Z</time></trkpt>
<trkpt lat="37.812250000" lon="-121.930565000"><ele>201.2</ele><time>2026-08-02T00:00:00Z</time></trkpt>
<trkpt lat="37.812170000" lon="-121.930504000"><ele>200.8</ele><time>2026-08-02T00:00:00Z</time></trkpt>
<trkpt lat="37.812088000" lon="-121.930450000"><ele>200.5</ele><time>2026-08-02T00:00:00Z</time></trkpt>
<trkpt lat="37.812008000" lon="-121.930400000"><ele>200.3</ele><time>2026-08-02T00:00:00Z</time></trkpt>
<trkpt lat="37.811924000" lon="-121.930350000"><ele>200.0</ele><time>2026-08-02T00:00:00Z</time></trkpt>
<trkpt lat="37.811836000" lon="-121.930305000"><ele>199.8</ele><time>2026-08-02T00:00:00Z</time></trkpt>
<trkpt lat="37.811752000" lon="-121.930250000"><ele>199.7</ele><time>2026-08-02T00:00:00Z</time></trkpt>
<trkpt lat="37.811676000" lon="-121.930190000"><ele>199.6</ele><time>2026-08-02T00:00:00Z</time></trkpt>
<trkpt lat="37.811600000" lon="-121.930140000"><ele>199.5</ele><time>2026-08-02T00:00:00Z</time></trkpt>
<trkpt lat="37.811516000" lon="-121.930080000"><ele>199.5</ele><time>2026-08-02T00:00:00Z</time></trkpt>
<trkpt lat="37.811440000" lon="-121.930016000"><ele>199.5</ele><time>2026-08-02T00:00:00Z</time></trkpt>
<trkpt lat="37.811363000" lon="-121.929950000"><ele>199.5</ele><time>2026-08-02T00:00:00Z</time></trkpt>
<trkpt lat="37.811287000" lon="-121.929890000"><ele>199.5</ele><time>2026-08-02T00:00:00Z</time></trkpt>
<trkpt lat="37.811214000" lon="-121.929830000"><ele>199.5</ele><time>2026-08-02T00:00:00Z</time></trkpt>
<trkpt lat="37.811140000" lon="-121.929770000"><ele>199.5</ele><time>2026-08-02T00:00:00Z</time></trkpt>
<trkpt lat="37.811054000" lon="-121.929710000"><ele>199.5</ele><time>2026-08-02T00:00:00Z</time></trkpt>
<trkpt lat="37.810980000" lon="-121.929640000"><ele>199.4</ele><time>2026-08-02T00:00:00Z</time></trkpt>
<trkpt lat="37.810900000" lon="-121.929570000"><ele>199.3</ele><time>2026-08-02T00:00:00Z</time></trkpt>
<trkpt lat="37.810830000" lon="-121.929520000"><ele>199.0</ele><time>2026-08-02T00:00:00Z</time></trkpt>
<trkpt lat="37.810753000" lon="-121.929440000"><ele>198.7</ele><time>2026-08-02T00:00:00Z</time></trkpt>
<trkpt lat="37.810684000" lon="-121.929380000"><ele>198.5</ele><time>2026-08-02T00:00:00Z</time></trkpt>
<trkpt lat="37.810608000" lon="-121.929330000"><ele>198.1</ele><time>2026-08-02T00:00:00Z</time></trkpt>
<trkpt lat="37.810530000" lon="-121.929260000"><ele>197.7</ele><time>2026-08-02T00:00:00Z</time></trkpt>
<trkpt lat="37.810463000" lon="-121.929210000"><ele>197.4</ele><time>2026-08-02T00:00:00Z</time></trkpt>
<trkpt lat="37.810390000" lon="-121.929140000"><ele>197.0</ele><time>2026-08-02T00:00:00Z</time></trkpt>
<trkpt lat="37.810314000" lon="-121.929090000"><ele>196.6</ele><time>2026-08-02T00:00:00Z</time></trkpt>
<trkpt lat="37.810226000" lon="-121.929050000"><ele>196.2</ele><time>2026-08-02T00:00:00Z</time></trkpt>
<trkpt lat="37.810146000" lon="-121.929010000"><ele>195.8</ele><time>2026-08-02T00:00:00Z</time></trkpt>
<trkpt lat="37.810055000" lon="-121.929000000"><ele>195.5</ele><time>2026-08-02T00:00:00Z</time></trkpt>
<trkpt lat="37.809967000" lon="-121.929000000"><ele>195.2</ele><time>2026-08-02T00:00:00Z</time></trkpt>
<trkpt lat="37.809880000" lon="-121.928970000"><ele>194.8</ele><time>2026-08-02T00:00:00Z</time></trkpt>
<trkpt lat="37.809788000" lon="-121.928950000"><ele>194.5</ele><time>2026-08-02T00:00:00Z</time></trkpt>
<trkpt lat="37.809710000" lon="-121.928890000"><ele>194.2</ele><time>2026-08-02T00:00:00Z</time></trkpt>
<trkpt lat="37.809628000" lon="-121.928820000"><ele>193.9</ele><time>2026-08-02T00:00:00Z</time></trkpt>
<trkpt lat="37.809550000" lon="-121.928760000"><ele>193.6</ele><time>2026-08-02T00:00:00Z</time></trkpt>
<trkpt lat="37.809475000" lon="-121.928700000"><ele>193.4</ele><time>2026-08-02T00:00:00Z</time></trkpt>
<trkpt lat="37.809402000" lon="-121.928630000"><ele>193.1</ele><time>2026-08-02T00:00:00Z</time></trkpt>
<trkpt lat="37.809326000" lon="-121.928566000"><ele>192.9</ele><time>2026-08-02T00:00:00Z</time></trkpt>
<trkpt lat="37.809242000" lon="-121.928510000"><ele>192.7</ele><time>2026-08-02T00:00:00Z</time></trkpt>
<trkpt lat="37.809160000" lon="-121.928460000"><ele>192.5</ele><time>2026-08-02T00:00:00Z</time></trkpt>
<trkpt lat="37.809070000" lon="-121.928410000"><ele>192.4</ele><time>2026-08-02T00:00:00Z</time></trkpt>
<trkpt lat="37.808994000" lon="-121.928380000"><ele>192.2</ele><time>2026-08-02T00:00:00Z</time></trkpt>
<trkpt lat="37.808918000" lon="-121.928345000"><ele>192.0</ele><time>2026-08-02T00:00:00Z</time></trkpt>
<trkpt lat="37.808830000" lon="-121.928300000"><ele>191.8</ele><time>2026-08-02T00:00:00Z</time></trkpt>
<trkpt lat="37.808740000" lon="-121.928250000"><ele>191.5</ele><time>2026-08-02T00:00:00Z</time></trkpt>
<trkpt lat="37.808666000" lon="-121.928200000"><ele>191.4</ele><time>2026-08-02T00:00:00Z</time></trkpt>
<trkpt lat="37.808590000" lon="-121.928160000"><ele>191.2</ele><time>2026-08-02T00:00:00Z</time></trkpt>
<trkpt lat="37.808514000" lon="-121.928120000"><ele>191.0</ele><time>2026-08-02T00:00:00Z</time></trkpt>
<trkpt lat="37.808422000" lon="-121.928090000"><ele>190.8</ele><time>2026-08-02T00:00:00Z</time></trkpt>
<trkpt lat="37.808342000" lon="-121.928070000"><ele>190.6</ele><time>2026-08-02T00:00:00Z</time></trkpt>
<trkpt lat="37.808254000" lon="-121.928030000"><ele>190.5</ele><time>2026-08-02T00:00:00Z</time></trkpt>
<trkpt lat="37.808163000" lon="-121.928000000"><ele>190.5</ele><time>2026-08-02T00:00:00Z</time></trkpt>
<trkpt lat="37.808075000" lon="-121.927960000"><ele>190.5</ele><time>2026-08-02T00:00:00Z</time></trkpt>
<trkpt lat="37.808000000" lon="-121.927990000"><ele>190.6</ele><time>2026-08-02T00:00:00Z</time></trkpt>
<trkpt lat="37.807960000" lon="-121.928100000"><ele>190.8</ele><time>2026-08-02T00:00:00Z</time></trkpt>
<trkpt lat="37.807930000" lon="-121.928215000"><ele>191.2</ele><time>2026-08-02T00:00:00Z</time></trkpt>
<trkpt lat="37.807888000" lon="-121.928320000"><ele>191.6</ele><time>2026-08-02T00:00:00Z</time></trkpt>
<trkpt lat="37.807850000" lon="-121.928410000"><ele>192.1</ele><time>2026-08-02T00:00:00Z</time></trkpt>
<trkpt lat="37.807808000" lon="-121.928520000"><ele>192.6</ele><time>2026-08-02T00:00:00Z</time></trkpt>
<trkpt lat="37.807762000" lon="-121.928610000"><ele>193.1</ele><time>2026-08-02T00:00:00Z</time></trkpt>
<trkpt lat="37.807713000" lon="-121.928710000"><ele>193.5</ele><time>2026-08-02T00:00:00Z</time></trkpt>
<trkpt lat="37.807655000" lon="-121.928800000"><ele>193.7</ele><time>2026-08-02T00:00:00Z</time></trkpt>
<trkpt lat="37.807600000" lon="-121.928900000"><ele>193.9</ele><time>2026-08-02T00:00:00Z</time></trkpt>
<trkpt lat="37.807545000" lon="-121.928986000"><ele>193.9</ele><time>2026-08-02T00:00:00Z</time></trkpt>
<trkpt lat="37.807556000" lon="-121.928860000"><ele>193.8</ele><time>2026-08-02T00:00:00Z</time></trkpt>
<trkpt lat="37.807610000" lon="-121.928764000"><ele>193.6</ele><time>2026-08-02T00:00:00Z</time></trkpt>
<trkpt lat="37.807655000" lon="-121.928665000"><ele>193.4</ele><time>2026-08-02T00:00:00Z</time></trkpt>
<trkpt lat="37.807705000" lon="-121.928566000"><ele>193.0</ele><time>2026-08-02T00:00:00Z</time></trkpt>
<trkpt lat="37.807762000" lon="-121.928474000"><ele>192.5</ele><time>2026-08-02T00:00:00Z</time></trkpt>
<trkpt lat="37.807808000" lon="-121.928380000"><ele>192.0</ele><time>2026-08-02T00:00:00Z</time></trkpt>
<trkpt lat="37.807830000" lon="-121.928276000"><ele>191.5</ele><time>2026-08-02T00:00:00Z</time></trkpt>
<trkpt lat="37.807858000" lon="-121.928180000"><ele>191.0</ele><time>2026-08-02T00:00:00Z</time></trkpt>
<trkpt lat="37.807888000" lon="-121.928070000"><ele>190.5</ele><time>2026-08-02T00:00:00Z</time></trkpt>
<trkpt lat="37.807915000" lon="-121.927960000"><ele>190.3</ele><time>2026-08-02T00:00:00Z</time></trkpt>
<trkpt lat="37.807877000" lon="-121.927864000"><ele>190.1</ele><time>2026-08-02T00:00:00Z</time></trkpt>
<trkpt lat="37.807793000" lon="-121.927810000"><ele>190.0</ele><time>2026-08-02T00:00:00Z</time></trkpt>
<trkpt lat="37.807705000" lon="-121.927760000"><ele>189.9</ele><time>2026-08-02T00:00:00Z</time></trkpt>
<trkpt lat="37.807705000" lon="-121.927760000"><ele>189.7</ele><time>2026-08-02T00:00:00Z</time></trkpt>
</trkseg>
</trk>
</gpx>
