<?xml version="1.0" encoding="UTF-8"?>
<gpx
  version="1.1"
  creator="Runkeeper - http://www.runkeeper.com"
  xmlns:xsi="http://www.w3.org/2001/XMLSchema-instance"
  xmlns="http://www.topografix.com/GPX/1/1"
  xsi:schemaLocation="http://www.topografix.com/GPX/1/1 http://www.topografix.com/GPX/1/1/gpx.xsd"
  xmlns:gpxtpx="http://www.garmin.com/xmlschemas/TrackPointExtension/v1">
<trk>
  <name><![CDATA[Walking 7/28/26]]></name>
  <time>2026-07-29T00:00:00Z</time>
<trkseg>
<trkpt lat="37.820904000" lon="-121.980130000"><ele>121.2</ele><time>2026-07-29T00:00:00Z</time></trkpt>
<trkpt lat="37.820946000" lon="-121.980030000"><ele>121.3</ele><time>2026-07-29T00:00:00Z</time></trkpt>
<trkpt lat="37.820923000" lon="-121.979930000"><ele>121.5</ele><time>2026-07-29T00:00:00Z</time></trkpt>
<trkpt lat="37.820885000" lon="-121.979830000"><ele>121.7</ele><time>2026-07-29T00:00:00Z</time></trkpt>
<trkpt lat="37.820854000" lon="-121.979730000"><ele>121.8</ele><time>2026-07-29T00:00:00Z</time></trkpt>
<trkpt lat="37.820816000" lon="-121.979640000"><ele>121.9</ele><time>2026-07-29T00:00:00Z</time></trkpt>
<trkpt lat="37.820786000" lon="-121.979540000"><ele>122.1</ele><time>2026-07-29T00:00:00Z</time></trkpt>
<trkpt lat="37.820747000" lon="-121.979440000"><ele>122.3</ele><time>2026-07-29T00:00:00Z</time></trkpt>
<trkpt lat="37.820720000" lon="-121.979350000"><ele>122.5</ele><time>2026-07-29T00:00:00Z</time></trkpt>
<trkpt lat="37.820720000" lon="-121.979240000"><ele>122.8</ele><time>2026-07-29T00:00:00Z</time></trkpt>
<trkpt lat="37.820700000" lon="-121.979130000"><ele>123.1</ele><time>2026-07-29T00:00:00Z</time></trkpt>
<trkpt lat="37.820694000" lon="-121.979010000"><ele>123.4</ele><time>2026-07-29T00:00:00Z</time></trkpt>
<trkpt lat="37.820683000" lon="-121.978910000"><ele>123.6</ele><time>2026-07-29T00:00:00Z</time></trkpt>
<trkpt lat="37.820660000" lon="-121.978806000"><ele>123.8</ele><time>2026-07-29T00:00:00Z</time></trkpt>
<trkpt lat="37.820633000" lon="-121.978700000"><ele>124.1</ele><time>2026-07-29T00:00:00Z</time></trkpt>
<trkpt lat="37.820614000" lon="-121.978590000"><ele>124.4</ele><time>2026-07-29T00:00:00Z</time></trkpt>
<trkpt lat="37.820590000" lon="-121.978490000"><ele>124.6</ele><time>2026-07-29T00:00:00Z</time></trkpt>
<trkpt lat="37.820576000" lon="-121.978380000"><ele>125.0</ele><time>2026-07-29T00:00:00Z</time></trkpt>
<trkpt lat="37.820553000" lon="-121.978270000"><ele>125.4</ele><time>2026-07-29T00:00:00Z</time></trkpt>
<trkpt lat="37.820545000" lon="-121.978165000"><ele>125.7</ele><time>2026-07-29T00:00:00Z</time></trkpt>
<trkpt lat="37.820540000" lon="-121.978050000"><ele>126.1</ele><time>2026-07-29T00:00:00Z</time></trkpt>
<trkpt lat="37.820545000" lon="-121.977936000"><ele>126.5</ele><time>2026-07-29T00:00:00Z</time></trkpt>
<trkpt lat="37.820557000" lon="-121.977830000"><ele>126.9</ele><time>2026-07-29T00:00:00Z</time></trkpt>
<trkpt lat="37.820553000" lon="-121.977715000"><ele>127.3</ele><time>2026-07-29T00:00:00Z</time></trkpt>
<trkpt lat="37.820564000" lon="-121.977610000"><ele>127.7</ele><time>2026-07-29T00:00:00Z</time></trkpt>
<trkpt lat="37.820568000" lon="-121.977490000"><ele>128.2</ele><time>2026-07-29T00:00:00Z</time></trkpt>
<trkpt lat="37.820590000" lon="-121.977390000"><ele>128.7</ele><time>2026-07-29T00:00:00Z</time></trkpt>
<trkpt lat="37.820675000" lon="-121.977380000"><ele>129.4</ele><time>2026-07-29T00:00:00Z</time></trkpt>
<trkpt lat="37.820763000" lon="-121.977350000"><ele>129.9</ele><time>2026-07-29T00:00:00Z</time></trkpt>
<trkpt lat="37.820850000" lon="-121.977320000"><ele>130.5</ele><time>2026-07-29T00:00:00Z</time></trkpt>
<trkpt lat="37.820940000" lon="-121.977300000"><ele>131.1</ele><time>2026-07-29T00:00:00Z</time></trkpt>
<trkpt lat="37.821022000" lon="-121.977295000"><ele>131.7</ele><time>2026-07-29T00:00:00Z</time></trkpt>
<trkpt lat="37.821083000" lon="-121.977230000"><ele>132.4</ele><time>2026-07-29T00:00:00Z</time></trkpt>
<trkpt lat="37.821160000" lon="-121.977170000"><ele>133.1</ele><time>2026-07-29T00:00:00Z</time></trkpt>
<trkpt lat="37.821250000" lon="-121.977140000"><ele>133.8</ele><time>2026-07-29T00:00:00Z</time></trkpt>
<trkpt lat="37.821335000" lon="-121.977110000"><ele>134.6</ele><time>2026-07-29T00:00:00Z</time></trkpt>
<trkpt lat="37.821423000" lon="-121.977090000"><ele>135.5</ele><time>2026-07-29T00:00:00Z</time></trkpt>
<trkpt lat="37.821503000" lon="-121.977066000"><ele>136.3</ele><time>2026-07-29T00:00:00Z</time></trkpt>
<trkpt lat="37.821587000" lon="-121.977020000"><ele>137.1</ele><time>2026-07-29T00:00:00Z</time></trkpt>
<trkpt lat="37.821667000" lon="-121.977000000"><ele>138.1</ele><time>2026-07-29T00:00:00Z</time></trkpt>
<trkpt lat="37.821754000" lon="-121.977000000"><ele>139.1</ele><time>2026-07-29T00:00:00Z</time></trkpt>
<trkpt lat="37.821846000" lon="-121.976974000"><ele>140.3</ele><time>2026-07-29T00:00:00Z</time></trkpt>
<trkpt lat="37.821930000" lon="-121.976974000"><ele>141.4</ele><time>2026-07-29T00:00:00Z</time></trkpt>
<trkpt lat="37.822014000" lon="-121.976970000"><ele>142.5</ele><time>2026-07-29T00:00:00Z</time></trkpt>
<trkpt lat="37.822098000" lon="-121.976944000"><ele>143.5</ele><time>2026-07-29T00:00:00Z</time></trkpt>
<trkpt lat="37.822180000" lon="-121.976906000"><ele>144.7</ele><time>2026-07-29T00:00:00Z</time></trkpt>
<trkpt lat="37.822266000" lon="-121.976890000"><ele>145.7</ele><time>2026-07-29T00:00:00Z</time></trkpt>
<trkpt lat="37.822357000" lon="-121.976875000"><ele>146.7</ele><time>2026-07-29T00:00:00Z</time></trkpt>
<trkpt lat="37.822440000" lon="-121.976860000"><ele>147.8</ele><time>2026-07-29T00:00:00Z</time></trkpt>
<trkpt lat="37.822530000" lon="-121.976830000"><ele>148.7</ele><time>2026-07-29T00:00:00Z</time></trkpt>
<trkpt lat="37.822610000" lon="-121.976820000"><ele>149.4</ele><time>2026-07-29T00:00:00Z</time></trkpt>
<trkpt lat="37.822690000" lon="-121.976810000"><ele>149.7</ele><time>2026-07-29T00:00:00Z</time></trkpt>
<trkpt lat="37.822777000" lon="-121.976780000"><ele>149.9</ele><time>2026-07-29T00:00:00Z</time></trkpt>
<trkpt lat="37.822860000" lon="-121.976770000"><ele>150.0</ele><time>2026-07-29T00:00:00Z</time></trkpt>
<trkpt lat="37.822792000" lon="-121.976845000"><ele>149.9</ele><time>2026-07-29T00:00:00Z</time></trkpt>
<trkpt lat="37.822700000" lon="-121.976845000"><ele>149.6</ele><time>2026-07-29T00:00:00Z</time></trkpt>
<trkpt lat="37.822613000" lon="-121.976790000"><ele>149.3</ele><time>2026-07-29T00:00:00Z</time></trkpt>
<trkpt lat="37.822582000" lon="-121.976685000"><ele>148.8</ele><time>2026-07-29T00:00:00Z</time></trkpt>
<trkpt lat="37.822560000" lon="-121.976580000"><ele>148.3</ele><time>2026-07-29T00:00:00Z</time></trkpt>
<trkpt lat="37.822548000" lon="-121.976470000"><ele>147.5</ele><time>2026-07-29T00:00:00Z</time></trkpt>
<trkpt lat="37.822540000" lon="-121.976364000"><ele>146.9</ele><time>2026-07-29T00:00:00Z</time></trkpt>
<trkpt lat="37.822525000" lon="-121.976240000"><ele>146.5</ele><time>2026-07-29T00:00:00Z</time></trkpt>
<trkpt lat="37.822483000" lon="-121.976135000"><ele>146.3</ele><time>2026-07-29T00:00:00Z</time></trkpt>
<trkpt lat="37.822440000" lon="-121.976036000"><ele>146.2</ele><time>2026-07-29T00:00:00Z</time></trkpt>
<trkpt lat="37.822487000" lon="-121.975945000"><ele>146.3</ele><time>2026-07-29T00:00:00Z</time></trkpt>
<trkpt lat="37.822540000" lon="-121.975850000"><ele>146.5</ele><time>2026-07-29T00:00:00Z</time></trkpt>
<trkpt lat="37.822590000" lon="-121.975770000"><ele>146.8</ele><time>2026-07-29T00:00:00Z</time></trkpt>
<trkpt lat="37.822613000" lon="-121.975655000"><ele>147.3</ele><time>2026-07-29T00:00:00Z</time></trkpt>
<trkpt lat="37.822624000" lon="-121.975550000"><ele>147.8</ele><time>2026-07-29T00:00:00Z</time></trkpt>
<trkpt lat="37.822624000" lon="-121.975430000"><ele>148.4</ele><time>2026-07-29T00:00:00Z</time></trkpt>
<trkpt lat="37.822630000" lon="-121.975320000"><ele>149.0</ele><time>2026-07-29T00:00:00Z</time></trkpt>
<trkpt lat="37.822624000" lon="-121.975204000"><ele>149.5</ele><time>2026-07-29T00:00:00Z</time></trkpt>
<trkpt lat="37.822594000" lon="-121.975105000"><ele>150.0</ele><time>2026-07-29T00:00:00Z</time></trkpt>
<trkpt lat="37.822520000" lon="-121.975044000"><ele>150.3</ele><time>2026-07-29T00:00:00Z</time></trkpt>
<trkpt lat="37.822450000" lon="-121.974990000"><ele>150.4</ele><time>2026-07-29T00:00:00Z</time></trkpt>
<trkpt lat="37.822410000" lon="-121.974890000"><ele>150.4</ele><time>2026-07-29T00:00:00Z</time></trkpt>
<trkpt lat="37.822487000" lon="-121.974940000"><ele>150.3</ele><time>2026-07-29T00:00:00Z</time></trkpt>
<trkpt lat="37.822530000" lon="-121.975044000"><ele>150.0</ele><time>2026-07-29T00:00:00Z</time></trkpt>
<trkpt lat="37.822550000" lon="-121.975150000"><ele>149.5</ele><time>2026-07-29T00:00:00Z</time></trkpt>
<trkpt lat="37.822550000" lon="-121.975260000"><ele>149.0</ele><time>2026-07-29T00:00:00Z</time></trkpt>
<trkpt lat="37.822550000" lon="-121.975360000"><ele>148.5</ele><time>2026-07-29T00:00:00Z</time></trkpt>
<trkpt lat="37.822540000" lon="-121.975464000"><ele>147.7</ele><time>2026-07-29T00:00:00Z</time></trkpt>
<trkpt lat="37.822530000" lon="-121.975570000"><ele>147.1</ele><time>2026-07-29T00:00:00Z</time></trkpt>
<trkpt lat="37.822514000" lon="-121.975680000"><ele>146.5</ele><time>2026-07-29T00:00:00Z</time></trkpt>
<trkpt lat="37.822480000" lon="-121.975784000"><ele>145.9</ele><time>2026-07-29T00:00:00Z</time></trkpt>
<trkpt lat="37.822426000" lon="-121.975870000"><ele>145.4</ele><time>2026-07-29T00:00:00Z</time></trkpt>
<trkpt lat="37.822353000" lon="-121.975945000"><ele>144.8</ele><time>2026-07-29T00:00:00Z</time></trkpt>
<trkpt lat="37.822273000" lon="-121.975970000"><ele>144.4</ele><time>2026-07-29T00:00:00Z</time></trkpt>
<trkpt lat="37.822200000" lon="-121.975914000"><ele>144.0</ele><time>2026-07-29T00:00:00Z</time></trkpt>
<trkpt lat="37.822113000" lon="-121.975870000"><ele>143.6</ele><time>2026-07-29T00:00:00Z</time></trkpt>
<trkpt lat="37.822033000" lon="-121.975810000"><ele>143.4</ele><time>2026-07-29T00:00:00Z</time></trkpt>
<trkpt lat="37.821953000" lon="-121.975760000"><ele>143.1</ele><time>2026-07-29T00:00:00Z</time></trkpt>
<trkpt lat="37.821870000" lon="-121.975710000"><ele>142.8</ele><time>2026-07-29T00:00:00Z</time></trkpt>
<trkpt lat="37.821796000" lon="-121.975770000"><ele>142.5</ele><time>2026-07-29T00:00:00Z</time></trkpt>
<trkpt lat="37.821743000" lon="-121.975850000"><ele>142.0</ele><time>2026-07-29T00:00:00Z</time></trkpt>
<trkpt lat="37.821682000" lon="-121.975940000"><ele>141.4</ele><time>2026-07-29T00:00:00Z</time></trkpt>
<trkpt lat="37.821610000" lon="-121.975980000"><ele>140.7</ele><time>2026-07-29T00:00:00Z</time></trkpt>
<trkpt lat="37.821526000" lon="-121.976020000"><ele>140.0</ele><time>2026-07-29T00:00:00Z</time></trkpt>
<trkpt lat="37.821434000" lon="-121.976030000"><ele>139.3</ele><time>2026-07-29T00:00:00Z</time></trkpt>
<trkpt lat="37.821350000" lon="-121.976060000"><ele>138.5</ele><time>2026-07-29T00:00:00Z</time></trkpt>
<trkpt lat="37.821266000" lon="-121.976080000"><ele>137.7</ele><time>2026-07-29T00:00:00Z</time></trkpt>
<trkpt lat="37.821182000" lon="-121.976105000"><ele>137.0</ele><time>2026-07-29T00:00:00Z</time></trkpt>
<trkpt lat="37.821102000" lon="-121.976130000"><ele>136.3</ele><time>2026-07-29T00:00:00Z</time></trkpt>
<trkpt lat="37.821010000" lon="-121.976140000"><ele>135.5</ele><time>2026-07-29T00:00:00Z</time></trkpt>
<trkpt lat="37.820923000" lon="-121.976166000"><ele>134.9</ele><time>2026-07-29T00:00:00Z</time></trkpt>
<trkpt lat="37.820843000" lon="-121.976190000"><ele>134.5</ele><time>2026-07-29T00:00:00Z</time></trkpt>
<trkpt lat="37.820763000" lon="-121.976210000"><ele>134.2</ele><time>2026-07-29T00:00:00Z</time></trkpt>
<trkpt lat="37.820683000" lon="-121.976234000"><ele>134.0</ele><time>2026-07-29T00:00:00Z</time></trkpt>
<trkpt lat="37.820600000" lon="-121.976260000"><ele>133.9</ele><time>2026-07-29T00:00:00Z</time></trkpt>
<trkpt lat="37.820515000" lon="-121.976290000"><ele>133.8</ele><time>2026-07-29T00:00:00Z</time></trkpt>
<trkpt lat="37.820435000" lon="-121.976310000"><ele>133.8</ele><time>2026-07-29T00:00:00Z</time></trkpt>
<trkpt lat="37.820347000" lon="-121.976330000"><ele>133.8</ele><time>2026-07-29T00:00:00Z</time></trkpt>
<trkpt lat="37.820263000" lon="-121.976350000"><ele>133.7</ele><time>2026-07-29T00:00:00Z</time></trkpt>
<trkpt lat="37.820183000" lon="-121.976340000"><ele>133.6</ele><time>2026-07-29T00:00:00Z</time></trkpt>
<trkpt lat="37.820263000" lon="-121.976320000"><ele>133.6</ele><time>2026-07-29T00:00:00Z</time></trkpt>
<trkpt lat="37.820350000" lon="-121.976326000"><ele>133.7</ele><time>2026-07-29T00:00:00Z</time></trkpt>
<trkpt lat="37.820442000" lon="-121.976320000"><ele>133.7</ele><time>2026-07-29T00:00:00Z</time></trkpt>
<trkpt lat="37.820530000" lon="-121.976300000"><ele>133.7</ele><time>2026-07-29T00:00:00Z</time></trkpt>
<trkpt lat="37.820620000" lon="-121.976290000"><ele>133.8</ele><time>2026-07-29T00:00:00Z</time></trkpt>
<trkpt lat="37.820710000" lon="-121.976260000"><ele>133.9</ele><time>2026-07-29T00:00:00Z</time></trkpt>
<trkpt lat="37.820793000" lon="-121.976234000"><ele>134.2</ele><time>2026-07-29T00:00:00Z</time></trkpt>
<trkpt lat="37.820880000" lon="-121.976220000"><ele>134.5</ele><time>2026-07-29T00:00:00Z</time></trkpt>
<trkpt lat="37.820972000" lon="-121.976200000"><ele>135.1</ele><time>2026-07-29T00:00:00Z</time></trkpt>
<trkpt lat="37.821064000" lon="-121.976166000"><ele>135.8</ele><time>2026-07-29T00:00:00Z</time></trkpt>
<trkpt lat="37.821136000" lon="-121.976120000"><ele>136.5</ele><time>2026-07-29T00:00:00Z</time></trkpt>
<trkpt lat="37.821217000" lon="-121.976074000"><ele>137.4</ele><time>2026-07-29T00:00:00Z</time></trkpt>
<trkpt lat="37.821293000" lon="-121.976030000"><ele>138.1</ele><time>2026-07-29T00:00:00Z</time></trkpt>
<trkpt lat="37.821380000" lon="-121.976006000"><ele>138.9</ele><time>2026-07-29T00:00:00Z</time></trkpt>
<trkpt lat="37.821465000" lon="-121.975980000"><ele>139.8</ele><time>2026-07-29T00:00:00Z</time></trkpt>
<trkpt lat="37.821545000" lon="-121.975950000"><ele>140.6</ele><time>2026-07-29T00:00:00Z</time></trkpt>
<trkpt lat="37.821625000" lon="-121.975910000"><ele>141.5</ele><time>2026-07-29T00:00:00Z</time></trkpt>
<trkpt lat="37.821693000" lon="-121.975830000"><ele>142.3</ele><time>2026-07-29T00:00:00Z</time></trkpt>
<trkpt lat="37.821740000" lon="-121.975740000"><ele>143.0</ele><time>2026-07-29T00:00:00Z</time></trkpt>
<trkpt lat="37.821724000" lon="-121.975624000"><ele>143.6</ele><time>2026-07-29T00:00:00Z</time></trkpt>
<trkpt lat="37.821663000" lon="-121.975540000"><ele>144.2</ele><time>2026-07-29T00:00:00Z</time></trkpt>
<trkpt lat="37.821610000" lon="-121.975450000"><ele>144.8</ele><time>2026-07-29T00:00:00Z</time></trkpt>
<trkpt lat="37.821580000" lon="-121.975350000"><ele>145.4</ele><time>2026-07-29T00:00:00Z</time></trkpt>
<trkpt lat="37.821552000" lon="-121.975240000"><ele>145.9</ele><time>2026-07-29T00:00:00Z</time></trkpt>
<trkpt lat="37.821530000" lon="-121.975140000"><ele>146.4</ele><time>2026-07-29T00:00:00Z</time></trkpt>
<trkpt lat="37.821514000" lon="-121.975030000"><ele>146.8</ele><time>2026-07-29T00:00:00Z</time></trkpt>
<trkpt lat="37.821514000" lon="-121.974920000"><ele>147.4</ele><time>2026-07-29T00:00:00Z</time></trkpt>
<trkpt lat="37.821470000" lon="-121.974830000"><ele>147.8</ele><time>2026-07-29T00:00:00Z</time></trkpt>
<trkpt lat="37.821400000" lon="-121.974760000"><ele>148.4</ele><time>2026-07-29T00:00:00Z</time></trkpt>
<trkpt lat="37.821312000" lon="-121.974750000"><ele>148.9</ele><time>2026-07-29T00:00:00Z</time></trkpt>
<trkpt lat="37.821236000" lon="-121.974680000"><ele>149.5</ele><time>2026-07-29T00:00:00Z</time></trkpt>
<trkpt lat="37.821280000" lon="-121.974580000"><ele>150.1</ele><time>2026-07-29T00:00:00Z</time></trkpt>
<trkpt lat="37.821360000" lon="-121.974530000"><ele>150.8</ele><time>2026-07-29T00:00:00Z</time></trkpt>
<trkpt lat="37.821445000" lon="-121.974510000"><ele>151.5</ele><time>2026-07-29T00:00:00Z</time></trkpt>
<trkpt lat="37.821533000" lon="-121.974490000"><ele>152.2</ele><time>2026-07-29T00:00:00Z</time></trkpt>
<trkpt lat="37.821630000" lon="-121.974480000"><ele>152.8</ele><time>2026-07-29T00:00:00Z</time></trkpt>
<trkpt lat="37.821716000" lon="-121.974470000"><ele>153.4</ele><time>2026-07-29T00:00:00Z</time></trkpt>
<trkpt lat="37.821747000" lon="-121.974370000"><ele>153.9</ele><time>2026-07-29T00:00:00Z</time></trkpt>
<trkpt lat="37.821667000" lon="-121.974330000"><ele>154.6</ele><time>2026-07-29T00:00:00Z</time></trkpt>
<trkpt lat="37.821580000" lon="-121.974330000"><ele>155.3</ele><time>2026-07-29T00:00:00Z</time></trkpt>
<trkpt lat="37.821500000" lon="-121.974290000"><ele>155.8</ele><time>2026-07-29T00:00:00Z</time></trkpt>
<trkpt lat="37.821404000" lon="-121.974290000"><ele>156.4</ele><time>2026-07-29T00:00:00Z</time></trkpt>
<trkpt lat="37.821323000" lon="-121.974240000"><ele>156.8</ele><time>2026-07-29T00:00:00Z</time></trkpt>
<trkpt lat="37.821312000" lon="-121.974130000"><ele>157.1</ele><time>2026-07-29T00:00:00Z</time></trkpt>
<trkpt lat="37.821255000" lon="-121.974045000"><ele>157.4</ele><time>2026-07-29T00:00:00Z</time></trkpt>
<trkpt lat="37.821243000" lon="-121.973940000"><ele>157.8</ele><time>2026-07-29T00:00:00Z</time></trkpt>
<trkpt lat="37.821266000" lon="-121.973820000"><ele>158.3</ele><time>2026-07-29T00:00:00Z</time></trkpt>
<trkpt lat="37.821262000" lon="-121.973710000"><ele>158.7</ele><time>2026-07-29T00:00:00Z</time></trkpt>
<trkpt lat="37.821285000" lon="-121.973595000"><ele>159.1</ele><time>2026-07-29T00:00:00Z</time></trkpt>
<trkpt lat="37.821327000" lon="-121.973500000"><ele>159.3</ele><time>2026-07-29T00:00:00Z</time></trkpt>
<trkpt lat="37.821358000" lon="-121.973404000"><ele>159.5</ele><time>2026-07-29T00:00:00Z</time></trkpt>
<trkpt lat="37.821354000" lon="-121.973280000"><ele>159.6</ele><time>2026-07-29T00:00:00Z</time></trkpt>
<trkpt lat="37.821316000" lon="-121.973190000"><ele>159.6</ele><time>2026-07-29T00:00:00Z</time></trkpt>
<trkpt lat="37.821290000" lon="-121.973090000"><ele>159.6</ele><time>2026-07-29T00:00:00Z</time></trkpt>
<trkpt lat="37.821255000" lon="-121.972990000"><ele>159.5</ele><time>2026-07-29T00:00:00Z</time></trkpt>
<trkpt lat="37.821224000" lon="-121.972885000"><ele>159.4</ele><time>2026-07-29T00:00:00Z</time></trkpt>
<trkpt lat="37.821190000" lon="-121.972786000"><ele>159.1</ele><time>2026-07-29T00:00:00Z</time></trkpt>
<trkpt lat="37.821175000" lon="-121.972690000"><ele>158.8</ele><time>2026-07-29T00:00:00Z</time></trkpt>
<trkpt lat="37.821156000" lon="-121.972570000"><ele>158.5</ele><time>2026-07-29T00:00:00Z</time></trkpt>
<trkpt lat="37.821110000" lon="-121.972450000"><ele>158.3</ele><time>2026-07-29T00:00:00Z</time></trkpt>
<trkpt lat="37.821087000" lon="-121.972336000"><ele>157.9</ele><time>2026-07-29T00:00:00Z</time></trkpt>
<trkpt lat="37.821060000" lon="-121.972244000"><ele>157.5</ele><time>2026-07-29T00:00:00Z</time></trkpt>
<trkpt lat="37.820984000" lon="-121.972280000"><ele>157.0</ele><time>2026-07-29T00:00:00Z</time></trkpt>
<trkpt lat="37.820904000" lon="-121.972330000"><ele>156.5</ele><time>2026-07-29T00:00:00Z</time></trkpt>
<trkpt lat="37.820820000" lon="-121.972350000"><ele>156.1</ele><time>2026-07-29T00:00:00Z</time></trkpt>
<trkpt lat="37.820736000" lon="-121.972370000"><ele>155.7</ele><time>2026-07-29T00:00:00Z</time></trkpt>
<trkpt lat="37.820698000" lon="-121.972460000"><ele>155.4</ele><time>2026-07-29T00:00:00Z</time></trkpt>
<trkpt lat="37.820683000" lon="-121.972570000"><ele>154.9</ele><time>2026-07-29T00:00:00Z</time></trkpt>
<trkpt lat="37.820667000" lon="-121.972680000"><ele>154.3</ele><time>2026-07-29T00:00:00Z</time></trkpt>
<trkpt lat="37.820660000" lon="-121.972786000"><ele>153.6</ele><time>2026-07-29T00:00:00Z</time></trkpt>
<trkpt lat="37.820650000" lon="-121.972885000"><ele>152.9</ele><time>2026-07-29T00:00:00Z</time></trkpt>
<trkpt lat="37.820633000" lon="-121.972990000"><ele>152.2</ele><time>2026-07-29T00:00:00Z</time></trkpt>
<trkpt lat="37.820587000" lon="-121.973080000"><ele>151.4</ele><time>2026-07-29T00:00:00Z</time></trkpt>
<trkpt lat="37.820526000" lon="-121.973010000"><ele>150.5</ele><time>2026-07-29T00:00:00Z</time></trkpt>
<trkpt lat="37.820480000" lon="-121.972920000"><ele>149.7</ele><time>2026-07-29T00:00:00Z</time></trkpt>
<trkpt lat="37.820435000" lon="-121.972824000"><ele>148.8</ele><time>2026-07-29T00:00:00Z</time></trkpt>
<trkpt lat="37.820377000" lon="-121.972755000"><ele>147.9</ele><time>2026-07-29T00:00:00Z</time></trkpt>
<trkpt lat="37.820297000" lon="-121.972780000"><ele>147.0</ele><time>2026-07-29T00:00:00Z</time></trkpt>
<trkpt lat="37.820213000" lon="-121.972780000"><ele>146.2</ele><time>2026-07-29T00:00:00Z</time></trkpt>
<trkpt lat="37.820126000" lon="-121.972786000"><ele>145.5</ele><time>2026-07-29T00:00:00Z</time></trkpt>
<trkpt lat="37.820040000" lon="-121.972820000"><ele>144.6</ele><time>2026-07-29T00:00:00Z</time></trkpt>
<trkpt lat="37.819960000" lon="-121.972840000"><ele>143.8</ele><time>2026-07-29T00:00:00Z</time></trkpt>
<trkpt lat="37.819878000" lon="-121.972860000"><ele>143.0</ele><time>2026-07-29T00:00:00Z</time></trkpt>
<trkpt lat="37.819798000" lon="-121.972885000"><ele>142.4</ele><time>2026-07-29T00:00:00Z</time></trkpt>
<trkpt lat="37.819706000" lon="-121.972920000"><ele>141.7</ele><time>2026-07-29T00:00:00Z</time></trkpt>
<trkpt lat="37.819622000" lon="-121.972970000"><ele>141.1</ele><time>2026-07-29T00:00:00Z</time></trkpt>
<trkpt lat="37.819540000" lon="-121.973015000"><ele>140.5</ele><time>2026-07-29T00:00:00Z</time></trkpt>
<trkpt lat="37.819450000" lon="-121.973000000"><ele>139.9</ele><time>2026-07-29T00:00:00Z</time></trkpt>
<trkpt lat="37.819370000" lon="-121.972940000"><ele>139.3</ele><time>2026-07-29T00:00:00Z</time></trkpt>
<trkpt lat="37.819320000" lon="-121.972850000"><ele>138.6</ele><time>2026-07-29T00:00:00Z</time></trkpt>
<trkpt lat="37.819267000" lon="-121.972760000"><ele>138.0</ele><time>2026-07-29T00:00:00Z</time></trkpt>
<trkpt lat="37.819202000" lon="-121.972694000"><ele>137.5</ele><time>2026-07-29T00:00:00Z</time></trkpt>
<trkpt lat="37.819153000" lon="-121.972595000"><ele>137.0</ele><time>2026-07-29T00:00:00Z</time></trkpt>
<trkpt lat="37.819110000" lon="-121.972510000"><ele>136.5</ele><time>2026-07-29T00:00:00Z</time></trkpt>
<trkpt lat="37.819060000" lon="-121.972420000"><ele>136.1</ele><time>2026-07-29T00:00:00Z</time></trkpt>
<trkpt lat="37.819016000" lon="-121.972320000"><ele>135.7</ele><time>2026-07-29T00:00:00Z</time></trkpt>
<trkpt lat="37.818960000" lon="-121.972230000"><ele>135.5</ele><time>2026-07-29T00:00:00Z</time></trkpt>
<trkpt lat="37.818910000" lon="-121.972140000"><ele>135.1</ele><time>2026-07-29T00:00:00Z</time></trkpt>
<trkpt lat="37.818855000" lon="-121.972046000"><ele>134.8</ele><time>2026-07-29T00:00:00Z</time></trkpt>
<trkpt lat="37.818810000" lon="-121.971954000"><ele>134.6</ele><time>2026-07-29T00:00:00Z</time></trkpt>
<trkpt lat="37.818764000" lon="-121.971860000"><ele>134.5</ele><time>2026-07-29T00:00:00Z</time></trkpt>
<trkpt lat="37.818720000" lon="-121.971760000"><ele>134.3</ele><time>2026-07-29T00:00:00Z</time></trkpt>
<trkpt lat="37.818660000" lon="-121.971695000"><ele>134.1</ele><time>2026-07-29T00:00:00Z</time></trkpt>
<trkpt lat="37.818577000" lon="-121.971740000"><ele>133.9</ele><time>2026-07-29T00:00:00Z</time></trkpt>
<trkpt lat="37.818510000" lon="-121.971800000"><ele>133.9</ele><time>2026-07-29T00:00:00Z</time></trkpt>
<trkpt lat="37.818430000" lon="-121.971870000"><ele>133.9</ele><time>2026-07-29T00:00:00Z</time></trkpt>
<trkpt lat="37.818363000" lon="-121.971940000"><ele>133.9</ele><time>2026-07-29T00:00:00Z</time></trkpt>
<trkpt lat="37.818348000" lon="-121.972046000"><ele>133.9</ele><time>2026-07-29T00:00:00Z</time></trkpt>
<trkpt lat="37.818398000" lon="-121.972130000"><ele>134.0</ele><time>2026-07-29T00:00:00Z</time></trkpt>
<trkpt lat="37.818443000" lon="-121.972230000"><ele>134.2</ele><time>2026-07-29T00:00:00Z</time></trkpt>
<trkpt lat="37.818497000" lon="-121.972320000"><ele>134.4</ele><time>2026-07-29T00:00:00Z</time></trkpt>
<trkpt lat="37.818550000" lon="-121.972410000"><ele>134.6</ele><time>2026-07-29T00:00:00Z</time></trkpt>
<trkpt lat="37.818592000" lon="-121.972500000"><ele>135.1</ele><time>2026-07-29T00:00:00Z</time></trkpt>
<trkpt lat="37.818640000" lon="-121.972595000"><ele>135.5</ele><time>2026-07-29T00:00:00Z</time></trkpt>
<trkpt lat="37.818687000" lon="-121.972680000"><ele>136.1</ele><time>2026-07-29T00:00:00Z</time></trkpt>
<trkpt lat="37.818740000" lon="-121.972770000"><ele>136.5</ele><time>2026-07-29T00:00:00Z</time></trkpt>
<trkpt lat="37.818790000" lon="-121.972860000"><ele>137.1</ele><time>2026-07-29T00:00:00Z</time></trkpt>
<trkpt lat="37.818848000" lon="-121.972950000"><ele>137.5</ele><time>2026-07-29T00:00:00Z</time></trkpt>
<trkpt lat="37.818905000" lon="-121.973040000"><ele>138.0</ele><time>2026-07-29T00:00:00Z</time></trkpt>
<trkpt lat="37.818950000" lon="-121.973130000"><ele>138.5</ele><time>2026-07-29T00:00:00Z</time></trkpt>
<trkpt lat="37.819016000" lon="-121.973200000"><ele>139.0</ele><time>2026-07-29T00:00:00Z</time></trkpt>
<trkpt lat="37.819054000" lon="-121.973305000"><ele>139.5</ele><time>2026-07-29T00:00:00Z</time></trkpt>
<trkpt lat="37.819110000" lon="-121.973390000"><ele>140.1</ele><time>2026-07-29T00:00:00Z</time></trkpt>
<trkpt lat="37.819150000" lon="-121.973480000"><ele>140.5</ele><time>2026-07-29T00:00:00Z</time></trkpt>
<trkpt lat="37.819183000" lon="-121.973580000"><ele>141.1</ele><time>2026-07-29T00:00:00Z</time></trkpt>
<trkpt lat="37.819225000" lon="-121.973670000"><ele>141.5</ele><time>2026-07-29T00:00:00Z</time></trkpt>
<trkpt lat="37.819260000" lon="-121.973770000"><ele>142.0</ele><time>2026-07-29T00:00:00Z</time></trkpt>
<trkpt lat="37.819290000" lon="-121.973870000"><ele>142.4</ele><time>2026-07-29T00:00:00Z</time></trkpt>
<trkpt lat="37.819330000" lon="-121.973976000"><ele>142.7</ele><time>2026-07-29T00:00:00Z</time></trkpt>
<trkpt lat="37.819363000" lon="-121.974080000"><ele>143.1</ele><time>2026-07-29T00:00:00Z</time></trkpt>
<trkpt lat="37.819393000" lon="-121.974180000"><ele>143.4</ele><time>2026-07-29T00:00:00Z</time></trkpt>
<trkpt lat="37.819424000" lon="-121.974290000"><ele>143.6</ele><time>2026-07-29T00:00:00Z</time></trkpt>
<trkpt lat="37.819450000" lon="-121.974390000"><ele>143.7</ele><time>2026-07-29T00:00:00Z</time></trkpt>
<trkpt lat="37.819470000" lon="-121.974490000"><ele>143.7</ele><time>2026-07-29T00:00:00Z</time></trkpt>
<trkpt lat="37.819492000" lon="-121.974594000"><ele>143.7</ele><time>2026-07-29T00:00:00Z</time></trkpt>
<trkpt lat="37.819504000" lon="-121.974710000"><ele>143.6</ele><time>2026-07-29T00:00:00Z</time></trkpt>
<trkpt lat="37.819515000" lon="-121.974815000"><ele>143.5</ele><time>2026-07-29T00:00:00Z</time></trkpt>
<trkpt lat="37.819515000" lon="-121.974930000"><ele>143.5</ele><time>2026-07-29T00:00:00Z</time></trkpt>
<trkpt lat="37.819530000" lon="-121.975044000"><ele>143.3</ele><time>2026-07-29T00:00:00Z</time></trkpt>
<trkpt lat="37.819570000" lon="-121.975160000"><ele>143.1</ele><time>2026-07-29T00:00:00Z</time></trkpt>
<trkpt lat="37.819572000" lon="-121.975260000"><ele>142.8</ele><time>2026-07-29T00:00:00Z</time></trkpt>
<trkpt lat="37.819572000" lon="-121.975370000"><ele>142.5</ele><time>2026-07-29T00:00:00Z</time></trkpt>
<trkpt lat="37.819607000" lon="-121.975480000"><ele>142.0</ele><time>2026-07-29T00:00:00Z</time></trkpt>
<trkpt lat="37.819610000" lon="-121.975580000"><ele>141.5</ele><time>2026-07-29T00:00:00Z</time></trkpt>
<trkpt lat="37.819626000" lon="-121.975685000"><ele>140.9</ele><time>2026-07-29T00:00:00Z</time></trkpt>
<trkpt lat="37.819637000" lon="-121.975790000"><ele>140.3</ele><time>2026-07-29T00:00:00Z</time></trkpt>
<trkpt lat="37.819650000" lon="-121.975900000"><ele>139.6</ele><time>2026-07-29T00:00:00Z</time></trkpt>
<trkpt lat="37.819668000" lon="-121.976000000"><ele>139.0</ele><time>2026-07-29T00:00:00Z</time></trkpt>
<trkpt lat="37.819717000" lon="-121.976090000"><ele>138.4</ele><time>2026-07-29T00:00:00Z</time></trkpt>
<trkpt lat="37.819730000" lon="-121.976204000"><ele>137.7</ele><time>2026-07-29T00:00:00Z</time></trkpt>
<trkpt lat="37.819730000" lon="-121.976300000"><ele>137.1</ele><time>2026-07-29T00:00:00Z</time></trkpt>
<trkpt lat="37.819736000" lon="-121.976410000"><ele>136.5</ele><time>2026-07-29T00:00:00Z</time></trkpt>
<trkpt lat="37.819744000" lon="-121.976524000"><ele>136.0</ele><time>2026-07-29T00:00:00Z</time></trkpt>
<trkpt lat="37.819750000" lon="-121.976630000"><ele>135.5</ele><time>2026-07-29T00:00:00Z</time></trkpt>
<trkpt lat="37.819770000" lon="-121.976740000"><ele>135.2</ele><time>2026-07-29T00:00:00Z</time></trkpt>
<trkpt lat="37.819750000" lon="-121.976850000"><ele>134.7</ele><time>2026-07-29T00:00:00Z</time></trkpt>
<trkpt lat="37.819744000" lon="-121.976970000"><ele>134.4</ele><time>2026-07-29T00:00:00Z</time></trkpt>
<trkpt lat="37.819760000" lon="-121.977070000"><ele>133.9</ele><time>2026-07-29T00:00:00Z</time></trkpt>
<trkpt lat="37.819750000" lon="-121.977196000"><ele>133.5</ele><time>2026-07-29T00:00:00Z</time></trkpt>
<trkpt lat="37.819750000" lon="-121.977310000"><ele>133.0</ele><time>2026-07-29T00:00:00Z</time></trkpt>
<trkpt lat="37.819744000" lon="-121.977425000"><ele>132.5</ele><time>2026-07-29T00:00:00Z</time></trkpt>
<trkpt lat="37.819763000" lon="-121.977520000"><ele>132.1</ele><time>2026-07-29T00:00:00Z</time></trkpt>
<trkpt lat="37.819775000" lon="-121.977630000"><ele>131.5</ele><time>2026-07-29T00:00:00Z</time></trkpt>
<trkpt lat="37.819736000" lon="-121.977730000"><ele>131.1</ele><time>2026-07-29T00:00:00Z</time></trkpt>
<trkpt lat="37.819750000" lon="-121.977840000"><ele>130.6</ele><time>2026-07-29T00:00:00Z</time></trkpt>
<trkpt lat="37.819748000" lon="-121.977970000"><ele>130.3</ele><time>2026-07-29T00:00:00Z</time></trkpt>
<trkpt lat="37.819756000" lon="-121.978070000"><ele>129.9</ele><time>2026-07-29T00:00:00Z</time></trkpt>
<trkpt lat="37.819760000" lon="-121.978195000"><ele>129.5</ele><time>2026-07-29T00:00:00Z</time></trkpt>
<trkpt lat="37.819775000" lon="-121.978310000"><ele>129.3</ele><time>2026-07-29T00:00:00Z</time></trkpt>
<trkpt lat="37.819790000" lon="-121.978430000"><ele>128.9</ele><time>2026-07-29T00:00:00Z</time></trkpt>
<trkpt lat="37.819800000" lon="-121.978550000"><ele>128.5</ele><time>2026-07-29T00:00:00Z</time></trkpt>
<trkpt lat="37.819820000" lon="-121.978670000"><ele>128.3</ele><time>2026-07-29T00:00:00Z</time></trkpt>
<trkpt lat="37.819836000" lon="-121.978780000"><ele>127.9</ele><time>2026-07-29T00:00:00Z</time></trkpt>
<trkpt lat="37.819850000" lon="-121.978905000"><ele>127.6</ele><time>2026-07-29T00:00:00Z</time></trkpt>
<trkpt lat="37.819855000" lon="-121.979020000"><ele>127.3</ele><time>2026-07-29T00:00:00Z</time></trkpt>
<trkpt lat="37.819870000" lon="-121.979140000"><ele>126.9</ele><time>2026-07-29T00:00:00Z</time></trkpt>
<trkpt lat="37.819880000" lon="-121.979250000"><ele>126.5</ele><time>2026-07-29T00:00:00Z</time></trkpt>
<trkpt lat="37.819910000" lon="-121.979360000"><ele>126.3</ele><time>2026-07-29T00:00:00Z</time></trkpt>
<trkpt lat="37.819935000" lon="-121.979485000"><ele>126.0</ele><time>2026-07-29T00:00:00Z</time></trkpt>
<trkpt lat="37.819946000" lon="-121.979600000"><ele>125.6</ele><time>2026-07-29T00:00:00Z</time></trkpt>
<trkpt lat="37.819970000" lon="-121.979710000"><ele>125.4</ele><time>2026-07-29T00:00:00Z</time></trkpt>
<trkpt lat="37.819990000" lon="-121.979810000"><ele>125.1</ele><time>2026-07-29T00:00:00Z</time></trkpt>
<trkpt lat="37.820023000" lon="-121.979930000"><ele>124.8</ele><time>2026-07-29T00:00:00Z</time></trkpt>
<trkpt lat="37.820070000" lon="-121.980034000"><ele>124.5</ele><time>2026-07-29T00:00:00Z</time></trkpt>
<trkpt lat="37.820114000" lon="-121.980140000"><ele>124.2</ele><time>2026-07-29T00:00:00Z</time></trkpt>
<trkpt lat="37.820150000" lon="-121.980255000"><ele>123.9</ele><time>2026-07-29T00:00:00Z</time></trkpt>
<trkpt lat="37.820183000" lon="-121.980360000"><ele>123.6</ele><time>2026-07-29T00:00:00Z</time></trkpt>
<trkpt lat="37.820225000" lon="-121.980470000"><ele>123.4</ele><time>2026-07-29T00:00:00Z</time></trkpt>
<trkpt lat="37.820263000" lon="-121.980570000"><ele>123.1</ele><time>2026-07-29T00:00:00Z</time></trkpt>
<trkpt lat="37.820312000" lon="-121.980670000"><ele>122.7</ele><time>2026-07-29T00:00:00Z</time></trkpt>
<trkpt lat="37.820360000" lon="-121.980774000"><ele>122.4</ele><time>2026-07-29T00:00:00Z</time></trkpt>
<trkpt lat="37.820400000" lon="-121.980880000"><ele>122.0</ele><time>2026-07-29T00:00:00Z</time></trkpt>
<trkpt lat="37.820442000" lon="-121.980970000"><ele>121.6</ele><time>2026-07-29T00:00:00Z</time></trkpt>
<trkpt lat="37.820477000" lon="-121.981064000"><ele>121.2</ele><time>2026-07-29T00:00:00Z</time></trkpt>
<trkpt lat="37.820522000" lon="-121.981170000"><ele>120.8</ele><time>2026-07-29T00:00:00Z</time></trkpt>
<trkpt lat="37.820564000" lon="-121.981270000"><ele>120.5</ele><time>2026-07-29T00:00:00Z</time></trkpt>
<trkpt lat="37.820580000" lon="-121.981380000"><ele>120.4</ele><time>2026-07-29T00:00:00Z</time></trkpt>
<trkpt lat="37.820652000" lon="-121.981420000"><ele>120.2</ele><time>2026-07-29T00:00:00Z</time></trkpt>
<trkpt lat="37.820736000" lon="-121.981370000"><ele>120.0</ele><time>2026-07-29T00:00:00Z</time></trkpt>
<trkpt lat="37.820820000" lon="-121.981320000"><ele>119.8</ele><time>2026-07-29T00:00:00Z</time></trkpt>
<trkpt lat="37.820904000" lon="-121.981270000"><ele>119.7</ele><time>2026-07-29T00:00:00Z</time></trkpt>
<trkpt lat="37.820984000" lon="-121.981220000"><ele>119.8</ele><time>2026-07-29T00:00:00Z</time></trkpt>
<trkpt lat="37.821070000" lon="-121.981170000"><ele>119.9</ele><time>2026-07-29T00:00:00Z</time></trkpt>
<trkpt lat="37.821150000" lon="-121.981110000"><ele>120.0</ele><time>2026-07-29T00:00:00Z</time></trkpt>
<trkpt lat="37.821224000" lon="-121.981030000"><ele>120.2</ele><time>2026-07-29T00:00:00Z</time></trkpt>
<trkpt lat="37.821285000" lon="-121.980940000"><ele>120.4</ele><time>2026-07-29T00:00:00Z</time></trkpt>
<trkpt lat="37.821285000" lon="-121.980835000"><ele>120.5</ele><time>2026-07-29T00:00:00Z</time></trkpt>
<trkpt lat="37.821240000" lon="-121.980740000"><ele>120.6</ele><time>2026-07-29T00:00:00Z</time></trkpt>
<trkpt lat="37.821205000" lon="-121.980650000"><ele>120.8</ele><time>2026-07-29T00:00:00Z</time></trkpt>
<trkpt lat="37.821167000" lon="-121.980545000"><ele>121.0</ele><time>2026-07-29T00:00:00Z</time></trkpt>
<trkpt lat="37.821125000" lon="-121.980446000"><ele>121.2</ele><time>2026-07-29T00:00:00Z</time></trkpt>
<trkpt lat="37.821075000" lon="-121.980350000"><ele>121.4</ele><time>2026-07-29T00:00:00Z</time></trkpt>
<trkpt lat="37.821033000" lon="-121.980250000"><ele>121.4</ele><time>2026-07-29T00:00:00Z</time></trkpt>
<trkpt lat="37.820953000" lon="-121.980225000"><ele>121.4</ele><time>2026-07-29T00:00:00Z</time></trkpt>
<trkpt lat="37.820885000" lon="-121.980280000"><ele>121.5</ele><time>2026-07-29T00:00:00Z</time></trkpt>
<trkpt lat="37.820812000" lon="-121.980320000"><ele>121.6</ele><time>2026-07-29T00:00:00Z</time></trkpt>
<trkpt lat="37.820780000" lon="-121.980370000"><ele>121.7</ele><time>2026-07-29T00:00:00Z</time></trkpt>
</trkseg>
</trk>
</gpx>
