<?xml version="1.0" encoding="UTF-8"?>
<gpx
  version="1.1"
  creator="Runkeeper - http://www.runkeeper.com"
  xmlns:xsi="http://www.w3.org/2001/XMLSchema-instance"
  xmlns="http://www.topografix.com/GPX/1/1"
  xsi:schemaLocation="http://www.topografix.com/GPX/1/1 http://www.topografix.com/GPX/1/1/gpx.xsd"
  xmlns:gpxtpx="http://www.garmin.com/xmlschemas/TrackPointExtension/v1">
<trk>
  <name><![CDATA[Walking 8/5/26]]></name>
  <time>2026-08-06T00:00:00Z</time>
<trkseg>
<trkpt lat="37.820370000" lon="-122.000755000"><ele>111.0</ele><time>2026-08-06T00:00:00Z</time></trkpt>
<trkpt lat="37.820430000" lon="-122.000824000"><ele>111.0</ele><time>2026-08-06T00:00:00Z</time></trkpt>
<trkpt lat="37.820480000" lon="-122.000900000"><ele>111.0</ele><time>2026-08-06T00:00:00Z</time></trkpt>
<trkpt lat="37.820446000" lon="-122.001000000"><ele>111.0</ele><time>2026-08-06T00:00:00Z</time></trkpt>
<trkpt lat="37.820366000" lon="-122.001040000"><ele>111.0</ele><time>2026-08-06T00:00:00Z</time></trkpt>
<trkpt lat="37.820280000" lon="-122.001076000"><ele>111.0</ele><time>2026-08-06T00:00:00Z</time></trkpt>
<trkpt lat="37.820198000" lon="-122.001110000"><ele>111.0</ele><time>2026-08-06T00:00:00Z</time></trkpt>
<trkpt lat="37.820126000" lon="-122.001170000"><ele>111.0</ele><time>2026-08-06T00:00:00Z</time></trkpt>
<trkpt lat="37.820038000" lon="-122.001170000"><ele>111.0</ele><time>2026-08-06T00:00:00Z</time></trkpt>
<trkpt lat="37.819973000" lon="-122.001100000"><ele>111.1</ele><time>2026-08-06T00:00:00Z</time></trkpt>
<trkpt lat="37.819923000" lon="-122.001000000"><ele>111.2</ele><time>2026-08-06T00:00:00Z</time></trkpt>
<trkpt lat="37.819866000" lon="-122.000916000"><ele>111.3</ele><time>2026-08-06T00:00:00Z</time></trkpt>
<trkpt lat="37.819810000" lon="-122.000824000"><ele>111.4</ele><time>2026-08-06T00:00:00Z</time></trkpt>
<trkpt lat="37.819763000" lon="-122.000730000"><ele>111.5</ele><time>2026-08-06T00:00:00Z</time></trkpt>
<trkpt lat="37.819706000" lon="-122.000656000"><ele>111.5</ele><time>2026-08-06T00:00:00Z</time></trkpt>
<trkpt lat="37.819645000" lon="-122.000570000"><ele>111.6</ele><time>2026-08-06T00:00:00Z</time></trkpt>
<trkpt lat="37.819603000" lon="-122.000480000"><ele>111.7</ele><time>2026-08-06T00:00:00Z</time></trkpt>
<trkpt lat="37.819550000" lon="-122.000400000"><ele>111.8</ele><time>2026-08-06T00:00:00Z</time></trkpt>
<trkpt lat="37.819500000" lon="-122.000310000"><ele>111.9</ele><time>2026-08-06T00:00:00Z</time></trkpt>
<trkpt lat="37.819450000" lon="-122.000220000"><ele>112.0</ele><time>2026-08-06T00:00:00Z</time></trkpt>
<trkpt lat="37.819397000" lon="-122.000140000"><ele>112.0</ele><time>2026-08-06T00:00:00Z</time></trkpt>
<trkpt lat="37.819350000" lon="-122.000040000"><ele>112.0</ele><time>2026-08-06T00:00:00Z</time></trkpt>
<trkpt lat="37.819320000" lon="-121.999940000"><ele>112.0</ele><time>2026-08-06T00:00:00Z</time></trkpt>
<trkpt lat="37.819270000" lon="-121.999840000"><ele>112.0</ele><time>2026-08-06T00:00:00Z</time></trkpt>
<trkpt lat="37.819214000" lon="-121.999756000"><ele>112.0</ele><time>2026-08-06T00:00:00Z</time></trkpt>
<trkpt lat="37.819164000" lon="-121.999670000"><ele>112.0</ele><time>2026-08-06T00:00:00Z</time></trkpt>
<trkpt lat="37.819110000" lon="-121.999590000"><ele>112.0</ele><time>2026-08-06T00:00:00Z</time></trkpt>
<trkpt lat="37.819057000" lon="-121.999504000"><ele>112.1</ele><time>2026-08-06T00:00:00Z</time></trkpt>
<trkpt lat="37.819004000" lon="-121.999420000"><ele>112.2</ele><time>2026-08-06T00:00:00Z</time></trkpt>
<trkpt lat="37.818940000" lon="-121.999344000"><ele>112.3</ele><time>2026-08-06T00:00:00Z</time></trkpt>
<trkpt lat="37.818905000" lon="-121.999230000"><ele>112.4</ele><time>2026-08-06T00:00:00Z</time></trkpt>
<trkpt lat="37.818840000" lon="-121.999170000"><ele>112.5</ele><time>2026-08-06T00:00:00Z</time></trkpt>
<trkpt lat="37.818783000" lon="-121.999080000"><ele>112.5</ele><time>2026-08-06T00:00:00Z</time></trkpt>
<trkpt lat="37.818718000" lon="-121.999000000"><ele>112.7</ele><time>2026-08-06T00:00:00Z</time></trkpt>
<trkpt lat="37.818665000" lon="-121.998920000"><ele>112.9</ele><time>2026-08-06T00:00:00Z</time></trkpt>
<trkpt lat="37.818600000" lon="-121.998830000"><ele>113.1</ele><time>2026-08-06T00:00:00Z</time></trkpt>
<trkpt lat="37.818546000" lon="-121.998740000"><ele>113.3</ele><time>2026-08-06T00:00:00Z</time></trkpt>
<trkpt lat="37.818497000" lon="-121.998640000"><ele>113.5</ele><time>2026-08-06T00:00:00Z</time></trkpt>
<trkpt lat="37.818440000" lon="-121.998566000"><ele>113.6</ele><time>2026-08-06T00:00:00Z</time></trkpt>
<trkpt lat="37.818382000" lon="-121.998474000"><ele>113.8</ele><time>2026-08-06T00:00:00Z</time></trkpt>
<trkpt lat="37.818333000" lon="-121.998375000"><ele>114.0</ele><time>2026-08-06T00:00:00Z</time></trkpt>
<trkpt lat="37.818268000" lon="-121.998290000"><ele>114.2</ele><time>2026-08-06T00:00:00Z</time></trkpt>
<trkpt lat="37.818207000" lon="-121.998210000"><ele>114.4</ele><time>2026-08-06T00:00:00Z</time></trkpt>
<trkpt lat="37.818157000" lon="-121.998130000"><ele>114.5</ele><time>2026-08-06T00:00:00Z</time></trkpt>
<trkpt lat="37.818108000" lon="-121.998050000"><ele>114.6</ele><time>2026-08-06T00:00:00Z</time></trkpt>
<trkpt lat="37.818060000" lon="-121.997940000"><ele>114.7</ele><time>2026-08-06T00:00:00Z</time></trkpt>
<trkpt lat="37.818010000" lon="-121.997860000"><ele>114.8</ele><time>2026-08-06T00:00:00Z</time></trkpt>
<trkpt lat="37.817955000" lon="-121.997765000"><ele>114.9</ele><time>2026-08-06T00:00:00Z</time></trkpt>
<trkpt lat="37.817905000" lon="-121.997690000"><ele>115.1</ele><time>2026-08-06T00:00:00Z</time></trkpt>
<trkpt lat="37.817844000" lon="-121.997600000"><ele>115.2</ele><time>2026-08-06T00:00:00Z</time></trkpt>
<trkpt lat="37.817800000" lon="-121.997505000"><ele>115.2</ele><time>2026-08-06T00:00:00Z</time></trkpt>
<trkpt lat="37.817753000" lon="-121.997406000"><ele>115.2</ele><time>2026-08-06T00:00:00Z</time></trkpt>
<trkpt lat="37.817690000" lon="-121.997320000"><ele>115.2</ele><time>2026-08-06T00:00:00Z</time></trkpt>
<trkpt lat="37.817620000" lon="-121.997290000"><ele>115.2</ele><time>2026-08-06T00:00:00Z</time></trkpt>
<trkpt lat="37.817577000" lon="-121.997200000"><ele>115.2</ele><time>2026-08-06T00:00:00Z</time></trkpt>
<trkpt lat="37.817585000" lon="-121.997090000"><ele>115.2</ele><time>2026-08-06T00:00:00Z</time></trkpt>
<trkpt lat="37.817596000" lon="-121.996980000"><ele>115.2</ele><time>2026-08-06T00:00:00Z</time></trkpt>
<trkpt lat="37.817610000" lon="-121.996880000"><ele>115.3</ele><time>2026-08-06T00:00:00Z</time></trkpt>
<trkpt lat="37.817616000" lon="-121.996770000"><ele>115.4</ele><time>2026-08-06T00:00:00Z</time></trkpt>
<trkpt lat="37.817646000" lon="-121.996880000"><ele>115.4</ele><time>2026-08-06T00:00:00Z</time></trkpt>
<trkpt lat="37.817623000" lon="-121.996990000"><ele>115.4</ele><time>2026-08-06T00:00:00Z</time></trkpt>
<trkpt lat="37.817604000" lon="-121.997090000"><ele>115.5</ele><time>2026-08-06T00:00:00Z</time></trkpt>
<trkpt lat="37.817590000" lon="-121.997200000"><ele>115.5</ele><time>2026-08-06T00:00:00Z</time></trkpt>
<trkpt lat="37.817580000" lon="-121.997320000"><ele>115.6</ele><time>2026-08-06T00:00:00Z</time></trkpt>
<trkpt lat="37.817550000" lon="-121.997430000"><ele>115.7</ele><time>2026-08-06T00:00:00Z</time></trkpt>
<trkpt lat="37.817530000" lon="-121.997530000"><ele>115.8</ele><time>2026-08-06T00:00:00Z</time></trkpt>
<trkpt lat="37.817513000" lon="-121.997630000"><ele>115.9</ele><time>2026-08-06T00:00:00Z</time></trkpt>
<trkpt lat="37.817467000" lon="-121.997734000"><ele>116.0</ele><time>2026-08-06T00:00:00Z</time></trkpt>
<trkpt lat="37.817440000" lon="-121.997850000"><ele>116.0</ele><time>2026-08-06T00:00:00Z</time></trkpt>
<trkpt lat="37.817436000" lon="-121.997955000"><ele>116.0</ele><time>2026-08-06T00:00:00Z</time></trkpt>
<trkpt lat="37.817387000" lon="-121.998050000"><ele>116.1</ele><time>2026-08-06T00:00:00Z</time></trkpt>
<trkpt lat="37.817387000" lon="-121.998160000"><ele>116.2</ele><time>2026-08-06T00:00:00Z</time></trkpt>
<trkpt lat="37.817387000" lon="-121.998270000"><ele>116.3</ele><time>2026-08-06T00:00:00Z</time></trkpt>
<trkpt lat="37.817380000" lon="-121.998380000"><ele>116.3</ele><time>2026-08-06T00:00:00Z</time></trkpt>
<trkpt lat="37.817370000" lon="-121.998490000"><ele>116.3</ele><time>2026-08-06T00:00:00Z</time></trkpt>
<trkpt lat="37.817360000" lon="-121.998604000"><ele>116.3</ele><time>2026-08-06T00:00:00Z</time></trkpt>
<trkpt lat="37.817350000" lon="-121.998710000"><ele>116.3</ele><time>2026-08-06T00:00:00Z</time></trkpt>
<trkpt lat="37.817352000" lon="-121.998820000"><ele>116.3</ele><time>2026-08-06T00:00:00Z</time></trkpt>
<trkpt lat="37.817380000" lon="-121.998920000"><ele>116.3</ele><time>2026-08-06T00:00:00Z</time></trkpt>
<trkpt lat="37.817430000" lon="-121.999000000"><ele>116.2</ele><time>2026-08-06T00:00:00Z</time></trkpt>
<trkpt lat="37.817480000" lon="-121.999090000"><ele>116.1</ele><time>2026-08-06T00:00:00Z</time></trkpt>
<trkpt lat="37.817528000" lon="-121.999176000"><ele>115.9</ele><time>2026-08-06T00:00:00Z</time></trkpt>
<trkpt lat="37.817574000" lon="-121.999270000"><ele>115.7</ele><time>2026-08-06T00:00:00Z</time></trkpt>
<trkpt lat="37.817630000" lon="-121.999360000"><ele>115.5</ele><time>2026-08-06T00:00:00Z</time></trkpt>
<trkpt lat="37.817690000" lon="-121.999440000"><ele>115.3</ele><time>2026-08-06T00:00:00Z</time></trkpt>
<trkpt lat="37.817764000" lon="-121.999510000"><ele>115.1</ele><time>2026-08-06T00:00:00Z</time></trkpt>
<trkpt lat="37.817818000" lon="-121.999600000"><ele>114.9</ele><time>2026-08-06T00:00:00Z</time></trkpt>
<trkpt lat="37.817875000" lon="-121.999690000"><ele>114.7</ele><time>2026-08-06T00:00:00Z</time></trkpt>
<trkpt lat="37.817930000" lon="-121.999770000"><ele>114.5</ele><time>2026-08-06T00:00:00Z</time></trkpt>
<trkpt lat="37.817974000" lon="-121.999855000"><ele>114.3</ele><time>2026-08-06T00:00:00Z</time></trkpt>
<trkpt lat="37.818012000" lon="-121.999950000"><ele>114.1</ele><time>2026-08-06T00:00:00Z</time></trkpt>
<trkpt lat="37.818077000" lon="-122.000040000"><ele>114.0</ele><time>2026-08-06T00:00:00Z</time></trkpt>
<trkpt lat="37.818130000" lon="-122.000140000"><ele>113.9</ele><time>2026-08-06T00:00:00Z</time></trkpt>
<trkpt lat="37.818188000" lon="-122.000210000"><ele>113.8</ele><time>2026-08-06T00:00:00Z</time></trkpt>
<trkpt lat="37.818240000" lon="-122.000300000"><ele>113.7</ele><time>2026-08-06T00:00:00Z</time></trkpt>
<trkpt lat="37.818295000" lon="-122.000380000"><ele>113.6</ele><time>2026-08-06T00:00:00Z</time></trkpt>
<trkpt lat="37.818350000" lon="-122.000465000"><ele>113.5</ele><time>2026-08-06T00:00:00Z</time></trkpt>
<trkpt lat="37.818410000" lon="-122.000560000"><ele>113.5</ele><time>2026-08-06T00:00:00Z</time></trkpt>
<trkpt lat="37.818462000" lon="-122.000640000"><ele>113.4</ele><time>2026-08-06T00:00:00Z</time></trkpt>
<trkpt lat="37.818520000" lon="-122.000725000"><ele>113.3</ele><time>2026-08-06T00:00:00Z</time></trkpt>
<trkpt lat="37.818570000" lon="-122.000820000"><ele>113.3</ele><time>2026-08-06T00:00:00Z</time></trkpt>
<trkpt lat="37.818630000" lon="-122.000900000"><ele>113.4</ele><time>2026-08-06T00:00:00Z</time></trkpt>
<trkpt lat="37.818687000" lon="-122.000990000"><ele>113.4</ele><time>2026-08-06T00:00:00Z</time></trkpt>
<trkpt lat="37.818750000" lon="-122.001076000"><ele>113.4</ele><time>2026-08-06T00:00:00Z</time></trkpt>
<trkpt lat="37.818813000" lon="-122.001170000"><ele>113.3</ele><time>2026-08-06T00:00:00Z</time></trkpt>
<trkpt lat="37.818880000" lon="-122.001230000"><ele>113.3</ele><time>2026-08-06T00:00:00Z</time></trkpt>
<trkpt lat="37.818916000" lon="-122.001340000"><ele>113.3</ele><time>2026-08-06T00:00:00Z</time></trkpt>
<trkpt lat="37.818960000" lon="-122.001434000"><ele>113.4</ele><time>2026-08-06T00:00:00Z</time></trkpt>
<trkpt lat="37.819008000" lon="-122.001526000"><ele>113.4</ele><time>2026-08-06T00:00:00Z</time></trkpt>
<trkpt lat="37.819073000" lon="-122.001610000"><ele>113.4</ele><time>2026-08-06T00:00:00Z</time></trkpt>
<trkpt lat="37.819120000" lon="-122.001710000"><ele>113.4</ele><time>2026-08-06T00:00:00Z</time></trkpt>
<trkpt lat="37.819170000" lon="-122.001790000"><ele>113.4</ele><time>2026-08-06T00:00:00Z</time></trkpt>
<trkpt lat="37.819240000" lon="-122.001870000"><ele>113.2</ele><time>2026-08-06T00:00:00Z</time></trkpt>
<trkpt lat="37.819324000" lon="-122.001880000"><ele>113.0</ele><time>2026-08-06T00:00:00Z</time></trkpt>
<trkpt lat="37.819370000" lon="-122.001790000"><ele>112.8</ele><time>2026-08-06T00:00:00Z</time></trkpt>
<trkpt lat="37.819458000" lon="-122.001750000"><ele>112.7</ele><time>2026-08-06T00:00:00Z</time></trkpt>
<trkpt lat="37.819530000" lon="-122.001690000"><ele>112.5</ele><time>2026-08-06T00:00:00Z</time></trkpt>
<trkpt lat="37.819595000" lon="-122.001625000"><ele>112.4</ele><time>2026-08-06T00:00:00Z</time></trkpt>
<trkpt lat="37.819660000" lon="-122.001560000"><ele>112.1</ele><time>2026-08-06T00:00:00Z</time></trkpt>
<trkpt lat="37.819744000" lon="-122.001510000"><ele>111.9</ele><time>2026-08-06T00:00:00Z</time></trkpt>
<trkpt lat="37.819820000" lon="-122.001460000"><ele>111.7</ele><time>2026-08-06T00:00:00Z</time></trkpt>
<trkpt lat="37.819885000" lon="-122.001380000"><ele>111.5</ele><time>2026-08-06T00:00:00Z</time></trkpt>
<trkpt lat="37.819946000" lon="-122.001305000"><ele>111.4</ele><time>2026-08-06T00:00:00Z</time></trkpt>
<trkpt lat="37.820000000" lon="-122.001220000"><ele>111.3</ele><time>2026-08-06T00:00:00Z</time></trkpt>
<trkpt lat="37.820076000" lon="-122.001175000"><ele>111.2</ele><time>2026-08-06T00:00:00Z</time></trkpt>
<trkpt lat="37.820152000" lon="-122.001144000"><ele>111.1</ele><time>2026-08-06T00:00:00Z</time></trkpt>
<trkpt lat="37.820225000" lon="-122.001110000"><ele>111.0</ele><time>2026-08-06T00:00:00Z</time></trkpt>
<trkpt lat="37.820300000" lon="-122.001060000"><ele>111.0</ele><time>2026-08-06T00:00:00Z</time></trkpt>
<trkpt lat="37.820377000" lon="-122.001015000"><ele>110.9</ele><time>2026-08-06T00:00:00Z</time></trkpt>
<trkpt lat="37.820460000" lon="-122.001000000"><ele>110.8</ele><time>2026-08-06T00:00:00Z</time></trkpt>
<trkpt lat="37.820534000" lon="-122.001060000"><ele>110.8</ele><time>2026-08-06T00:00:00Z</time></trkpt>
<trkpt lat="37.820618000" lon="-122.001076000"><ele>110.8</ele><time>2026-08-06T00:00:00Z</time></trkpt>
<trkpt lat="37.820686000" lon="-122.001130000"><ele>110.8</ele><time>2026-08-06T00:00:00Z</time></trkpt>
<trkpt lat="37.820736000" lon="-122.001205000"><ele>110.8</ele><time>2026-08-06T00:00:00Z</time></trkpt>
<trkpt lat="37.820700000" lon="-122.001310000"><ele>110.8</ele><time>2026-08-06T00:00:00Z</time></trkpt>
<trkpt lat="37.820656000" lon="-122.001410000"><ele>110.8</ele><time>2026-08-06T00:00:00Z</time></trkpt>
<trkpt lat="37.820595000" lon="-122.001495000"><ele>110.8</ele><time>2026-08-06T00:00:00Z</time></trkpt>
<trkpt lat="37.820534000" lon="-122.001580000"><ele>110.8</ele><time>2026-08-06T00:00:00Z</time></trkpt>
<trkpt lat="37.820490000" lon="-122.001680000"><ele>110.7</ele><time>2026-08-06T00:00:00Z</time></trkpt>
<trkpt lat="37.820490000" lon="-122.001564000"><ele>110.8</ele><time>2026-08-06T00:00:00Z</time></trkpt>
<trkpt lat="37.820540000" lon="-122.001480000"><ele>110.9</ele><time>2026-08-06T00:00:00Z</time></trkpt>
<trkpt lat="37.820576000" lon="-122.001390000"><ele>110.9</ele><time>2026-08-06T00:00:00Z</time></trkpt>
<trkpt lat="37.820644000" lon="-122.001320000"><ele>110.9</ele><time>2026-08-06T00:00:00Z</time></trkpt>
<trkpt lat="37.820705000" lon="-122.001240000"><ele>110.9</ele><time>2026-08-06T00:00:00Z</time></trkpt>
<trkpt lat="37.820683000" lon="-122.001140000"><ele>110.9</ele><time>2026-08-06T00:00:00Z</time></trkpt>
<trkpt lat="37.820620000" lon="-122.001060000"><ele>110.9</ele><time>2026-08-06T00:00:00Z</time></trkpt>
<trkpt lat="37.820553000" lon="-122.000990000"><ele>110.9</ele><time>2026-08-06T00:00:00Z</time></trkpt>
<trkpt lat="37.820490000" lon="-122.000900000"><ele>110.9</ele><time>2026-08-06T00:00:00Z</time></trkpt>
<trkpt lat="37.820440000" lon="-122.000800000"><ele>110.9</ele><time>2026-08-06T00:00:00Z</time></trkpt>
<trkpt lat="37.820427000" lon="-122.000694000"><ele>111.0</ele><time>2026-08-06T00:00:00Z</time></trkpt>
<trkpt lat="37.820440000" lon="-122.000725000"><ele>111.0</ele><time>2026-08-06T00:00:00Z</time></trkpt>
</trkseg>
</trk>
</gpx>
