<?xml version="1.0" encoding="UTF-8"?>
<gpx
  version="1.1"
  creator="Runkeeper - http://www.runkeeper.com"
  xmlns:xsi="http://www.w3.org/2001/XMLSchema-instance"
  xmlns="http://www.topografix.com/GPX/1/1"
  xsi:schemaLocation="http://www.topografix.com/GPX/1/1 http://www.topografix.com/GPX/1/1/gpx.xsd"
  xmlns:gpxtpx="http://www.garmin.com/xmlschemas/TrackPointExtension/v1">
<trk>
  <name><![CDATA[Walking 8/10/26]]></name>
  <time>2026-08-10T00:00:00Z</time>
<trkseg>
<trkpt lat="37.812927000" lon="-121.981570000"><ele>122.8</ele><time>2026-08-10T00:00:00Z</time></trkpt>
<trkpt lat="37.813010000" lon="-121.981590000"><ele>123.0</ele><time>2026-08-10T00:00:00Z</time></trkpt>
<trkpt lat="37.813053000" lon="-121.981490000"><ele>123.1</ele><time>2026-08-10T00:00:00Z</time></trkpt>
<trkpt lat="37.813046000" lon="-121.981384000"><ele>123.3</ele><time>2026-08-10T00:00:00Z</time></trkpt>
<trkpt lat="37.813040000" lon="-121.981285000"><ele>123.5</ele><time>2026-08-10T00:00:00Z</time></trkpt>
<trkpt lat="37.813053000" lon="-121.981170000"><ele>123.6</ele><time>2026-08-10T00:00:00Z</time></trkpt>
<trkpt lat="37.813080000" lon="-121.981064000"><ele>124.0</ele><time>2026-08-10T00:00:00Z</time></trkpt>
<trkpt lat="37.813140000" lon="-121.980995000"><ele>124.4</ele><time>2026-08-10T00:00:00Z</time></trkpt>
<trkpt lat="37.813213000" lon="-121.980934000"><ele>124.6</ele><time>2026-08-10T00:00:00Z</time></trkpt>
<trkpt lat="37.813297000" lon="-121.980900000"><ele>124.9</ele><time>2026-08-10T00:00:00Z</time></trkpt>
<trkpt lat="37.813380000" lon="-121.980900000"><ele>125.3</ele><time>2026-08-10T00:00:00Z</time></trkpt>
<trkpt lat="37.813470000" lon="-121.980910000"><ele>125.5</ele><time>2026-08-10T00:00:00Z</time></trkpt>
<trkpt lat="37.813553000" lon="-121.980880000"><ele>125.9</ele><time>2026-08-10T00:00:00Z</time></trkpt>
<trkpt lat="37.813640000" lon="-121.980870000"><ele>126.4</ele><time>2026-08-10T00:00:00Z</time></trkpt>
<trkpt lat="37.813725000" lon="-121.980840000"><ele>126.7</ele><time>2026-08-10T00:00:00Z</time></trkpt>
<trkpt lat="37.813805000" lon="-121.980800000"><ele>127.2</ele><time>2026-08-10T00:00:00Z</time></trkpt>
<trkpt lat="37.813873000" lon="-121.980730000"><ele>127.6</ele><time>2026-08-10T00:00:00Z</time></trkpt>
<trkpt lat="37.813934000" lon="-121.980650000"><ele>128.0</ele><time>2026-08-10T00:00:00Z</time></trkpt>
<trkpt lat="37.814007000" lon="-121.980580000"><ele>128.3</ele><time>2026-08-10T00:00:00Z</time></trkpt>
<trkpt lat="37.814064000" lon="-121.980510000"><ele>128.5</ele><time>2026-08-10T00:00:00Z</time></trkpt>
<trkpt lat="37.814120000" lon="-121.980415000"><ele>128.8</ele><time>2026-08-10T00:00:00Z</time></trkpt>
<trkpt lat="37.814175000" lon="-121.980340000"><ele>129.1</ele><time>2026-08-10T00:00:00Z</time></trkpt>
<trkpt lat="37.814210000" lon="-121.980240000"><ele>129.4</ele><time>2026-08-10T00:00:00Z</time></trkpt>
<trkpt lat="37.814213000" lon="-121.980130000"><ele>129.5</ele><time>2026-08-10T00:00:00Z</time></trkpt>
<trkpt lat="37.814236000" lon="-121.980020000"><ele>129.7</ele><time>2026-08-10T00:00:00Z</time></trkpt>
<trkpt lat="37.814270000" lon="-121.979920000"><ele>130.0</ele><time>2026-08-10T00:00:00Z</time></trkpt>
<trkpt lat="37.814290000" lon="-121.979805000"><ele>130.2</ele><time>2026-08-10T00:00:00Z</time></trkpt>
<trkpt lat="37.814293000" lon="-121.979700000"><ele>130.5</ele><time>2026-08-10T00:00:00Z</time></trkpt>
<trkpt lat="37.814290000" lon="-121.979590000"><ele>130.6</ele><time>2026-08-10T00:00:00Z</time></trkpt>
<trkpt lat="37.814327000" lon="-121.979490000"><ele>130.9</ele><time>2026-08-10T00:00:00Z</time></trkpt>
<trkpt lat="37.814415000" lon="-121.979450000"><ele>131.3</ele><time>2026-08-10T00:00:00Z</time></trkpt>
<trkpt lat="37.814420000" lon="-121.979330000"><ele>131.6</ele><time>2026-08-10T00:00:00Z</time></trkpt>
<trkpt lat="37.814430000" lon="-121.979220000"><ele>132.0</ele><time>2026-08-10T00:00:00Z</time></trkpt>
<trkpt lat="37.814404000" lon="-121.979110000"><ele>132.4</ele><time>2026-08-10T00:00:00Z</time></trkpt>
<trkpt lat="37.814365000" lon="-121.979010000"><ele>132.7</ele><time>2026-08-10T00:00:00Z</time></trkpt>
<trkpt lat="37.814450000" lon="-121.978970000"><ele>133.0</ele><time>2026-08-10T00:00:00Z</time></trkpt>
<trkpt lat="37.814533000" lon="-121.978970000"><ele>133.2</ele><time>2026-08-10T00:00:00Z</time></trkpt>
<trkpt lat="37.814620000" lon="-121.978920000"><ele>133.4</ele><time>2026-08-10T00:00:00Z</time></trkpt>
<trkpt lat="37.814686000" lon="-121.978860000"><ele>133.5</ele><time>2026-08-10T00:00:00Z</time></trkpt>
<trkpt lat="37.814743000" lon="-121.978775000"><ele>133.8</ele><time>2026-08-10T00:00:00Z</time></trkpt>
<trkpt lat="37.814774000" lon="-121.978676000"><ele>134.1</ele><time>2026-08-10T00:00:00Z</time></trkpt>
<trkpt lat="37.814800000" lon="-121.978570000"><ele>134.3</ele><time>2026-08-10T00:00:00Z</time></trkpt>
<trkpt lat="37.814827000" lon="-121.978455000"><ele>134.5</ele><time>2026-08-10T00:00:00Z</time></trkpt>
<trkpt lat="37.814846000" lon="-121.978355000"><ele>134.5</ele><time>2026-08-10T00:00:00Z</time></trkpt>
<trkpt lat="37.814884000" lon="-121.978250000"><ele>134.6</ele><time>2026-08-10T00:00:00Z</time></trkpt>
<trkpt lat="37.814934000" lon="-121.978170000"><ele>134.7</ele><time>2026-08-10T00:00:00Z</time></trkpt>
<trkpt lat="37.815010000" lon="-121.978100000"><ele>134.8</ele><time>2026-08-10T00:00:00Z</time></trkpt>
<trkpt lat="37.815075000" lon="-121.978030000"><ele>134.8</ele><time>2026-08-10T00:00:00Z</time></trkpt>
<trkpt lat="37.815140000" lon="-121.977950000"><ele>134.7</ele><time>2026-08-10T00:00:00Z</time></trkpt>
<trkpt lat="37.815193000" lon="-121.977875000"><ele>134.5</ele><time>2026-08-10T00:00:00Z</time></trkpt>
<trkpt lat="37.815273000" lon="-121.977840000"><ele>134.4</ele><time>2026-08-10T00:00:00Z</time></trkpt>
<trkpt lat="37.815350000" lon="-121.977890000"><ele>134.2</ele><time>2026-08-10T00:00:00Z</time></trkpt>
<trkpt lat="37.815422000" lon="-121.977940000"><ele>134.1</ele><time>2026-08-10T00:00:00Z</time></trkpt>
<trkpt lat="37.815506000" lon="-121.977980000"><ele>134.0</ele><time>2026-08-10T00:00:00Z</time></trkpt>
<trkpt lat="37.815590000" lon="-121.977980000"><ele>133.9</ele><time>2026-08-10T00:00:00Z</time></trkpt>
<trkpt lat="37.815628000" lon="-121.977880000"><ele>133.8</ele><time>2026-08-10T00:00:00Z</time></trkpt>
<trkpt lat="37.815678000" lon="-121.977800000"><ele>133.7</ele><time>2026-08-10T00:00:00Z</time></trkpt>
<trkpt lat="37.815730000" lon="-121.977715000"><ele>133.7</ele><time>2026-08-10T00:00:00Z</time></trkpt>
<trkpt lat="37.815790000" lon="-121.977640000"><ele>133.8</ele><time>2026-08-10T00:00:00Z</time></trkpt>
<trkpt lat="37.815853000" lon="-121.977570000"><ele>133.9</ele><time>2026-08-10T00:00:00Z</time></trkpt>
<trkpt lat="37.815918000" lon="-121.977490000"><ele>134.0</ele><time>2026-08-10T00:00:00Z</time></trkpt>
<trkpt lat="37.815990000" lon="-121.977430000"><ele>134.1</ele><time>2026-08-10T00:00:00Z</time></trkpt>
<trkpt lat="37.816074000" lon="-121.977370000"><ele>134.3</ele><time>2026-08-10T00:00:00Z</time></trkpt>
<trkpt lat="37.816154000" lon="-121.977310000"><ele>134.4</ele><time>2026-08-10T00:00:00Z</time></trkpt>
<trkpt lat="37.816242000" lon="-121.977264000"><ele>134.5</ele><time>2026-08-10T00:00:00Z</time></trkpt>
<trkpt lat="37.816330000" lon="-121.977230000"><ele>134.5</ele><time>2026-08-10T00:00:00Z</time></trkpt>
<trkpt lat="37.816418000" lon="-121.977196000"><ele>134.6</ele><time>2026-08-10T00:00:00Z</time></trkpt>
<trkpt lat="37.816513000" lon="-121.977170000"><ele>134.7</ele><time>2026-08-10T00:00:00Z</time></trkpt>
<trkpt lat="37.816597000" lon="-121.977150000"><ele>134.7</ele><time>2026-08-10T00:00:00Z</time></trkpt>
<trkpt lat="37.816690000" lon="-121.977130000"><ele>134.7</ele><time>2026-08-10T00:00:00Z</time></trkpt>
<trkpt lat="37.816776000" lon="-121.977120000"><ele>134.8</ele><time>2026-08-10T00:00:00Z</time></trkpt>
<trkpt lat="37.816864000" lon="-121.977120000"><ele>134.9</ele><time>2026-08-10T00:00:00Z</time></trkpt>
<trkpt lat="37.816956000" lon="-121.977120000"><ele>135.0</ele><time>2026-08-10T00:00:00Z</time></trkpt>
<trkpt lat="37.817047000" lon="-121.977110000"><ele>135.0</ele><time>2026-08-10T00:00:00Z</time></trkpt>
<trkpt lat="37.817140000" lon="-121.977080000"><ele>135.1</ele><time>2026-08-10T00:00:00Z</time></trkpt>
<trkpt lat="37.817220000" lon="-121.977050000"><ele>135.3</ele><time>2026-08-10T00:00:00Z</time></trkpt>
<trkpt lat="37.817307000" lon="-121.977005000"><ele>135.5</ele><time>2026-08-10T00:00:00Z</time></trkpt>
<trkpt lat="37.817383000" lon="-121.976944000"><ele>135.7</ele><time>2026-08-10T00:00:00Z</time></trkpt>
<trkpt lat="37.817370000" lon="-121.976840000"><ele>136.0</ele><time>2026-08-10T00:00:00Z</time></trkpt>
<trkpt lat="37.817307000" lon="-121.976770000"><ele>136.3</ele><time>2026-08-10T00:00:00Z</time></trkpt>
<trkpt lat="37.817204000" lon="-121.976720000"><ele>136.5</ele><time>2026-08-10T00:00:00Z</time></trkpt>
<trkpt lat="37.817146000" lon="-121.976640000"><ele>136.8</ele><time>2026-08-10T00:00:00Z</time></trkpt>
<trkpt lat="37.817055000" lon="-121.976650000"><ele>137.1</ele><time>2026-08-10T00:00:00Z</time></trkpt>
<trkpt lat="37.816960000" lon="-121.976650000"><ele>137.4</ele><time>2026-08-10T00:00:00Z</time></trkpt>
<trkpt lat="37.816880000" lon="-121.976590000"><ele>137.6</ele><time>2026-08-10T00:00:00Z</time></trkpt>
<trkpt lat="37.816790000" lon="-121.976570000"><ele>137.8</ele><time>2026-08-10T00:00:00Z</time></trkpt>
<trkpt lat="37.816710000" lon="-121.976560000"><ele>137.9</ele><time>2026-08-10T00:00:00Z</time></trkpt>
<trkpt lat="37.816628000" lon="-121.976580000"><ele>138.0</ele><time>2026-08-10T00:00:00Z</time></trkpt>
<trkpt lat="37.816540000" lon="-121.976590000"><ele>138.0</ele><time>2026-08-10T00:00:00Z</time></trkpt>
<trkpt lat="37.816444000" lon="-121.976610000"><ele>138.0</ele><time>2026-08-10T00:00:00Z</time></trkpt>
<trkpt lat="37.816364000" lon="-121.976650000"><ele>138.0</ele><time>2026-08-10T00:00:00Z</time></trkpt>
<trkpt lat="37.816280000" lon="-121.976685000"><ele>138.0</ele><time>2026-08-10T00:00:00Z</time></trkpt>
<trkpt lat="37.816193000" lon="-121.976690000"><ele>138.0</ele><time>2026-08-10T00:00:00Z</time></trkpt>
<trkpt lat="37.816105000" lon="-121.976700000"><ele>137.9</ele><time>2026-08-10T00:00:00Z</time></trkpt>
<trkpt lat="37.816020000" lon="-121.976700000"><ele>137.8</ele><time>2026-08-10T00:00:00Z</time></trkpt>
<trkpt lat="37.815937000" lon="-121.976715000"><ele>137.6</ele><time>2026-08-10T00:00:00Z</time></trkpt>
<trkpt lat="37.815870000" lon="-121.976776000"><ele>137.5</ele><time>2026-08-10T00:00:00Z</time></trkpt>
<trkpt lat="37.815807000" lon="-121.976860000"><ele>137.3</ele><time>2026-08-10T00:00:00Z</time></trkpt>
<trkpt lat="37.815765000" lon="-121.976950000"><ele>137.0</ele><time>2026-08-10T00:00:00Z</time></trkpt>
<trkpt lat="37.815723000" lon="-121.977066000"><ele>136.7</ele><time>2026-08-10T00:00:00Z</time></trkpt>
<trkpt lat="37.815674000" lon="-121.977150000"><ele>136.4</ele><time>2026-08-10T00:00:00Z</time></trkpt>
<trkpt lat="37.815617000" lon="-121.977220000"><ele>136.0</ele><time>2026-08-10T00:00:00Z</time></trkpt>
<trkpt lat="37.815548000" lon="-121.977300000"><ele>135.7</ele><time>2026-08-10T00:00:00Z</time></trkpt>
<trkpt lat="37.815470000" lon="-121.977380000"><ele>135.5</ele><time>2026-08-10T00:00:00Z</time></trkpt>
<trkpt lat="37.815400000" lon="-121.977455000"><ele>135.3</ele><time>2026-08-10T00:00:00Z</time></trkpt>
<trkpt lat="37.815346000" lon="-121.977530000"><ele>135.1</ele><time>2026-08-10T00:00:00Z</time></trkpt>
<trkpt lat="37.815300000" lon="-121.977620000"><ele>135.0</ele><time>2026-08-10T00:00:00Z</time></trkpt>
<trkpt lat="37.815254000" lon="-121.977710000"><ele>134.9</ele><time>2026-08-10T00:00:00Z</time></trkpt>
<trkpt lat="37.815200000" lon="-121.977800000"><ele>134.7</ele><time>2026-08-10T00:00:00Z</time></trkpt>
<trkpt lat="37.815174000" lon="-121.977910000"><ele>134.6</ele><time>2026-08-10T00:00:00Z</time></trkpt>
<trkpt lat="37.815117000" lon="-121.978004000"><ele>134.6</ele><time>2026-08-10T00:00:00Z</time></trkpt>
<trkpt lat="37.815040000" lon="-121.978040000"><ele>134.7</ele><time>2026-08-10T00:00:00Z</time></trkpt>
<trkpt lat="37.814970000" lon="-121.978096000"><ele>134.7</ele><time>2026-08-10T00:00:00Z</time></trkpt>
<trkpt lat="37.814896000" lon="-121.978150000"><ele>134.6</ele><time>2026-08-10T00:00:00Z</time></trkpt>
<trkpt lat="37.814820000" lon="-121.978195000"><ele>134.5</ele><time>2026-08-10T00:00:00Z</time></trkpt>
<trkpt lat="37.814835000" lon="-121.978300000"><ele>134.5</ele><time>2026-08-10T00:00:00Z</time></trkpt>
<trkpt lat="37.814827000" lon="-121.978410000"><ele>134.4</ele><time>2026-08-10T00:00:00Z</time></trkpt>
<trkpt lat="37.814857000" lon="-121.978516000"><ele>134.3</ele><time>2026-08-10T00:00:00Z</time></trkpt>
<trkpt lat="37.814884000" lon="-121.978620000"><ele>134.1</ele><time>2026-08-10T00:00:00Z</time></trkpt>
<trkpt lat="37.814816000" lon="-121.978680000"><ele>134.0</ele><time>2026-08-10T00:00:00Z</time></trkpt>
<trkpt lat="37.814770000" lon="-121.978780000"><ele>133.9</ele><time>2026-08-10T00:00:00Z</time></trkpt>
<trkpt lat="37.814720000" lon="-121.978880000"><ele>133.6</ele><time>2026-08-10T00:00:00Z</time></trkpt>
<trkpt lat="37.814655000" lon="-121.978950000"><ele>133.4</ele><time>2026-08-10T00:00:00Z</time></trkpt>
<trkpt lat="37.814570000" lon="-121.979010000"><ele>133.1</ele><time>2026-08-10T00:00:00Z</time></trkpt>
<trkpt lat="37.814510000" lon="-121.979080000"><ele>132.8</ele><time>2026-08-10T00:00:00Z</time></trkpt>
<trkpt lat="37.814460000" lon="-121.979180000"><ele>132.5</ele><time>2026-08-10T00:00:00Z</time></trkpt>
<trkpt lat="37.814423000" lon="-121.979280000"><ele>132.1</ele><time>2026-08-10T00:00:00Z</time></trkpt>
<trkpt lat="37.814420000" lon="-121.979390000"><ele>131.7</ele><time>2026-08-10T00:00:00Z</time></trkpt>
<trkpt lat="37.814370000" lon="-121.979485000"><ele>131.3</ele><time>2026-08-10T00:00:00Z</time></trkpt>
<trkpt lat="37.814342000" lon="-121.979580000"><ele>130.9</ele><time>2026-08-10T00:00:00Z</time></trkpt>
<trkpt lat="37.814320000" lon="-121.979690000"><ele>130.6</ele><time>2026-08-10T00:00:00Z</time></trkpt>
<trkpt lat="37.814304000" lon="-121.979810000"><ele>130.4</ele><time>2026-08-10T00:00:00Z</time></trkpt>
<trkpt lat="37.814285000" lon="-121.979930000"><ele>130.2</ele><time>2026-08-10T00:00:00Z</time></trkpt>
<trkpt lat="37.814262000" lon="-121.980040000"><ele>129.9</ele><time>2026-08-10T00:00:00Z</time></trkpt>
<trkpt lat="37.814236000" lon="-121.980140000"><ele>129.6</ele><time>2026-08-10T00:00:00Z</time></trkpt>
<trkpt lat="37.814213000" lon="-121.980250000"><ele>129.4</ele><time>2026-08-10T00:00:00Z</time></trkpt>
<trkpt lat="37.814167000" lon="-121.980354000"><ele>129.1</ele><time>2026-08-10T00:00:00Z</time></trkpt>
<trkpt lat="37.814114000" lon="-121.980450000"><ele>128.8</ele><time>2026-08-10T00:00:00Z</time></trkpt>
<trkpt lat="37.814060000" lon="-121.980550000"><ele>128.5</ele><time>2026-08-10T00:00:00Z</time></trkpt>
<trkpt lat="37.814007000" lon="-121.980640000"><ele>128.2</ele><time>2026-08-10T00:00:00Z</time></trkpt>
<trkpt lat="37.813942000" lon="-121.980705000"><ele>127.9</ele><time>2026-08-10T00:00:00Z</time></trkpt>
<trkpt lat="37.813877000" lon="-121.980790000"><ele>127.5</ele><time>2026-08-10T00:00:00Z</time></trkpt>
<trkpt lat="37.813805000" lon="-121.980850000"><ele>127.1</ele><time>2026-08-10T00:00:00Z</time></trkpt>
<trkpt lat="37.813717000" lon="-121.980896000"><ele>126.6</ele><time>2026-08-10T00:00:00Z</time></trkpt>
<trkpt lat="37.813630000" lon="-121.980930000"><ele>126.3</ele><time>2026-08-10T00:00:00Z</time></trkpt>
<trkpt lat="37.813540000" lon="-121.980934000"><ele>126.0</ele><time>2026-08-10T00:00:00Z</time></trkpt>
<trkpt lat="37.813457000" lon="-121.980934000"><ele>125.6</ele><time>2026-08-10T00:00:00Z</time></trkpt>
<trkpt lat="37.813374000" lon="-121.980920000"><ele>125.3</ele><time>2026-08-10T00:00:00Z</time></trkpt>
<trkpt lat="37.813280000" lon="-121.980930000"><ele>124.9</ele><time>2026-08-10T00:00:00Z</time></trkpt>
<trkpt lat="37.813200000" lon="-121.980980000"><ele>124.6</ele><time>2026-08-10T00:00:00Z</time></trkpt>
<trkpt lat="37.813145000" lon="-121.981064000"><ele>124.3</ele><time>2026-08-10T00:00:00Z</time></trkpt>
<trkpt lat="37.813087000" lon="-121.981155000"><ele>123.9</ele><time>2026-08-10T00:00:00Z</time></trkpt>
<trkpt lat="37.813065000" lon="-121.981260000"><ele>123.5</ele><time>2026-08-10T00:00:00Z</time></trkpt>
<trkpt lat="37.813072000" lon="-121.981380000"><ele>123.4</ele><time>2026-08-10T00:00:00Z</time></trkpt>
<trkpt lat="37.813065000" lon="-121.981480000"><ele>123.2</ele><time>2026-08-10T00:00:00Z</time></trkpt>
<trkpt lat="37.813010000" lon="-121.981575000"><ele>123.0</ele><time>2026-08-10T00:00:00Z</time></trkpt>
<trkpt lat="37.812927000" lon="-121.981580000"><ele>122.7</ele><time>2026-08-10T00:00:00Z</time></trkpt>
<trkpt lat="37.812970000" lon="-121.981514000"><ele>122.5</ele><time>2026-08-10T00:00:00Z</time></trkpt>
</trkseg>
</trk>
</gpx>
