<?xml version="1.0" encoding="UTF-8"?>
<gpx
  version="1.1"
  creator="Runkeeper - http://www.runkeeper.com"
  xmlns:xsi="http://www.w3.org/2001/XMLSchema-instance"
  xmlns="http://www.topografix.com/GPX/1/1"
  xsi:schemaLocation="http://www.topografix.com/GPX/1/1 http://www.topografix.com/GPX/1/1/gpx.xsd"
  xmlns:gpxtpx="http://www.garmin.com/xmlschemas/TrackPointExtension/v1">
<trk>
  <name><![CDATA[Walking 9/7/26]]></name>
  <time>2026-09-07T00:00:00Z</time>
<trkseg>
<trkpt lat="37.802647000" lon="-121.967735000"><ele>172.2</ele><time>2026-09-07T00:00:00Z</time></trkpt>
<trkpt lat="37.802658000" lon="-121.967840000"><ele>171.9</ele><time>2026-09-07T00:00:00Z</time></trkpt>
<trkpt lat="37.802630000" lon="-121.967940000"><ele>171.5</ele><time>2026-09-07T00:00:00Z</time></trkpt>
<trkpt lat="37.802600000" lon="-121.968050000"><ele>171.1</ele><time>2026-09-07T00:00:00Z</time></trkpt>
<trkpt lat="37.802578000" lon="-121.968155000"><ele>170.7</ele><time>2026-09-07T00:00:00Z</time></trkpt>
<trkpt lat="37.802555000" lon="-121.968270000"><ele>170.4</ele><time>2026-09-07T00:00:00Z</time></trkpt>
<trkpt lat="37.802532000" lon="-121.968380000"><ele>169.7</ele><time>2026-09-07T00:00:00Z</time></trkpt>
<trkpt lat="37.802505000" lon="-121.968490000"><ele>169.0</ele><time>2026-09-07T00:00:00Z</time></trkpt>
<trkpt lat="37.802475000" lon="-121.968590000"><ele>168.3</ele><time>2026-09-07T00:00:00Z</time></trkpt>
<trkpt lat="37.802450000" lon="-121.968690000"><ele>167.5</ele><time>2026-09-07T00:00:00Z</time></trkpt>
<trkpt lat="37.802414000" lon="-121.968790000"><ele>166.9</ele><time>2026-09-07T00:00:00Z</time></trkpt>
<trkpt lat="37.802376000" lon="-121.968890000"><ele>166.2</ele><time>2026-09-07T00:00:00Z</time></trkpt>
<trkpt lat="37.802360000" lon="-121.969000000"><ele>165.5</ele><time>2026-09-07T00:00:00Z</time></trkpt>
<trkpt lat="37.802315000" lon="-121.969086000"><ele>164.9</ele><time>2026-09-07T00:00:00Z</time></trkpt>
<trkpt lat="37.802288000" lon="-121.969190000"><ele>164.4</ele><time>2026-09-07T00:00:00Z</time></trkpt>
<trkpt lat="37.802280000" lon="-121.969300000"><ele>163.9</ele><time>2026-09-07T00:00:00Z</time></trkpt>
<trkpt lat="37.802265000" lon="-121.969410000"><ele>163.4</ele><time>2026-09-07T00:00:00Z</time></trkpt>
<trkpt lat="37.802250000" lon="-121.969520000"><ele>162.9</ele><time>2026-09-07T00:00:00Z</time></trkpt>
<trkpt lat="37.802242000" lon="-121.969635000"><ele>162.5</ele><time>2026-09-07T00:00:00Z</time></trkpt>
<trkpt lat="37.802235000" lon="-121.969750000"><ele>162.0</ele><time>2026-09-07T00:00:00Z</time></trkpt>
<trkpt lat="37.802230000" lon="-121.969860000"><ele>161.5</ele><time>2026-09-07T00:00:00Z</time></trkpt>
<trkpt lat="37.802240000" lon="-121.969960000"><ele>161.0</ele><time>2026-09-07T00:00:00Z</time></trkpt>
<trkpt lat="37.802246000" lon="-121.970060000"><ele>160.5</ele><time>2026-09-07T00:00:00Z</time></trkpt>
<trkpt lat="37.802235000" lon="-121.970170000"><ele>160.0</ele><time>2026-09-07T00:00:00Z</time></trkpt>
<trkpt lat="37.802227000" lon="-121.970276000"><ele>159.5</ele><time>2026-09-07T00:00:00Z</time></trkpt>
<trkpt lat="37.802220000" lon="-121.970380000"><ele>159.0</ele><time>2026-09-07T00:00:00Z</time></trkpt>
<trkpt lat="37.802210000" lon="-121.970490000"><ele>158.4</ele><time>2026-09-07T00:00:00Z</time></trkpt>
<trkpt lat="37.802208000" lon="-121.970600000"><ele>157.7</ele><time>2026-09-07T00:00:00Z</time></trkpt>
<trkpt lat="37.802208000" lon="-121.970710000"><ele>157.0</ele><time>2026-09-07T00:00:00Z</time></trkpt>
<trkpt lat="37.802208000" lon="-121.970820000"><ele>156.3</ele><time>2026-09-07T00:00:00Z</time></trkpt>
<trkpt lat="37.802193000" lon="-121.970924000"><ele>155.5</ele><time>2026-09-07T00:00:00Z</time></trkpt>
<trkpt lat="37.802190000" lon="-121.971030000"><ele>154.6</ele><time>2026-09-07T00:00:00Z</time></trkpt>
<trkpt lat="37.802190000" lon="-121.971130000"><ele>153.8</ele><time>2026-09-07T00:00:00Z</time></trkpt>
<trkpt lat="37.802193000" lon="-121.971240000"><ele>152.8</ele><time>2026-09-07T00:00:00Z</time></trkpt>
<trkpt lat="37.802190000" lon="-121.971344000"><ele>151.7</ele><time>2026-09-07T00:00:00Z</time></trkpt>
<trkpt lat="37.802197000" lon="-121.971450000"><ele>150.5</ele><time>2026-09-07T00:00:00Z</time></trkpt>
<trkpt lat="37.802190000" lon="-121.971565000"><ele>149.4</ele><time>2026-09-07T00:00:00Z</time></trkpt>
<trkpt lat="37.802180000" lon="-121.971680000"><ele>148.2</ele><time>2026-09-07T00:00:00Z</time></trkpt>
<trkpt lat="37.802185000" lon="-121.971790000"><ele>147.1</ele><time>2026-09-07T00:00:00Z</time></trkpt>
<trkpt lat="37.802200000" lon="-121.971886000"><ele>146.0</ele><time>2026-09-07T00:00:00Z</time></trkpt>
<trkpt lat="37.802200000" lon="-121.971990000"><ele>145.0</ele><time>2026-09-07T00:00:00Z</time></trkpt>
<trkpt lat="37.802193000" lon="-121.972100000"><ele>144.0</ele><time>2026-09-07T00:00:00Z</time></trkpt>
<trkpt lat="37.802170000" lon="-121.972210000"><ele>143.0</ele><time>2026-09-07T00:00:00Z</time></trkpt>
<trkpt lat="37.802177000" lon="-121.972320000"><ele>142.1</ele><time>2026-09-07T00:00:00Z</time></trkpt>
<trkpt lat="37.802174000" lon="-121.972435000"><ele>141.3</ele><time>2026-09-07T00:00:00Z</time></trkpt>
<trkpt lat="37.802160000" lon="-121.972550000"><ele>140.6</ele><time>2026-09-07T00:00:00Z</time></trkpt>
<trkpt lat="37.802174000" lon="-121.972664000"><ele>140.0</ele><time>2026-09-07T00:00:00Z</time></trkpt>
<trkpt lat="37.802177000" lon="-121.972770000"><ele>139.4</ele><time>2026-09-07T00:00:00Z</time></trkpt>
<trkpt lat="37.802170000" lon="-121.972885000"><ele>138.8</ele><time>2026-09-07T00:00:00Z</time></trkpt>
<trkpt lat="37.802160000" lon="-121.973000000"><ele>138.3</ele><time>2026-09-07T00:00:00Z</time></trkpt>
<trkpt lat="37.802208000" lon="-121.973090000"><ele>137.7</ele><time>2026-09-07T00:00:00Z</time></trkpt>
<trkpt lat="37.802140000" lon="-121.973150000"><ele>137.2</ele><time>2026-09-07T00:00:00Z</time></trkpt>
<trkpt lat="37.802140000" lon="-121.973260000"><ele>136.7</ele><time>2026-09-07T00:00:00Z</time></trkpt>
<trkpt lat="37.802140000" lon="-121.973366000"><ele>136.3</ele><time>2026-09-07T00:00:00Z</time></trkpt>
<trkpt lat="37.802130000" lon="-121.973470000"><ele>135.7</ele><time>2026-09-07T00:00:00Z</time></trkpt>
<trkpt lat="37.802130000" lon="-121.973590000"><ele>135.3</ele><time>2026-09-07T00:00:00Z</time></trkpt>
<trkpt lat="37.802128000" lon="-121.973700000"><ele>134.7</ele><time>2026-09-07T00:00:00Z</time></trkpt>
<trkpt lat="37.802128000" lon="-121.973816000"><ele>134.3</ele><time>2026-09-07T00:00:00Z</time></trkpt>
<trkpt lat="37.802116000" lon="-121.973940000"><ele>133.8</ele><time>2026-09-07T00:00:00Z</time></trkpt>
<trkpt lat="37.802110000" lon="-121.974040000"><ele>133.4</ele><time>2026-09-07T00:00:00Z</time></trkpt>
<trkpt lat="37.802105000" lon="-121.974150000"><ele>132.9</ele><time>2026-09-07T00:00:00Z</time></trkpt>
<trkpt lat="37.802110000" lon="-121.974270000"><ele>132.5</ele><time>2026-09-07T00:00:00Z</time></trkpt>
<trkpt lat="37.802100000" lon="-121.974390000"><ele>132.3</ele><time>2026-09-07T00:00:00Z</time></trkpt>
<trkpt lat="37.802094000" lon="-121.974500000"><ele>132.0</ele><time>2026-09-07T00:00:00Z</time></trkpt>
<trkpt lat="37.802070000" lon="-121.974610000"><ele>131.9</ele><time>2026-09-07T00:00:00Z</time></trkpt>
<trkpt lat="37.802006000" lon="-121.974540000"><ele>131.9</ele><time>2026-09-07T00:00:00Z</time></trkpt>
<trkpt lat="37.802017000" lon="-121.974440000"><ele>132.0</ele><time>2026-09-07T00:00:00Z</time></trkpt>
<trkpt lat="37.802036000" lon="-121.974335000"><ele>132.2</ele><time>2026-09-07T00:00:00Z</time></trkpt>
<trkpt lat="37.802050000" lon="-121.974236000"><ele>132.5</ele><time>2026-09-07T00:00:00Z</time></trkpt>
<trkpt lat="37.802055000" lon="-121.974130000"><ele>132.8</ele><time>2026-09-07T00:00:00Z</time></trkpt>
<trkpt lat="37.802063000" lon="-121.974020000"><ele>133.2</ele><time>2026-09-07T00:00:00Z</time></trkpt>
<trkpt lat="37.802067000" lon="-121.973910000"><ele>133.6</ele><time>2026-09-07T00:00:00Z</time></trkpt>
<trkpt lat="37.802067000" lon="-121.973785000"><ele>134.1</ele><time>2026-09-07T00:00:00Z</time></trkpt>
<trkpt lat="37.802063000" lon="-121.973670000"><ele>134.5</ele><time>2026-09-07T00:00:00Z</time></trkpt>
<trkpt lat="37.802063000" lon="-121.973570000"><ele>135.1</ele><time>2026-09-07T00:00:00Z</time></trkpt>
<trkpt lat="37.802067000" lon="-121.973465000"><ele>135.5</ele><time>2026-09-07T00:00:00Z</time></trkpt>
<trkpt lat="37.802070000" lon="-121.973350000"><ele>136.1</ele><time>2026-09-07T00:00:00Z</time></trkpt>
<trkpt lat="37.802070000" lon="-121.973240000"><ele>136.6</ele><time>2026-09-07T00:00:00Z</time></trkpt>
<trkpt lat="37.802055000" lon="-121.973140000"><ele>137.2</ele><time>2026-09-07T00:00:00Z</time></trkpt>
<trkpt lat="37.802070000" lon="-121.973030000"><ele>137.7</ele><time>2026-09-07T00:00:00Z</time></trkpt>
<trkpt lat="37.802082000" lon="-121.972920000"><ele>138.4</ele><time>2026-09-07T00:00:00Z</time></trkpt>
<trkpt lat="37.802090000" lon="-121.972820000"><ele>139.0</ele><time>2026-09-07T00:00:00Z</time></trkpt>
<trkpt lat="37.802094000" lon="-121.972694000"><ele>139.6</ele><time>2026-09-07T00:00:00Z</time></trkpt>
<trkpt lat="37.802100000" lon="-121.972580000"><ele>140.4</ele><time>2026-09-07T00:00:00Z</time></trkpt>
<trkpt lat="37.802090000" lon="-121.972466000"><ele>141.1</ele><time>2026-09-07T00:00:00Z</time></trkpt>
<trkpt lat="37.802097000" lon="-121.972360000"><ele>141.8</ele><time>2026-09-07T00:00:00Z</time></trkpt>
<trkpt lat="37.802110000" lon="-121.972250000"><ele>142.7</ele><time>2026-09-07T00:00:00Z</time></trkpt>
<trkpt lat="37.802097000" lon="-121.972130000"><ele>143.7</ele><time>2026-09-07T00:00:00Z</time></trkpt>
<trkpt lat="37.802105000" lon="-121.972020000"><ele>144.7</ele><time>2026-09-07T00:00:00Z</time></trkpt>
<trkpt lat="37.802086000" lon="-121.971920000"><ele>145.8</ele><time>2026-09-07T00:00:00Z</time></trkpt>
<trkpt lat="37.802105000" lon="-121.971820000"><ele>146.9</ele><time>2026-09-07T00:00:00Z</time></trkpt>
<trkpt lat="37.802113000" lon="-121.971700000"><ele>148.0</ele><time>2026-09-07T00:00:00Z</time></trkpt>
<trkpt lat="37.802124000" lon="-121.971590000"><ele>149.1</ele><time>2026-09-07T00:00:00Z</time></trkpt>
<trkpt lat="37.802128000" lon="-121.971490000"><ele>150.3</ele><time>2026-09-07T00:00:00Z</time></trkpt>
<trkpt lat="37.802128000" lon="-121.971380000"><ele>151.5</ele><time>2026-09-07T00:00:00Z</time></trkpt>
<trkpt lat="37.802130000" lon="-121.971275000"><ele>152.5</ele><time>2026-09-07T00:00:00Z</time></trkpt>
<trkpt lat="37.802143000" lon="-121.971176000"><ele>153.6</ele><time>2026-09-07T00:00:00Z</time></trkpt>
<trkpt lat="37.802143000" lon="-121.971060000"><ele>154.5</ele><time>2026-09-07T00:00:00Z</time></trkpt>
<trkpt lat="37.802130000" lon="-121.970950000"><ele>155.4</ele><time>2026-09-07T00:00:00Z</time></trkpt>
<trkpt lat="37.802124000" lon="-121.970840000"><ele>156.2</ele><time>2026-09-07T00:00:00Z</time></trkpt>
<trkpt lat="37.802124000" lon="-121.970730000"><ele>156.9</ele><time>2026-09-07T00:00:00Z</time></trkpt>
<trkpt lat="37.802140000" lon="-121.970634000"><ele>157.6</ele><time>2026-09-07T00:00:00Z</time></trkpt>
<trkpt lat="37.802140000" lon="-121.970530000"><ele>158.3</ele><time>2026-09-07T00:00:00Z</time></trkpt>
<trkpt lat="37.802147000" lon="-121.970406000"><ele>159.0</ele><time>2026-09-07T00:00:00Z</time></trkpt>
<trkpt lat="37.802155000" lon="-121.970300000"><ele>159.5</ele><time>2026-09-07T00:00:00Z</time></trkpt>
<trkpt lat="37.802155000" lon="-121.970180000"><ele>160.0</ele><time>2026-09-07T00:00:00Z</time></trkpt>
<trkpt lat="37.802150000" lon="-121.970060000"><ele>160.5</ele><time>2026-09-07T00:00:00Z</time></trkpt>
<trkpt lat="37.802150000" lon="-121.969955000"><ele>161.0</ele><time>2026-09-07T00:00:00Z</time></trkpt>
<trkpt lat="37.802155000" lon="-121.969830000"><ele>161.5</ele><time>2026-09-07T00:00:00Z</time></trkpt>
<trkpt lat="37.802162000" lon="-121.969730000"><ele>162.0</ele><time>2026-09-07T00:00:00Z</time></trkpt>
<trkpt lat="37.802170000" lon="-121.969620000"><ele>162.4</ele><time>2026-09-07T00:00:00Z</time></trkpt>
<trkpt lat="37.802185000" lon="-121.969510000"><ele>162.8</ele><time>2026-09-07T00:00:00Z</time></trkpt>
<trkpt lat="37.802200000" lon="-121.969406000"><ele>163.3</ele><time>2026-09-07T00:00:00Z</time></trkpt>
<trkpt lat="37.802223000" lon="-121.969300000"><ele>163.7</ele><time>2026-09-07T00:00:00Z</time></trkpt>
<trkpt lat="37.802240000" lon="-121.969200000"><ele>164.2</ele><time>2026-09-07T00:00:00Z</time></trkpt>
<trkpt lat="37.802254000" lon="-121.969090000"><ele>164.6</ele><time>2026-09-07T00:00:00Z</time></trkpt>
<trkpt lat="37.802277000" lon="-121.968994000"><ele>165.1</ele><time>2026-09-07T00:00:00Z</time></trkpt>
<trkpt lat="37.802296000" lon="-121.968890000"><ele>165.5</ele><time>2026-09-07T00:00:00Z</time></trkpt>
<trkpt lat="37.802322000" lon="-121.968790000"><ele>166.0</ele><time>2026-09-07T00:00:00Z</time></trkpt>
<trkpt lat="37.802357000" lon="-121.968680000"><ele>166.5</ele><time>2026-09-07T00:00:00Z</time></trkpt>
<trkpt lat="37.802380000" lon="-121.968580000"><ele>166.8</ele><time>2026-09-07T00:00:00Z</time></trkpt>
<trkpt lat="37.802402000" lon="-121.968475000"><ele>167.2</ele><time>2026-09-07T00:00:00Z</time></trkpt>
<trkpt lat="37.802433000" lon="-121.968360000"><ele>167.6</ele><time>2026-09-07T00:00:00Z</time></trkpt>
<trkpt lat="37.802456000" lon="-121.968254000"><ele>168.1</ele><time>2026-09-07T00:00:00Z</time></trkpt>
<trkpt lat="37.802490000" lon="-121.968155000"><ele>168.5</ele><time>2026-09-07T00:00:00Z</time></trkpt>
<trkpt lat="37.802430000" lon="-121.968080000"><ele>169.0</ele><time>2026-09-07T00:00:00Z</time></trkpt>
<trkpt lat="37.802452000" lon="-121.967970000"><ele>169.5</ele><time>2026-09-07T00:00:00Z</time></trkpt>
<trkpt lat="37.802498000" lon="-121.967870000"><ele>170.2</ele><time>2026-09-07T00:00:00Z</time></trkpt>
<trkpt lat="37.802540000" lon="-121.967770000"><ele>170.8</ele><time>2026-09-07T00:00:00Z</time></trkpt>
<trkpt lat="37.802578000" lon="-121.967690000"><ele>171.5</ele><time>2026-09-07T00:00:00Z</time></trkpt>
<trkpt lat="37.802616000" lon="-121.967580000"><ele>172.0</ele><time>2026-09-07T00:00:00Z</time></trkpt>
<trkpt lat="37.802650000" lon="-121.967476000"><ele>172.6</ele><time>2026-09-07T00:00:00Z</time></trkpt>
<trkpt lat="37.802680000" lon="-121.967360000"><ele>173.4</ele><time>2026-09-07T00:00:00Z</time></trkpt>
<trkpt lat="37.802734000" lon="-121.967260000"><ele>174.0</ele><time>2026-09-07T00:00:00Z</time></trkpt>
<trkpt lat="37.802750000" lon="-121.967155000"><ele>174.5</ele><time>2026-09-07T00:00:00Z</time></trkpt>
<trkpt lat="37.802760000" lon="-121.967040000"><ele>175.1</ele><time>2026-09-07T00:00:00Z</time></trkpt>
<trkpt lat="37.802803000" lon="-121.966940000"><ele>175.6</ele><time>2026-09-07T00:00:00Z</time></trkpt>
<trkpt lat="37.802837000" lon="-121.966850000"><ele>176.1</ele><time>2026-09-07T00:00:00Z</time></trkpt>
<trkpt lat="37.802868000" lon="-121.966750000"><ele>176.5</ele><time>2026-09-07T00:00:00Z</time></trkpt>
<trkpt lat="37.802902000" lon="-121.966660000"><ele>176.7</ele><time>2026-09-07T00:00:00Z</time></trkpt>
<trkpt lat="37.802937000" lon="-121.966560000"><ele>177.1</ele><time>2026-09-07T00:00:00Z</time></trkpt>
<trkpt lat="37.802975000" lon="-121.966460000"><ele>177.5</ele><time>2026-09-07T00:00:00Z</time></trkpt>
<trkpt lat="37.803010000" lon="-121.966370000"><ele>178.0</ele><time>2026-09-07T00:00:00Z</time></trkpt>
<trkpt lat="37.803050000" lon="-121.966270000"><ele>178.5</ele><time>2026-09-07T00:00:00Z</time></trkpt>
<trkpt lat="37.803090000" lon="-121.966160000"><ele>178.8</ele><time>2026-09-07T00:00:00Z</time></trkpt>
<trkpt lat="37.803120000" lon="-121.966050000"><ele>179.2</ele><time>2026-09-07T00:00:00Z</time></trkpt>
<trkpt lat="37.803158000" lon="-121.965950000"><ele>179.6</ele><time>2026-09-07T00:00:00Z</time></trkpt>
<trkpt lat="37.803192000" lon="-121.965840000"><ele>180.0</ele><time>2026-09-07T00:00:00Z</time></trkpt>
<trkpt lat="37.803230000" lon="-121.965750000"><ele>180.5</ele><time>2026-09-07T00:00:00Z</time></trkpt>
<trkpt lat="37.803270000" lon="-121.965650000"><ele>180.9</ele><time>2026-09-07T00:00:00Z</time></trkpt>
<trkpt lat="37.803318000" lon="-121.965550000"><ele>181.4</ele><time>2026-09-07T00:00:00Z</time></trkpt>
<trkpt lat="37.803352000" lon="-121.965450000"><ele>181.7</ele><time>2026-09-07T00:00:00Z</time></trkpt>
<trkpt lat="37.803390000" lon="-121.965350000"><ele>181.9</ele><time>2026-09-07T00:00:00Z</time></trkpt>
<trkpt lat="37.803444000" lon="-121.965250000"><ele>182.0</ele><time>2026-09-07T00:00:00Z</time></trkpt>
<trkpt lat="37.803482000" lon="-121.965150000"><ele>182.0</ele><time>2026-09-07T00:00:00Z</time></trkpt>
<trkpt lat="37.803505000" lon="-121.965250000"><ele>182.0</ele><time>2026-09-07T00:00:00Z</time></trkpt>
<trkpt lat="37.803450000" lon="-121.965350000"><ele>182.0</ele><time>2026-09-07T00:00:00Z</time></trkpt>
<trkpt lat="37.803406000" lon="-121.965450000"><ele>181.8</ele><time>2026-09-07T00:00:00Z</time></trkpt>
<trkpt lat="37.803360000" lon="-121.965540000"><ele>181.5</ele><time>2026-09-07T00:00:00Z</time></trkpt>
<trkpt lat="37.803320000" lon="-121.965640000"><ele>181.2</ele><time>2026-09-07T00:00:00Z</time></trkpt>
<trkpt lat="37.803284000" lon="-121.965744000"><ele>180.7</ele><time>2026-09-07T00:00:00Z</time></trkpt>
<trkpt lat="37.803250000" lon="-121.965850000"><ele>180.3</ele><time>2026-09-07T00:00:00Z</time></trkpt>
<trkpt lat="37.803210000" lon="-121.965960000"><ele>179.8</ele><time>2026-09-07T00:00:00Z</time></trkpt>
<trkpt lat="37.803177000" lon="-121.966070000"><ele>179.4</ele><time>2026-09-07T00:00:00Z</time></trkpt>
<trkpt lat="37.803143000" lon="-121.966180000"><ele>179.0</ele><time>2026-09-07T00:00:00Z</time></trkpt>
<trkpt lat="37.803104000" lon="-121.966290000"><ele>178.6</ele><time>2026-09-07T00:00:00Z</time></trkpt>
<trkpt lat="37.803066000" lon="-121.966400000"><ele>178.2</ele><time>2026-09-07T00:00:00Z</time></trkpt>
<trkpt lat="37.803000000" lon="-121.966484000"><ele>177.7</ele><time>2026-09-07T00:00:00Z</time></trkpt>
<trkpt lat="37.802986000" lon="-121.966600000"><ele>177.3</ele><time>2026-09-07T00:00:00Z</time></trkpt>
<trkpt lat="37.802956000" lon="-121.966705000"><ele>176.9</ele><time>2026-09-07T00:00:00Z</time></trkpt>
<trkpt lat="37.802920000" lon="-121.966805000"><ele>176.5</ele><time>2026-09-07T00:00:00Z</time></trkpt>
<trkpt lat="37.802887000" lon="-121.966900000"><ele>176.2</ele><time>2026-09-07T00:00:00Z</time></trkpt>
<trkpt lat="37.802853000" lon="-121.967020000"><ele>175.8</ele><time>2026-09-07T00:00:00Z</time></trkpt>
<trkpt lat="37.802822000" lon="-121.967120000"><ele>175.4</ele><time>2026-09-07T00:00:00Z</time></trkpt>
<trkpt lat="37.802788000" lon="-121.967210000"><ele>174.9</ele><time>2026-09-07T00:00:00Z</time></trkpt>
<trkpt lat="37.802753000" lon="-121.967310000"><ele>174.5</ele><time>2026-09-07T00:00:00Z</time></trkpt>
<trkpt lat="37.802727000" lon="-121.967410000"><ele>174.3</ele><time>2026-09-07T00:00:00Z</time></trkpt>
<trkpt lat="37.802708000" lon="-121.967514000"><ele>174.1</ele><time>2026-09-07T00:00:00Z</time></trkpt>
<trkpt lat="37.802677000" lon="-121.967620000"><ele>173.9</ele><time>2026-09-07T00:00:00Z</time></trkpt>
<trkpt lat="37.802628000" lon="-121.967710000"><ele>173.7</ele><time>2026-09-07T00:00:00Z</time></trkpt>
<trkpt lat="37.802643000" lon="-121.967730000"><ele>173.5</ele><time>2026-09-07T00:00:00Z</time></trkpt>
</trkseg>
</trk>
</gpx>
