<?xml version="1.0" encoding="UTF-8"?>
<gpx
  version="1.1"
  creator="Runkeeper - http://www.runkeeper.com"
  xmlns:xsi="http://www.w3.org/2001/XMLSchema-instance"
  xmlns="http://www.topografix.com/GPX/1/1"
  xsi:schemaLocation="http://www.topografix.com/GPX/1/1 http://www.topografix.com/GPX/1/1/gpx.xsd"
  xmlns:gpxtpx="http://www.garmin.com/xmlschemas/TrackPointExtension/v1">
<trk>
  <name><![CDATA[Walking 8/11/26]]></name>
  <time>2026-08-12T00:00:00Z</time>
<trkseg>
<trkpt lat="37.809680000" lon="-121.978134000"><ele>124.7</ele><time>2026-08-12T00:00:00Z</time></trkpt>
<trkpt lat="37.809673000" lon="-121.978030000"><ele>124.7</ele><time>2026-08-12T00:00:00Z</time></trkpt>
<trkpt lat="37.809680000" lon="-121.977920000"><ele>124.8</ele><time>2026-08-12T00:00:00Z</time></trkpt>
<trkpt lat="37.809696000" lon="-121.977800000"><ele>124.8</ele><time>2026-08-12T00:00:00Z</time></trkpt>
<trkpt lat="37.809700000" lon="-121.977700000"><ele>124.8</ele><time>2026-08-12T00:00:00Z</time></trkpt>
<trkpt lat="37.809685000" lon="-121.977590000"><ele>124.8</ele><time>2026-08-12T00:00:00Z</time></trkpt>
<trkpt lat="37.809677000" lon="-121.977480000"><ele>124.8</ele><time>2026-08-12T00:00:00Z</time></trkpt>
<trkpt lat="37.809673000" lon="-121.977360000"><ele>124.8</ele><time>2026-08-12T00:00:00Z</time></trkpt>
<trkpt lat="37.809658000" lon="-121.977260000"><ele>124.8</ele><time>2026-08-12T00:00:00Z</time></trkpt>
<trkpt lat="37.809630000" lon="-121.977160000"><ele>124.9</ele><time>2026-08-12T00:00:00Z</time></trkpt>
<trkpt lat="37.809643000" lon="-121.977060000"><ele>124.9</ele><time>2026-08-12T00:00:00Z</time></trkpt>
<trkpt lat="37.809723000" lon="-121.977005000"><ele>124.8</ele><time>2026-08-12T00:00:00Z</time></trkpt>
<trkpt lat="37.809800000" lon="-121.976944000"><ele>124.7</ele><time>2026-08-12T00:00:00Z</time></trkpt>
<trkpt lat="37.809880000" lon="-121.976890000"><ele>124.6</ele><time>2026-08-12T00:00:00Z</time></trkpt>
<trkpt lat="37.809960000" lon="-121.976840000"><ele>124.5</ele><time>2026-08-12T00:00:00Z</time></trkpt>
<trkpt lat="37.810040000" lon="-121.976790000"><ele>124.5</ele><time>2026-08-12T00:00:00Z</time></trkpt>
<trkpt lat="37.810120000" lon="-121.976740000"><ele>124.5</ele><time>2026-08-12T00:00:00Z</time></trkpt>
<trkpt lat="37.810200000" lon="-121.976690000"><ele>124.5</ele><time>2026-08-12T00:00:00Z</time></trkpt>
<trkpt lat="37.810280000" lon="-121.976654000"><ele>124.5</ele><time>2026-08-12T00:00:00Z</time></trkpt>
<trkpt lat="37.810207000" lon="-121.976720000"><ele>124.5</ele><time>2026-08-12T00:00:00Z</time></trkpt>
<trkpt lat="37.810123000" lon="-121.976750000"><ele>124.5</ele><time>2026-08-12T00:00:00Z</time></trkpt>
<trkpt lat="37.810050000" lon="-121.976830000"><ele>124.5</ele><time>2026-08-12T00:00:00Z</time></trkpt>
<trkpt lat="37.809967000" lon="-121.976840000"><ele>124.6</ele><time>2026-08-12T00:00:00Z</time></trkpt>
<trkpt lat="37.809887000" lon="-121.976875000"><ele>124.7</ele><time>2026-08-12T00:00:00Z</time></trkpt>
<trkpt lat="37.809803000" lon="-121.976920000"><ele>124.9</ele><time>2026-08-12T00:00:00Z</time></trkpt>
<trkpt lat="37.809723000" lon="-121.976960000"><ele>125.1</ele><time>2026-08-12T00:00:00Z</time></trkpt>
<trkpt lat="37.809647000" lon="-121.977010000"><ele>125.3</ele><time>2026-08-12T00:00:00Z</time></trkpt>
<trkpt lat="37.809605000" lon="-121.977104000"><ele>125.4</ele><time>2026-08-12T00:00:00Z</time></trkpt>
<trkpt lat="37.809520000" lon="-121.977135000"><ele>125.5</ele><time>2026-08-12T00:00:00Z</time></trkpt>
<trkpt lat="37.809433000" lon="-121.977140000"><ele>125.5</ele><time>2026-08-12T00:00:00Z</time></trkpt>
<trkpt lat="37.809345000" lon="-121.977170000"><ele>125.6</ele><time>2026-08-12T00:00:00Z</time></trkpt>
<trkpt lat="37.809265000" lon="-121.977210000"><ele>125.7</ele><time>2026-08-12T00:00:00Z</time></trkpt>
<trkpt lat="37.809185000" lon="-121.977230000"><ele>125.9</ele><time>2026-08-12T00:00:00Z</time></trkpt>
<trkpt lat="37.809097000" lon="-121.977234000"><ele>126.1</ele><time>2026-08-12T00:00:00Z</time></trkpt>
<trkpt lat="37.809010000" lon="-121.977250000"><ele>126.3</ele><time>2026-08-12T00:00:00Z</time></trkpt>
<trkpt lat="37.808926000" lon="-121.977260000"><ele>126.4</ele><time>2026-08-12T00:00:00Z</time></trkpt>
<trkpt lat="37.808853000" lon="-121.977320000"><ele>126.5</ele><time>2026-08-12T00:00:00Z</time></trkpt>
<trkpt lat="37.808846000" lon="-121.977430000"><ele>126.5</ele><time>2026-08-12T00:00:00Z</time></trkpt>
<trkpt lat="37.808853000" lon="-121.977540000"><ele>126.6</ele><time>2026-08-12T00:00:00Z</time></trkpt>
<trkpt lat="37.808857000" lon="-121.977660000"><ele>126.7</ele><time>2026-08-12T00:00:00Z</time></trkpt>
<trkpt lat="37.808773000" lon="-121.977620000"><ele>126.8</ele><time>2026-08-12T00:00:00Z</time></trkpt>
<trkpt lat="37.808743000" lon="-121.977516000"><ele>126.9</ele><time>2026-08-12T00:00:00Z</time></trkpt>
<trkpt lat="37.808735000" lon="-121.977400000"><ele>127.0</ele><time>2026-08-12T00:00:00Z</time></trkpt>
<trkpt lat="37.808727000" lon="-121.977290000"><ele>127.0</ele><time>2026-08-12T00:00:00Z</time></trkpt>
<trkpt lat="37.808643000" lon="-121.977234000"><ele>127.0</ele><time>2026-08-12T00:00:00Z</time></trkpt>
<trkpt lat="37.808563000" lon="-121.977220000"><ele>127.0</ele><time>2026-08-12T00:00:00Z</time></trkpt>
<trkpt lat="37.808483000" lon="-121.977200000"><ele>127.0</ele><time>2026-08-12T00:00:00Z</time></trkpt>
<trkpt lat="37.808388000" lon="-121.977200000"><ele>127.0</ele><time>2026-08-12T00:00:00Z</time></trkpt>
<trkpt lat="37.808300000" lon="-121.977200000"><ele>127.0</ele><time>2026-08-12T00:00:00Z</time></trkpt>
<trkpt lat="37.808216000" lon="-121.977220000"><ele>127.0</ele><time>2026-08-12T00:00:00Z</time></trkpt>
<trkpt lat="37.808132000" lon="-121.977230000"><ele>127.0</ele><time>2026-08-12T00:00:00Z</time></trkpt>
<trkpt lat="37.808052000" lon="-121.977250000"><ele>127.0</ele><time>2026-08-12T00:00:00Z</time></trkpt>
<trkpt lat="37.807964000" lon="-121.977264000"><ele>127.0</ele><time>2026-08-12T00:00:00Z</time></trkpt>
<trkpt lat="37.807884000" lon="-121.977310000"><ele>127.0</ele><time>2026-08-12T00:00:00Z</time></trkpt>
<trkpt lat="37.807790000" lon="-121.977330000"><ele>127.0</ele><time>2026-08-12T00:00:00Z</time></trkpt>
<trkpt lat="37.807713000" lon="-121.977370000"><ele>126.9</ele><time>2026-08-12T00:00:00Z</time></trkpt>
<trkpt lat="37.807636000" lon="-121.977420000"><ele>126.8</ele><time>2026-08-12T00:00:00Z</time></trkpt>
<trkpt lat="37.807560000" lon="-121.977460000"><ele>126.7</ele><time>2026-08-12T00:00:00Z</time></trkpt>
<trkpt lat="37.807490000" lon="-121.977520000"><ele>126.6</ele><time>2026-08-12T00:00:00Z</time></trkpt>
<trkpt lat="37.807404000" lon="-121.977540000"><ele>126.5</ele><time>2026-08-12T00:00:00Z</time></trkpt>
<trkpt lat="37.807320000" lon="-121.977570000"><ele>126.5</ele><time>2026-08-12T00:00:00Z</time></trkpt>
<trkpt lat="37.807236000" lon="-121.977585000"><ele>126.6</ele><time>2026-08-12T00:00:00Z</time></trkpt>
<trkpt lat="37.807150000" lon="-121.977590000"><ele>126.8</ele><time>2026-08-12T00:00:00Z</time></trkpt>
<trkpt lat="37.807064000" lon="-121.977610000"><ele>127.0</ele><time>2026-08-12T00:00:00Z</time></trkpt>
<trkpt lat="37.806976000" lon="-121.977620000"><ele>127.3</ele><time>2026-08-12T00:00:00Z</time></trkpt>
<trkpt lat="37.806885000" lon="-121.977615000"><ele>127.5</ele><time>2026-08-12T00:00:00Z</time></trkpt>
<trkpt lat="37.806797000" lon="-121.977620000"><ele>127.9</ele><time>2026-08-12T00:00:00Z</time></trkpt>
<trkpt lat="37.806713000" lon="-121.977615000"><ele>128.3</ele><time>2026-08-12T00:00:00Z</time></trkpt>
<trkpt lat="37.806633000" lon="-121.977600000"><ele>128.6</ele><time>2026-08-12T00:00:00Z</time></trkpt>
<trkpt lat="37.806550000" lon="-121.977585000"><ele>129.0</ele><time>2026-08-12T00:00:00Z</time></trkpt>
<trkpt lat="37.806450000" lon="-121.977590000"><ele>129.4</ele><time>2026-08-12T00:00:00Z</time></trkpt>
<trkpt lat="37.806374000" lon="-121.977560000"><ele>129.5</ele><time>2026-08-12T00:00:00Z</time></trkpt>
<trkpt lat="37.806290000" lon="-121.977550000"><ele>129.5</ele><time>2026-08-12T00:00:00Z</time></trkpt>
<trkpt lat="37.806396000" lon="-121.977570000"><ele>129.5</ele><time>2026-08-12T00:00:00Z</time></trkpt>
<trkpt lat="37.806490000" lon="-121.977590000"><ele>129.3</ele><time>2026-08-12T00:00:00Z</time></trkpt>
<trkpt lat="37.806583000" lon="-121.977610000"><ele>128.9</ele><time>2026-08-12T00:00:00Z</time></trkpt>
<trkpt lat="37.806675000" lon="-121.977615000"><ele>128.5</ele><time>2026-08-12T00:00:00Z</time></trkpt>
<trkpt lat="37.806760000" lon="-121.977630000"><ele>128.2</ele><time>2026-08-12T00:00:00Z</time></trkpt>
<trkpt lat="37.806850000" lon="-121.977640000"><ele>127.8</ele><time>2026-08-12T00:00:00Z</time></trkpt>
<trkpt lat="37.806942000" lon="-121.977646000"><ele>127.5</ele><time>2026-08-12T00:00:00Z</time></trkpt>
<trkpt lat="37.807037000" lon="-121.977646000"><ele>127.1</ele><time>2026-08-12T00:00:00Z</time></trkpt>
<trkpt lat="37.807120000" lon="-121.977640000"><ele>126.7</ele><time>2026-08-12T00:00:00Z</time></trkpt>
<trkpt lat="37.807205000" lon="-121.977620000"><ele>126.5</ele><time>2026-08-12T00:00:00Z</time></trkpt>
<trkpt lat="37.807293000" lon="-121.977615000"><ele>126.3</ele><time>2026-08-12T00:00:00Z</time></trkpt>
<trkpt lat="37.807343000" lon="-121.977710000"><ele>126.1</ele><time>2026-08-12T00:00:00Z</time></trkpt>
<trkpt lat="37.807360000" lon="-121.977830000"><ele>126.0</ele><time>2026-08-12T00:00:00Z</time></trkpt>
<trkpt lat="37.807380000" lon="-121.977936000"><ele>125.9</ele><time>2026-08-12T00:00:00Z</time></trkpt>
<trkpt lat="37.807396000" lon="-121.978050000"><ele>125.7</ele><time>2026-08-12T00:00:00Z</time></trkpt>
<trkpt lat="37.807415000" lon="-121.978165000"><ele>125.5</ele><time>2026-08-12T00:00:00Z</time></trkpt>
<trkpt lat="37.807426000" lon="-121.978264000"><ele>125.5</ele><time>2026-08-12T00:00:00Z</time></trkpt>
<trkpt lat="37.807434000" lon="-121.978380000"><ele>125.4</ele><time>2026-08-12T00:00:00Z</time></trkpt>
<trkpt lat="37.807438000" lon="-121.978480000"><ele>125.3</ele><time>2026-08-12T00:00:00Z</time></trkpt>
<trkpt lat="37.807472000" lon="-121.978584000"><ele>125.2</ele><time>2026-08-12T00:00:00Z</time></trkpt>
<trkpt lat="37.807564000" lon="-121.978590000"><ele>125.2</ele><time>2026-08-12T00:00:00Z</time></trkpt>
<trkpt lat="37.807655000" lon="-121.978600000"><ele>125.1</ele><time>2026-08-12T00:00:00Z</time></trkpt>
<trkpt lat="37.807740000" lon="-121.978640000"><ele>125.0</ele><time>2026-08-12T00:00:00Z</time></trkpt>
<trkpt lat="37.807835000" lon="-121.978650000"><ele>124.9</ele><time>2026-08-12T00:00:00Z</time></trkpt>
<trkpt lat="37.807907000" lon="-121.978710000"><ele>124.9</ele><time>2026-08-12T00:00:00Z</time></trkpt>
<trkpt lat="37.807945000" lon="-121.978806000"><ele>124.9</ele><time>2026-08-12T00:00:00Z</time></trkpt>
<trkpt lat="37.807860000" lon="-121.978770000"><ele>125.0</ele><time>2026-08-12T00:00:00Z</time></trkpt>
<trkpt lat="37.807793000" lon="-121.978710000"><ele>125.0</ele><time>2026-08-12T00:00:00Z</time></trkpt>
<trkpt lat="37.807705000" lon="-121.978690000"><ele>125.0</ele><time>2026-08-12T00:00:00Z</time></trkpt>
<trkpt lat="37.807617000" lon="-121.978700000"><ele>124.9</ele><time>2026-08-12T00:00:00Z</time></trkpt>
<trkpt lat="37.807530000" lon="-121.978690000"><ele>124.8</ele><time>2026-08-12T00:00:00Z</time></trkpt>
<trkpt lat="37.807457000" lon="-121.978760000"><ele>124.6</ele><time>2026-08-12T00:00:00Z</time></trkpt>
<trkpt lat="37.807450000" lon="-121.978870000"><ele>124.5</ele><time>2026-08-12T00:00:00Z</time></trkpt>
<trkpt lat="37.807440000" lon="-121.978970000"><ele>124.5</ele><time>2026-08-12T00:00:00Z</time></trkpt>
<trkpt lat="37.807450000" lon="-121.979090000"><ele>124.4</ele><time>2026-08-12T00:00:00Z</time></trkpt>
<trkpt lat="37.807470000" lon="-121.979200000"><ele>124.3</ele><time>2026-08-12T00:00:00Z</time></trkpt>
<trkpt lat="37.807495000" lon="-121.979300000"><ele>124.3</ele><time>2026-08-12T00:00:00Z</time></trkpt>
<trkpt lat="37.807530000" lon="-121.979410000"><ele>124.2</ele><time>2026-08-12T00:00:00Z</time></trkpt>
<trkpt lat="37.807545000" lon="-121.979515000"><ele>124.1</ele><time>2026-08-12T00:00:00Z</time></trkpt>
<trkpt lat="37.807526000" lon="-121.979630000"><ele>124.0</ele><time>2026-08-12T00:00:00Z</time></trkpt>
<trkpt lat="37.807537000" lon="-121.979740000"><ele>124.0</ele><time>2026-08-12T00:00:00Z</time></trkpt>
<trkpt lat="37.807495000" lon="-121.979830000"><ele>124.0</ele><time>2026-08-12T00:00:00Z</time></trkpt>
<trkpt lat="37.807440000" lon="-121.979910000"><ele>123.9</ele><time>2026-08-12T00:00:00Z</time></trkpt>
<trkpt lat="37.807396000" lon="-121.980000000"><ele>123.8</ele><time>2026-08-12T00:00:00Z</time></trkpt>
<trkpt lat="37.807480000" lon="-121.979960000"><ele>123.7</ele><time>2026-08-12T00:00:00Z</time></trkpt>
<trkpt lat="37.807540000" lon="-121.979870000"><ele>123.6</ele><time>2026-08-12T00:00:00Z</time></trkpt>
<trkpt lat="37.807613000" lon="-121.979805000"><ele>123.5</ele><time>2026-08-12T00:00:00Z</time></trkpt>
<trkpt lat="37.807686000" lon="-121.979760000"><ele>123.5</ele><time>2026-08-12T00:00:00Z</time></trkpt>
<trkpt lat="37.807766000" lon="-121.979790000"><ele>123.4</ele><time>2026-08-12T00:00:00Z</time></trkpt>
<trkpt lat="37.807842000" lon="-121.979860000"><ele>123.2</ele><time>2026-08-12T00:00:00Z</time></trkpt>
<trkpt lat="37.807922000" lon="-121.979904000"><ele>123.0</ele><time>2026-08-12T00:00:00Z</time></trkpt>
<trkpt lat="37.808010000" lon="-121.979950000"><ele>122.8</ele><time>2026-08-12T00:00:00Z</time></trkpt>
<trkpt lat="37.808098000" lon="-121.979980000"><ele>122.6</ele><time>2026-08-12T00:00:00Z</time></trkpt>
<trkpt lat="37.808180000" lon="-121.979996000"><ele>122.5</ele><time>2026-08-12T00:00:00Z</time></trkpt>
<trkpt lat="37.808266000" lon="-121.980000000"><ele>122.5</ele><time>2026-08-12T00:00:00Z</time></trkpt>
<trkpt lat="37.808357000" lon="-121.979996000"><ele>122.3</ele><time>2026-08-12T00:00:00Z</time></trkpt>
<trkpt lat="37.808450000" lon="-121.979990000"><ele>122.1</ele><time>2026-08-12T00:00:00Z</time></trkpt>
<trkpt lat="37.808533000" lon="-121.979960000"><ele>121.9</ele><time>2026-08-12T00:00:00Z</time></trkpt>
<trkpt lat="37.808617000" lon="-121.979935000"><ele>121.7</ele><time>2026-08-12T00:00:00Z</time></trkpt>
<trkpt lat="37.808704000" lon="-121.979920000"><ele>121.5</ele><time>2026-08-12T00:00:00Z</time></trkpt>
<trkpt lat="37.808760000" lon="-121.979840000"><ele>121.5</ele><time>2026-08-12T00:00:00Z</time></trkpt>
<trkpt lat="37.808792000" lon="-121.979744000"><ele>121.5</ele><time>2026-08-12T00:00:00Z</time></trkpt>
<trkpt lat="37.808784000" lon="-121.979630000"><ele>121.5</ele><time>2026-08-12T00:00:00Z</time></trkpt>
<trkpt lat="37.808780000" lon="-121.979515000"><ele>121.5</ele><time>2026-08-12T00:00:00Z</time></trkpt>
<trkpt lat="37.808792000" lon="-121.979410000"><ele>121.5</ele><time>2026-08-12T00:00:00Z</time></trkpt>
<trkpt lat="37.808796000" lon="-121.979300000"><ele>121.5</ele><time>2026-08-12T00:00:00Z</time></trkpt>
<trkpt lat="37.808792000" lon="-121.979190000"><ele>121.6</ele><time>2026-08-12T00:00:00Z</time></trkpt>
<trkpt lat="37.808792000" lon="-121.979090000"><ele>121.6</ele><time>2026-08-12T00:00:00Z</time></trkpt>
<trkpt lat="37.808800000" lon="-121.978966000"><ele>121.6</ele><time>2026-08-12T00:00:00Z</time></trkpt>
<trkpt lat="37.808850000" lon="-121.979060000"><ele>121.6</ele><time>2026-08-12T00:00:00Z</time></trkpt>
<trkpt lat="37.808838000" lon="-121.979170000"><ele>121.6</ele><time>2026-08-12T00:00:00Z</time></trkpt>
<trkpt lat="37.808823000" lon="-121.979294000"><ele>121.5</ele><time>2026-08-12T00:00:00Z</time></trkpt>
<trkpt lat="37.808820000" lon="-121.979400000"><ele>121.5</ele><time>2026-08-12T00:00:00Z</time></trkpt>
<trkpt lat="37.808830000" lon="-121.979510000"><ele>121.4</ele><time>2026-08-12T00:00:00Z</time></trkpt>
<trkpt lat="37.808834000" lon="-121.979614000"><ele>121.3</ele><time>2026-08-12T00:00:00Z</time></trkpt>
<trkpt lat="37.808834000" lon="-121.979740000"><ele>121.2</ele><time>2026-08-12T00:00:00Z</time></trkpt>
<trkpt lat="37.808838000" lon="-121.979840000"><ele>121.1</ele><time>2026-08-12T00:00:00Z</time></trkpt>
<trkpt lat="37.808920000" lon="-121.979870000"><ele>121.0</ele><time>2026-08-12T00:00:00Z</time></trkpt>
<trkpt lat="37.809010000" lon="-121.979866000"><ele>121.0</ele><time>2026-08-12T00:00:00Z</time></trkpt>
<trkpt lat="37.809100000" lon="-121.979870000"><ele>121.0</ele><time>2026-08-12T00:00:00Z</time></trkpt>
<trkpt lat="37.809193000" lon="-121.979870000"><ele>121.0</ele><time>2026-08-12T00:00:00Z</time></trkpt>
<trkpt lat="37.809288000" lon="-121.979880000"><ele>121.0</ele><time>2026-08-12T00:00:00Z</time></trkpt>
<trkpt lat="37.809372000" lon="-121.979900000"><ele>121.0</ele><time>2026-08-12T00:00:00Z</time></trkpt>
<trkpt lat="37.809464000" lon="-121.979904000"><ele>121.0</ele><time>2026-08-12T00:00:00Z</time></trkpt>
<trkpt lat="37.809544000" lon="-121.979850000"><ele>121.0</ele><time>2026-08-12T00:00:00Z</time></trkpt>
<trkpt lat="37.809624000" lon="-121.979805000"><ele>121.1</ele><time>2026-08-12T00:00:00Z</time></trkpt>
<trkpt lat="37.809673000" lon="-121.979710000"><ele>121.2</ele><time>2026-08-12T00:00:00Z</time></trkpt>
<trkpt lat="37.809700000" lon="-121.979620000"><ele>121.4</ele><time>2026-08-12T00:00:00Z</time></trkpt>
<trkpt lat="37.809727000" lon="-121.979510000"><ele>121.6</ele><time>2026-08-12T00:00:00Z</time></trkpt>
<trkpt lat="37.809740000" lon="-121.979410000"><ele>121.9</ele><time>2026-08-12T00:00:00Z</time></trkpt>
<trkpt lat="37.809765000" lon="-121.979300000"><ele>122.3</ele><time>2026-08-12T00:00:00Z</time></trkpt>
<trkpt lat="37.809776000" lon="-121.979190000"><ele>122.6</ele><time>2026-08-12T00:00:00Z</time></trkpt>
<trkpt lat="37.809780000" lon="-121.979070000"><ele>123.0</ele><time>2026-08-12T00:00:00Z</time></trkpt>
<trkpt lat="37.809780000" lon="-121.978966000"><ele>123.4</ele><time>2026-08-12T00:00:00Z</time></trkpt>
<trkpt lat="37.809780000" lon="-121.978840000"><ele>123.7</ele><time>2026-08-12T00:00:00Z</time></trkpt>
<trkpt lat="37.809772000" lon="-121.978740000"><ele>124.1</ele><time>2026-08-12T00:00:00Z</time></trkpt>
<trkpt lat="37.809750000" lon="-121.978630000"><ele>124.4</ele><time>2026-08-12T00:00:00Z</time></trkpt>
<trkpt lat="37.809723000" lon="-121.978516000"><ele>124.6</ele><time>2026-08-12T00:00:00Z</time></trkpt>
<trkpt lat="37.809715000" lon="-121.978410000"><ele>124.8</ele><time>2026-08-12T00:00:00Z</time></trkpt>
<trkpt lat="37.809720000" lon="-121.978294000"><ele>124.9</ele><time>2026-08-12T00:00:00Z</time></trkpt>
<trkpt lat="37.809710000" lon="-121.978190000"><ele>125.0</ele><time>2026-08-12T00:00:00Z</time></trkpt>
<trkpt lat="37.809708000" lon="-121.978080000"><ele>125.0</ele><time>2026-08-12T00:00:00Z</time></trkpt>
<trkpt lat="37.809690000" lon="-121.978165000"><ele>125.0</ele><time>2026-08-12T00:00:00Z</time></trkpt>
</trkseg>
</trk>
</gpx>
