<?xml version="1.0" encoding="UTF-8"?>
<gpx
  version="1.1"
  creator="Runkeeper - http://www.runkeeper.com"
  xmlns:xsi="http://www.w3.org/2001/XMLSchema-instance"
  xmlns="http://www.topografix.com/GPX/1/1"
  xsi:schemaLocation="http://www.topografix.com/GPX/1/1 http://www.topografix.com/GPX/1/1/gpx.xsd"
  xmlns:gpxtpx="http://www.garmin.com/xmlschemas/TrackPointExtension/v1">
<trk>
  <name><![CDATA[Walking 7/30/26]]></name>
  <time>2026-07-30T00:00:00Z</time>
<trkseg>
<trkpt lat="37.812634000" lon="-121.955030000"><ele>153.7</ele><time>2026-07-30T00:00:00Z</time></trkpt>
<trkpt lat="37.812590000" lon="-121.955140000"><ele>153.4</ele><time>2026-07-30T00:00:00Z</time></trkpt>
<trkpt lat="37.812508000" lon="-121.955130000"><ele>153.1</ele><time>2026-07-30T00:00:00Z</time></trkpt>
<trkpt lat="37.812430000" lon="-121.955070000"><ele>152.9</ele><time>2026-07-30T00:00:00Z</time></trkpt>
<trkpt lat="37.812340000" lon="-121.955055000"><ele>152.7</ele><time>2026-07-30T00:00:00Z</time></trkpt>
<trkpt lat="37.812267000" lon="-121.955100000"><ele>152.5</ele><time>2026-07-30T00:00:00Z</time></trkpt>
<trkpt lat="37.812183000" lon="-121.955060000"><ele>152.2</ele><time>2026-07-30T00:00:00Z</time></trkpt>
<trkpt lat="37.812096000" lon="-121.955030000"><ele>151.8</ele><time>2026-07-30T00:00:00Z</time></trkpt>
<trkpt lat="37.812016000" lon="-121.954994000"><ele>151.5</ele><time>2026-07-30T00:00:00Z</time></trkpt>
<trkpt lat="37.811943000" lon="-121.954950000"><ele>151.5</ele><time>2026-07-30T00:00:00Z</time></trkpt>
<trkpt lat="37.811850000" lon="-121.954910000"><ele>151.5</ele><time>2026-07-30T00:00:00Z</time></trkpt>
<trkpt lat="37.811790000" lon="-121.954834000"><ele>151.6</ele><time>2026-07-30T00:00:00Z</time></trkpt>
<trkpt lat="37.811733000" lon="-121.954760000"><ele>151.8</ele><time>2026-07-30T00:00:00Z</time></trkpt>
<trkpt lat="37.811680000" lon="-121.954666000"><ele>152.2</ele><time>2026-07-30T00:00:00Z</time></trkpt>
<trkpt lat="37.811634000" lon="-121.954575000"><ele>152.5</ele><time>2026-07-30T00:00:00Z</time></trkpt>
<trkpt lat="37.811596000" lon="-121.954470000"><ele>153.0</ele><time>2026-07-30T00:00:00Z</time></trkpt>
<trkpt lat="37.811565000" lon="-121.954370000"><ele>153.5</ele><time>2026-07-30T00:00:00Z</time></trkpt>
<trkpt lat="37.811550000" lon="-121.954260000"><ele>154.2</ele><time>2026-07-30T00:00:00Z</time></trkpt>
<trkpt lat="37.811543000" lon="-121.954155000"><ele>154.9</ele><time>2026-07-30T00:00:00Z</time></trkpt>
<trkpt lat="37.811523000" lon="-121.954050000"><ele>155.6</ele><time>2026-07-30T00:00:00Z</time></trkpt>
<trkpt lat="37.811535000" lon="-121.953940000"><ele>156.4</ele><time>2026-07-30T00:00:00Z</time></trkpt>
<trkpt lat="37.811560000" lon="-121.953840000"><ele>157.0</ele><time>2026-07-30T00:00:00Z</time></trkpt>
<trkpt lat="37.811584000" lon="-121.953720000"><ele>157.6</ele><time>2026-07-30T00:00:00Z</time></trkpt>
<trkpt lat="37.811596000" lon="-121.953610000"><ele>158.3</ele><time>2026-07-30T00:00:00Z</time></trkpt>
<trkpt lat="37.811623000" lon="-121.953514000"><ele>158.9</ele><time>2026-07-30T00:00:00Z</time></trkpt>
<trkpt lat="37.811650000" lon="-121.953410000"><ele>159.6</ele><time>2026-07-30T00:00:00Z</time></trkpt>
<trkpt lat="37.811680000" lon="-121.953300000"><ele>160.3</ele><time>2026-07-30T00:00:00Z</time></trkpt>
<trkpt lat="37.811707000" lon="-121.953200000"><ele>160.9</ele><time>2026-07-30T00:00:00Z</time></trkpt>
<trkpt lat="37.811730000" lon="-121.953100000"><ele>161.5</ele><time>2026-07-30T00:00:00Z</time></trkpt>
<trkpt lat="37.811737000" lon="-121.952995000"><ele>162.0</ele><time>2026-07-30T00:00:00Z</time></trkpt>
<trkpt lat="37.811733000" lon="-121.952890000"><ele>162.6</ele><time>2026-07-30T00:00:00Z</time></trkpt>
<trkpt lat="37.811726000" lon="-121.952790000"><ele>163.2</ele><time>2026-07-30T00:00:00Z</time></trkpt>
<trkpt lat="37.811703000" lon="-121.952670000"><ele>163.7</ele><time>2026-07-30T00:00:00Z</time></trkpt>
<trkpt lat="37.811670000" lon="-121.952576000"><ele>164.1</ele><time>2026-07-30T00:00:00Z</time></trkpt>
<trkpt lat="37.811634000" lon="-121.952484000"><ele>164.4</ele><time>2026-07-30T00:00:00Z</time></trkpt>
<trkpt lat="37.811558000" lon="-121.952420000"><ele>164.5</ele><time>2026-07-30T00:00:00Z</time></trkpt>
<trkpt lat="37.811480000" lon="-121.952385000"><ele>164.4</ele><time>2026-07-30T00:00:00Z</time></trkpt>
<trkpt lat="37.811535000" lon="-121.952480000"><ele>164.2</ele><time>2026-07-30T00:00:00Z</time></trkpt>
<trkpt lat="37.811584000" lon="-121.952576000"><ele>163.9</ele><time>2026-07-30T00:00:00Z</time></trkpt>
<trkpt lat="37.811623000" lon="-121.952680000"><ele>163.5</ele><time>2026-07-30T00:00:00Z</time></trkpt>
<trkpt lat="37.811646000" lon="-121.952800000"><ele>163.2</ele><time>2026-07-30T00:00:00Z</time></trkpt>
<trkpt lat="37.811653000" lon="-121.952910000"><ele>162.6</ele><time>2026-07-30T00:00:00Z</time></trkpt>
<trkpt lat="37.811650000" lon="-121.953030000"><ele>162.1</ele><time>2026-07-30T00:00:00Z</time></trkpt>
<trkpt lat="37.811577000" lon="-121.953094000"><ele>161.5</ele><time>2026-07-30T00:00:00Z</time></trkpt>
<trkpt lat="37.811490000" lon="-121.953060000"><ele>160.8</ele><time>2026-07-30T00:00:00Z</time></trkpt>
<trkpt lat="37.811405000" lon="-121.953030000"><ele>160.2</ele><time>2026-07-30T00:00:00Z</time></trkpt>
<trkpt lat="37.811317000" lon="-121.953000000"><ele>159.5</ele><time>2026-07-30T00:00:00Z</time></trkpt>
<trkpt lat="37.811226000" lon="-121.952995000"><ele>159.0</ele><time>2026-07-30T00:00:00Z</time></trkpt>
<trkpt lat="37.811134000" lon="-121.952980000"><ele>158.5</ele><time>2026-07-30T00:00:00Z</time></trkpt>
<trkpt lat="37.811043000" lon="-121.952995000"><ele>157.8</ele><time>2026-07-30T00:00:00Z</time></trkpt>
<trkpt lat="37.810947000" lon="-121.953010000"><ele>157.3</ele><time>2026-07-30T00:00:00Z</time></trkpt>
<trkpt lat="37.810863000" lon="-121.953020000"><ele>156.6</ele><time>2026-07-30T00:00:00Z</time></trkpt>
<trkpt lat="37.810776000" lon="-121.953030000"><ele>156.1</ele><time>2026-07-30T00:00:00Z</time></trkpt>
<trkpt lat="37.810696000" lon="-121.953064000"><ele>155.5</ele><time>2026-07-30T00:00:00Z</time></trkpt>
<trkpt lat="37.810610000" lon="-121.953094000"><ele>155.1</ele><time>2026-07-30T00:00:00Z</time></trkpt>
<trkpt lat="37.810530000" lon="-121.953125000"><ele>154.8</ele><time>2026-07-30T00:00:00Z</time></trkpt>
<trkpt lat="37.810455000" lon="-121.953160000"><ele>154.6</ele><time>2026-07-30T00:00:00Z</time></trkpt>
<trkpt lat="37.810430000" lon="-121.953260000"><ele>154.6</ele><time>2026-07-30T00:00:00Z</time></trkpt>
<trkpt lat="37.810510000" lon="-121.953260000"><ele>154.7</ele><time>2026-07-30T00:00:00Z</time></trkpt>
<trkpt lat="37.810580000" lon="-121.953200000"><ele>154.9</ele><time>2026-07-30T00:00:00Z</time></trkpt>
<trkpt lat="37.810658000" lon="-121.953160000"><ele>155.3</ele><time>2026-07-30T00:00:00Z</time></trkpt>
<trkpt lat="37.810738000" lon="-121.953125000"><ele>155.7</ele><time>2026-07-30T00:00:00Z</time></trkpt>
<trkpt lat="37.810818000" lon="-121.953100000"><ele>156.2</ele><time>2026-07-30T00:00:00Z</time></trkpt>
<trkpt lat="37.810913000" lon="-121.953090000"><ele>156.7</ele><time>2026-07-30T00:00:00Z</time></trkpt>
<trkpt lat="37.810993000" lon="-121.953064000"><ele>157.3</ele><time>2026-07-30T00:00:00Z</time></trkpt>
<trkpt lat="37.811080000" lon="-121.953064000"><ele>157.8</ele><time>2026-07-30T00:00:00Z</time></trkpt>
<trkpt lat="37.811176000" lon="-121.953090000"><ele>158.3</ele><time>2026-07-30T00:00:00Z</time></trkpt>
<trkpt lat="37.811268000" lon="-121.953094000"><ele>158.7</ele><time>2026-07-30T00:00:00Z</time></trkpt>
<trkpt lat="37.811360000" lon="-121.953120000"><ele>159.0</ele><time>2026-07-30T00:00:00Z</time></trkpt>
<trkpt lat="37.811455000" lon="-121.953130000"><ele>159.2</ele><time>2026-07-30T00:00:00Z</time></trkpt>
<trkpt lat="37.811530000" lon="-121.953170000"><ele>159.3</ele><time>2026-07-30T00:00:00Z</time></trkpt>
<trkpt lat="37.811596000" lon="-121.953250000"><ele>159.2</ele><time>2026-07-30T00:00:00Z</time></trkpt>
<trkpt lat="37.811584000" lon="-121.953370000"><ele>158.8</ele><time>2026-07-30T00:00:00Z</time></trkpt>
<trkpt lat="37.811540000" lon="-121.953470000"><ele>158.5</ele><time>2026-07-30T00:00:00Z</time></trkpt>
<trkpt lat="37.811510000" lon="-121.953575000"><ele>157.9</ele><time>2026-07-30T00:00:00Z</time></trkpt>
<trkpt lat="37.811478000" lon="-121.953674000"><ele>157.4</ele><time>2026-07-30T00:00:00Z</time></trkpt>
<trkpt lat="37.811450000" lon="-121.953770000"><ele>156.7</ele><time>2026-07-30T00:00:00Z</time></trkpt>
<trkpt lat="37.811430000" lon="-121.953870000"><ele>156.1</ele><time>2026-07-30T00:00:00Z</time></trkpt>
<trkpt lat="37.811420000" lon="-121.953980000"><ele>155.5</ele><time>2026-07-30T00:00:00Z</time></trkpt>
<trkpt lat="37.811333000" lon="-121.954020000"><ele>154.9</ele><time>2026-07-30T00:00:00Z</time></trkpt>
<trkpt lat="37.811250000" lon="-121.954020000"><ele>154.4</ele><time>2026-07-30T00:00:00Z</time></trkpt>
<trkpt lat="37.811165000" lon="-121.954010000"><ele>153.9</ele><time>2026-07-30T00:00:00Z</time></trkpt>
<trkpt lat="37.811070000" lon="-121.954040000"><ele>153.6</ele><time>2026-07-30T00:00:00Z</time></trkpt>
<trkpt lat="37.810997000" lon="-121.954100000"><ele>153.5</ele><time>2026-07-30T00:00:00Z</time></trkpt>
<trkpt lat="37.811060000" lon="-121.954170000"><ele>153.5</ele><time>2026-07-30T00:00:00Z</time></trkpt>
<trkpt lat="37.811140000" lon="-121.954130000"><ele>153.5</ele><time>2026-07-30T00:00:00Z</time></trkpt>
<trkpt lat="37.811222000" lon="-121.954124000"><ele>153.5</ele><time>2026-07-30T00:00:00Z</time></trkpt>
<trkpt lat="37.811314000" lon="-121.954120000"><ele>153.5</ele><time>2026-07-30T00:00:00Z</time></trkpt>
<trkpt lat="37.811400000" lon="-121.954150000"><ele>153.4</ele><time>2026-07-30T00:00:00Z</time></trkpt>
<trkpt lat="37.811474000" lon="-121.954200000"><ele>153.2</ele><time>2026-07-30T00:00:00Z</time></trkpt>
<trkpt lat="37.811540000" lon="-121.954280000"><ele>153.0</ele><time>2026-07-30T00:00:00Z</time></trkpt>
<trkpt lat="37.811558000" lon="-121.954380000"><ele>152.8</ele><time>2026-07-30T00:00:00Z</time></trkpt>
<trkpt lat="37.811584000" lon="-121.954475000"><ele>152.6</ele><time>2026-07-30T00:00:00Z</time></trkpt>
<trkpt lat="37.811620000" lon="-121.954575000"><ele>152.3</ele><time>2026-07-30T00:00:00Z</time></trkpt>
<trkpt lat="37.811665000" lon="-121.954660000"><ele>151.9</ele><time>2026-07-30T00:00:00Z</time></trkpt>
<trkpt lat="37.811718000" lon="-121.954760000"><ele>151.6</ele><time>2026-07-30T00:00:00Z</time></trkpt>
<trkpt lat="37.811787000" lon="-121.954834000"><ele>151.4</ele><time>2026-07-30T00:00:00Z</time></trkpt>
<trkpt lat="37.811863000" lon="-121.954900000"><ele>151.2</ele><time>2026-07-30T00:00:00Z</time></trkpt>
<trkpt lat="37.811935000" lon="-121.954956000"><ele>151.1</ele><time>2026-07-30T00:00:00Z</time></trkpt>
<trkpt lat="37.812010000" lon="-121.955010000"><ele>151.2</ele><time>2026-07-30T00:00:00Z</time></trkpt>
<trkpt lat="37.812077000" lon="-121.954940000"><ele>151.4</ele><time>2026-07-30T00:00:00Z</time></trkpt>
<trkpt lat="37.812120000" lon="-121.955040000"><ele>151.6</ele><time>2026-07-30T00:00:00Z</time></trkpt>
<trkpt lat="37.812200000" lon="-121.955100000"><ele>151.9</ele><time>2026-07-30T00:00:00Z</time></trkpt>
<trkpt lat="37.812256000" lon="-121.955180000"><ele>152.1</ele><time>2026-07-30T00:00:00Z</time></trkpt>
<trkpt lat="37.812336000" lon="-121.955210000"><ele>152.4</ele><time>2026-07-30T00:00:00Z</time></trkpt>
<trkpt lat="37.812416000" lon="-121.955230000"><ele>152.6</ele><time>2026-07-30T00:00:00Z</time></trkpt>
<trkpt lat="37.812496000" lon="-121.955280000"><ele>152.7</ele><time>2026-07-30T00:00:00Z</time></trkpt>
<trkpt lat="37.812527000" lon="-121.955380000"><ele>152.8</ele><time>2026-07-30T00:00:00Z</time></trkpt>
<trkpt lat="37.812553000" lon="-121.955480000"><ele>152.8</ele><time>2026-07-30T00:00:00Z</time></trkpt>
<trkpt lat="37.812595000" lon="-121.955580000"><ele>152.8</ele><time>2026-07-30T00:00:00Z</time></trkpt>
<trkpt lat="37.812640000" lon="-121.955680000"><ele>152.7</ele><time>2026-07-30T00:00:00Z</time></trkpt>
<trkpt lat="37.812675000" lon="-121.955780000"><ele>152.5</ele><time>2026-07-30T00:00:00Z</time></trkpt>
<trkpt lat="37.812744000" lon="-121.955860000"><ele>152.3</ele><time>2026-07-30T00:00:00Z</time></trkpt>
<trkpt lat="37.812813000" lon="-121.955920000"><ele>152.1</ele><time>2026-07-30T00:00:00Z</time></trkpt>
<trkpt lat="37.812890000" lon="-121.955990000"><ele>152.1</ele><time>2026-07-30T00:00:00Z</time></trkpt>
<trkpt lat="37.812950000" lon="-121.956060000"><ele>152.1</ele><time>2026-07-30T00:00:00Z</time></trkpt>
<trkpt lat="37.813020000" lon="-121.956140000"><ele>152.1</ele><time>2026-07-30T00:00:00Z</time></trkpt>
<trkpt lat="37.813110000" lon="-121.956150000"><ele>152.1</ele><time>2026-07-30T00:00:00Z</time></trkpt>
<trkpt lat="37.813187000" lon="-121.956080000"><ele>152.1</ele><time>2026-07-30T00:00:00Z</time></trkpt>
<trkpt lat="37.813263000" lon="-121.956020000"><ele>152.0</ele><time>2026-07-30T00:00:00Z</time></trkpt>
<trkpt lat="37.813335000" lon="-121.955950000"><ele>151.9</ele><time>2026-07-30T00:00:00Z</time></trkpt>
<trkpt lat="37.813300000" lon="-121.956050000"><ele>151.8</ele><time>2026-07-30T00:00:00Z</time></trkpt>
<trkpt lat="37.813230000" lon="-121.956116000"><ele>151.7</ele><time>2026-07-30T00:00:00Z</time></trkpt>
<trkpt lat="37.813160000" lon="-121.956190000"><ele>151.5</ele><time>2026-07-30T00:00:00Z</time></trkpt>
<trkpt lat="37.813140000" lon="-121.956310000"><ele>151.2</ele><time>2026-07-30T00:00:00Z</time></trkpt>
<trkpt lat="37.813190000" lon="-121.956406000"><ele>150.7</ele><time>2026-07-30T00:00:00Z</time></trkpt>
<trkpt lat="37.813232000" lon="-121.956505000"><ele>150.2</ele><time>2026-07-30T00:00:00Z</time></trkpt>
<trkpt lat="37.813217000" lon="-121.956604000"><ele>149.6</ele><time>2026-07-30T00:00:00Z</time></trkpt>
<trkpt lat="37.813213000" lon="-121.956700000"><ele>149.1</ele><time>2026-07-30T00:00:00Z</time></trkpt>
<trkpt lat="37.813225000" lon="-121.956810000"><ele>148.5</ele><time>2026-07-30T00:00:00Z</time></trkpt>
<trkpt lat="37.813232000" lon="-121.956920000"><ele>148.0</ele><time>2026-07-30T00:00:00Z</time></trkpt>
<trkpt lat="37.813232000" lon="-121.957030000"><ele>147.5</ele><time>2026-07-30T00:00:00Z</time></trkpt>
<trkpt lat="37.813220000" lon="-121.957146000"><ele>146.8</ele><time>2026-07-30T00:00:00Z</time></trkpt>
<trkpt lat="37.813145000" lon="-121.957190000"><ele>146.3</ele><time>2026-07-30T00:00:00Z</time></trkpt>
<trkpt lat="37.813057000" lon="-121.957200000"><ele>145.8</ele><time>2026-07-30T00:00:00Z</time></trkpt>
<trkpt lat="37.812973000" lon="-121.957210000"><ele>145.4</ele><time>2026-07-30T00:00:00Z</time></trkpt>
<trkpt lat="37.812890000" lon="-121.957214000"><ele>145.0</ele><time>2026-07-30T00:00:00Z</time></trkpt>
<trkpt lat="37.812800000" lon="-121.957220000"><ele>144.7</ele><time>2026-07-30T00:00:00Z</time></trkpt>
<trkpt lat="37.812720000" lon="-121.957230000"><ele>144.5</ele><time>2026-07-30T00:00:00Z</time></trkpt>
<trkpt lat="37.812637000" lon="-121.957245000"><ele>144.4</ele><time>2026-07-30T00:00:00Z</time></trkpt>
<trkpt lat="37.812580000" lon="-121.957320000"><ele>144.3</ele><time>2026-07-30T00:00:00Z</time></trkpt>
<trkpt lat="37.812640000" lon="-121.957400000"><ele>144.4</ele><time>2026-07-30T00:00:00Z</time></trkpt>
<trkpt lat="37.812710000" lon="-121.957344000"><ele>144.5</ele><time>2026-07-30T00:00:00Z</time></trkpt>
<trkpt lat="37.812790000" lon="-121.957300000"><ele>144.7</ele><time>2026-07-30T00:00:00Z</time></trkpt>
<trkpt lat="37.812870000" lon="-121.957280000"><ele>145.0</ele><time>2026-07-30T00:00:00Z</time></trkpt>
<trkpt lat="37.812954000" lon="-121.957275000"><ele>145.2</ele><time>2026-07-30T00:00:00Z</time></trkpt>
<trkpt lat="37.813050000" lon="-121.957270000"><ele>145.4</ele><time>2026-07-30T00:00:00Z</time></trkpt>
<trkpt lat="37.813140000" lon="-121.957250000"><ele>145.5</ele><time>2026-07-30T00:00:00Z</time></trkpt>
<trkpt lat="37.813187000" lon="-121.957160000"><ele>145.5</ele><time>2026-07-30T00:00:00Z</time></trkpt>
<trkpt lat="37.813244000" lon="-121.957245000"><ele>145.5</ele><time>2026-07-30T00:00:00Z</time></trkpt>
<trkpt lat="37.813260000" lon="-121.957350000"><ele>145.4</ele><time>2026-07-30T00:00:00Z</time></trkpt>
<trkpt lat="37.813280000" lon="-121.957466000"><ele>145.3</ele><time>2026-07-30T00:00:00Z</time></trkpt>
<trkpt lat="37.813286000" lon="-121.957570000"><ele>145.1</ele><time>2026-07-30T00:00:00Z</time></trkpt>
<trkpt lat="37.813300000" lon="-121.957695000"><ele>144.8</ele><time>2026-07-30T00:00:00Z</time></trkpt>
<trkpt lat="37.813324000" lon="-121.957794000"><ele>144.5</ele><time>2026-07-30T00:00:00Z</time></trkpt>
<trkpt lat="37.813350000" lon="-121.957900000"><ele>144.0</ele><time>2026-07-30T00:00:00Z</time></trkpt>
<trkpt lat="37.813370000" lon="-121.958015000"><ele>143.6</ele><time>2026-07-30T00:00:00Z</time></trkpt>
<trkpt lat="37.813293000" lon="-121.958090000"><ele>143.4</ele><time>2026-07-30T00:00:00Z</time></trkpt>
<trkpt lat="37.813220000" lon="-121.958150000"><ele>143.2</ele><time>2026-07-30T00:00:00Z</time></trkpt>
<trkpt lat="37.813145000" lon="-121.958210000"><ele>143.1</ele><time>2026-07-30T00:00:00Z</time></trkpt>
<trkpt lat="37.813072000" lon="-121.958250000"><ele>143.1</ele><time>2026-07-30T00:00:00Z</time></trkpt>
<trkpt lat="37.812980000" lon="-121.958280000"><ele>143.1</ele><time>2026-07-30T00:00:00Z</time></trkpt>
<trkpt lat="37.813060000" lon="-121.958336000"><ele>143.1</ele><time>2026-07-30T00:00:00Z</time></trkpt>
<trkpt lat="37.813137000" lon="-121.958290000"><ele>143.1</ele><time>2026-07-30T00:00:00Z</time></trkpt>
<trkpt lat="37.813213000" lon="-121.958240000"><ele>143.2</ele><time>2026-07-30T00:00:00Z</time></trkpt>
<trkpt lat="37.813286000" lon="-121.958176000"><ele>143.3</ele><time>2026-07-30T00:00:00Z</time></trkpt>
<trkpt lat="37.813354000" lon="-121.958115000"><ele>143.5</ele><time>2026-07-30T00:00:00Z</time></trkpt>
<trkpt lat="37.813446000" lon="-121.958115000"><ele>143.8</ele><time>2026-07-30T00:00:00Z</time></trkpt>
<trkpt lat="37.813515000" lon="-121.958176000"><ele>144.1</ele><time>2026-07-30T00:00:00Z</time></trkpt>
<trkpt lat="37.813595000" lon="-121.958240000"><ele>144.4</ele><time>2026-07-30T00:00:00Z</time></trkpt>
<trkpt lat="37.813675000" lon="-121.958290000"><ele>144.7</ele><time>2026-07-30T00:00:00Z</time></trkpt>
<trkpt lat="37.813750000" lon="-121.958330000"><ele>145.0</ele><time>2026-07-30T00:00:00Z</time></trkpt>
<trkpt lat="37.813830000" lon="-121.958350000"><ele>145.4</ele><time>2026-07-30T00:00:00Z</time></trkpt>
<trkpt lat="37.813927000" lon="-121.958360000"><ele>145.7</ele><time>2026-07-30T00:00:00Z</time></trkpt>
<trkpt lat="37.814014000" lon="-121.958336000"><ele>146.2</ele><time>2026-07-30T00:00:00Z</time></trkpt>
<trkpt lat="37.814106000" lon="-121.958305000"><ele>146.6</ele><time>2026-07-30T00:00:00Z</time></trkpt>
<trkpt lat="37.814194000" lon="-121.958270000"><ele>147.2</ele><time>2026-07-30T00:00:00Z</time></trkpt>
<trkpt lat="37.814274000" lon="-121.958244000"><ele>147.6</ele><time>2026-07-30T00:00:00Z</time></trkpt>
<trkpt lat="37.814354000" lon="-121.958180000"><ele>148.1</ele><time>2026-07-30T00:00:00Z</time></trkpt>
<trkpt lat="37.814423000" lon="-121.958110000"><ele>148.5</ele><time>2026-07-30T00:00:00Z</time></trkpt>
<trkpt lat="37.814480000" lon="-121.958020000"><ele>148.9</ele><time>2026-07-30T00:00:00Z</time></trkpt>
<trkpt lat="37.814550000" lon="-121.957954000"><ele>149.2</ele><time>2026-07-30T00:00:00Z</time></trkpt>
<trkpt lat="37.814632000" lon="-121.957954000"><ele>149.5</ele><time>2026-07-30T00:00:00Z</time></trkpt>
<trkpt lat="37.814716000" lon="-121.958000000"><ele>149.6</ele><time>2026-07-30T00:00:00Z</time></trkpt>
<trkpt lat="37.814793000" lon="-121.958070000"><ele>149.8</ele><time>2026-07-30T00:00:00Z</time></trkpt>
<trkpt lat="37.814846000" lon="-121.958150000"><ele>149.9</ele><time>2026-07-30T00:00:00Z</time></trkpt>
<trkpt lat="37.814910000" lon="-121.958230000"><ele>150.0</ele><time>2026-07-30T00:00:00Z</time></trkpt>
<trkpt lat="37.814915000" lon="-121.958120000"><ele>150.0</ele><time>2026-07-30T00:00:00Z</time></trkpt>
<trkpt lat="37.814846000" lon="-121.958046000"><ele>150.0</ele><time>2026-07-30T00:00:00Z</time></trkpt>
<trkpt lat="37.814777000" lon="-121.957980000"><ele>150.1</ele><time>2026-07-30T00:00:00Z</time></trkpt>
<trkpt lat="37.814700000" lon="-121.957930000"><ele>150.2</ele><time>2026-07-30T00:00:00Z</time></trkpt>
<trkpt lat="37.814613000" lon="-121.957886000"><ele>150.3</ele><time>2026-07-30T00:00:00Z</time></trkpt>
<trkpt lat="37.814560000" lon="-121.957800000"><ele>150.4</ele><time>2026-07-30T00:00:00Z</time></trkpt>
<trkpt lat="37.814564000" lon="-121.957680000"><ele>150.5</ele><time>2026-07-30T00:00:00Z</time></trkpt>
<trkpt lat="37.814570000" lon="-121.957570000"><ele>150.8</ele><time>2026-07-30T00:00:00Z</time></trkpt>
<trkpt lat="37.814550000" lon="-121.957460000"><ele>151.1</ele><time>2026-07-30T00:00:00Z</time></trkpt>
<trkpt lat="37.814520000" lon="-121.957350000"><ele>151.5</ele><time>2026-07-30T00:00:00Z</time></trkpt>
<trkpt lat="37.814480000" lon="-121.957245000"><ele>151.8</ele><time>2026-07-30T00:00:00Z</time></trkpt>
<trkpt lat="37.814438000" lon="-121.957146000"><ele>152.2</ele><time>2026-07-30T00:00:00Z</time></trkpt>
<trkpt lat="37.814396000" lon="-121.957040000"><ele>152.6</ele><time>2026-07-30T00:00:00Z</time></trkpt>
<trkpt lat="37.814360000" lon="-121.956930000"><ele>153.0</ele><time>2026-07-30T00:00:00Z</time></trkpt>
<trkpt lat="37.814316000" lon="-121.956850000"><ele>153.5</ele><time>2026-07-30T00:00:00Z</time></trkpt>
<trkpt lat="37.814293000" lon="-121.956726000"><ele>154.0</ele><time>2026-07-30T00:00:00Z</time></trkpt>
<trkpt lat="37.814278000" lon="-121.956630000"><ele>154.5</ele><time>2026-07-30T00:00:00Z</time></trkpt>
<trkpt lat="37.814266000" lon="-121.956520000"><ele>155.1</ele><time>2026-07-30T00:00:00Z</time></trkpt>
<trkpt lat="37.814262000" lon="-121.956410000"><ele>155.5</ele><time>2026-07-30T00:00:00Z</time></trkpt>
<trkpt lat="37.814255000" lon="-121.956300000"><ele>156.1</ele><time>2026-07-30T00:00:00Z</time></trkpt>
<trkpt lat="37.814250000" lon="-121.956190000"><ele>156.5</ele><time>2026-07-30T00:00:00Z</time></trkpt>
<trkpt lat="37.814250000" lon="-121.956070000"><ele>157.0</ele><time>2026-07-30T00:00:00Z</time></trkpt>
<trkpt lat="37.814260000" lon="-121.955950000"><ele>157.5</ele><time>2026-07-30T00:00:00Z</time></trkpt>
<trkpt lat="37.814280000" lon="-121.955830000"><ele>158.0</ele><time>2026-07-30T00:00:00Z</time></trkpt>
<trkpt lat="37.814297000" lon="-121.955730000"><ele>158.5</ele><time>2026-07-30T00:00:00Z</time></trkpt>
<trkpt lat="37.814297000" lon="-121.955610000"><ele>159.0</ele><time>2026-07-30T00:00:00Z</time></trkpt>
<trkpt lat="37.814280000" lon="-121.955505000"><ele>159.5</ele><time>2026-07-30T00:00:00Z</time></trkpt>
<trkpt lat="37.814260000" lon="-121.955390000"><ele>159.9</ele><time>2026-07-30T00:00:00Z</time></trkpt>
<trkpt lat="37.814255000" lon="-121.955284000"><ele>160.3</ele><time>2026-07-30T00:00:00Z</time></trkpt>
<trkpt lat="37.814200000" lon="-121.955190000"><ele>160.6</ele><time>2026-07-30T00:00:00Z</time></trkpt>
<trkpt lat="37.814144000" lon="-121.955120000"><ele>160.9</ele><time>2026-07-30T00:00:00Z</time></trkpt>
<trkpt lat="37.814095000" lon="-121.955030000"><ele>161.2</ele><time>2026-07-30T00:00:00Z</time></trkpt>
<trkpt lat="37.814030000" lon="-121.954950000"><ele>161.5</ele><time>2026-07-30T00:00:00Z</time></trkpt>
<trkpt lat="37.813960000" lon="-121.954880000"><ele>161.6</ele><time>2026-07-30T00:00:00Z</time></trkpt>
<trkpt lat="37.813885000" lon="-121.954810000"><ele>161.8</ele><time>2026-07-30T00:00:00Z</time></trkpt>
<trkpt lat="37.813805000" lon="-121.954770000"><ele>161.9</ele><time>2026-07-30T00:00:00Z</time></trkpt>
<trkpt lat="37.813725000" lon="-121.954740000"><ele>162.0</ele><time>2026-07-30T00:00:00Z</time></trkpt>
<trkpt lat="37.813637000" lon="-121.954710000"><ele>161.9</ele><time>2026-07-30T00:00:00Z</time></trkpt>
<trkpt lat="37.813550000" lon="-121.954720000"><ele>161.8</ele><time>2026-07-30T00:00:00Z</time></trkpt>
<trkpt lat="37.813454000" lon="-121.954735000"><ele>161.6</ele><time>2026-07-30T00:00:00Z</time></trkpt>
<trkpt lat="37.813374000" lon="-121.954750000"><ele>161.4</ele><time>2026-07-30T00:00:00Z</time></trkpt>
<trkpt lat="37.813293000" lon="-121.954765000"><ele>161.0</ele><time>2026-07-30T00:00:00Z</time></trkpt>
<trkpt lat="37.813213000" lon="-121.954800000"><ele>160.5</ele><time>2026-07-30T00:00:00Z</time></trkpt>
<trkpt lat="37.813133000" lon="-121.954834000"><ele>159.9</ele><time>2026-07-30T00:00:00Z</time></trkpt>
<trkpt lat="37.813053000" lon="-121.954880000"><ele>159.3</ele><time>2026-07-30T00:00:00Z</time></trkpt>
<trkpt lat="37.812960000" lon="-121.954910000"><ele>158.6</ele><time>2026-07-30T00:00:00Z</time></trkpt>
<trkpt lat="37.812878000" lon="-121.954930000"><ele>157.9</ele><time>2026-07-30T00:00:00Z</time></trkpt>
<trkpt lat="37.812813000" lon="-121.955010000"><ele>157.2</ele><time>2026-07-30T00:00:00Z</time></trkpt>
<trkpt lat="37.812737000" lon="-121.955070000"><ele>156.5</ele><time>2026-07-30T00:00:00Z</time></trkpt>
<trkpt lat="37.812653000" lon="-121.955110000"><ele>155.7</ele><time>2026-07-30T00:00:00Z</time></trkpt>
<trkpt lat="37.812572000" lon="-121.955140000"><ele>155.1</ele><time>2026-07-30T00:00:00Z</time></trkpt>
<trkpt lat="37.812496000" lon="-121.955210000"><ele>154.5</ele><time>2026-07-30T00:00:00Z</time></trkpt>
<trkpt lat="37.812447000" lon="-121.955290000"><ele>154.0</ele><time>2026-07-30T00:00:00Z</time></trkpt>
<trkpt lat="37.812410000" lon="-121.955390000"><ele>153.6</ele><time>2026-07-30T00:00:00Z</time></trkpt>
<trkpt lat="37.812466000" lon="-121.955480000"><ele>153.3</ele><time>2026-07-30T00:00:00Z</time></trkpt>
<trkpt lat="37.812510000" lon="-121.955590000"><ele>153.0</ele><time>2026-07-30T00:00:00Z</time></trkpt>
<trkpt lat="37.812560000" lon="-121.955690000"><ele>152.6</ele><time>2026-07-30T00:00:00Z</time></trkpt>
<trkpt lat="37.812595000" lon="-121.955795000"><ele>152.3</ele><time>2026-07-30T00:00:00Z</time></trkpt>
<trkpt lat="37.812553000" lon="-121.955894000"><ele>151.9</ele><time>2026-07-30T00:00:00Z</time></trkpt>
<trkpt lat="37.812485000" lon="-121.955960000"><ele>151.6</ele><time>2026-07-30T00:00:00Z</time></trkpt>
<trkpt lat="37.812420000" lon="-121.956030000"><ele>151.5</ele><time>2026-07-30T00:00:00Z</time></trkpt>
<trkpt lat="37.812360000" lon="-121.956110000"><ele>151.4</ele><time>2026-07-30T00:00:00Z</time></trkpt>
<trkpt lat="37.812294000" lon="-121.956180000"><ele>151.3</ele><time>2026-07-30T00:00:00Z</time></trkpt>
<trkpt lat="37.812230000" lon="-121.956240000"><ele>151.3</ele><time>2026-07-30T00:00:00Z</time></trkpt>
<trkpt lat="37.812310000" lon="-121.956184000"><ele>151.3</ele><time>2026-07-30T00:00:00Z</time></trkpt>
<trkpt lat="37.812363000" lon="-121.956100000"><ele>151.4</ele><time>2026-07-30T00:00:00Z</time></trkpt>
<trkpt lat="37.812420000" lon="-121.956024000"><ele>151.5</ele><time>2026-07-30T00:00:00Z</time></trkpt>
<trkpt lat="37.812485000" lon="-121.955956000"><ele>151.6</ele><time>2026-07-30T00:00:00Z</time></trkpt>
<trkpt lat="37.812550000" lon="-121.955864000"><ele>151.9</ele><time>2026-07-30T00:00:00Z</time></trkpt>
<trkpt lat="37.812580000" lon="-121.955765000"><ele>152.2</ele><time>2026-07-30T00:00:00Z</time></trkpt>
<trkpt lat="37.812527000" lon="-121.955666000"><ele>152.5</ele><time>2026-07-30T00:00:00Z</time></trkpt>
<trkpt lat="37.812477000" lon="-121.955570000"><ele>152.6</ele><time>2026-07-30T00:00:00Z</time></trkpt>
<trkpt lat="37.812440000" lon="-121.955460000"><ele>152.8</ele><time>2026-07-30T00:00:00Z</time></trkpt>
<trkpt lat="37.812410000" lon="-121.955345000"><ele>153.0</ele><time>2026-07-30T00:00:00Z</time></trkpt>
<trkpt lat="37.812380000" lon="-121.955230000"><ele>153.3</ele><time>2026-07-30T00:00:00Z</time></trkpt>
<trkpt lat="37.812363000" lon="-121.955130000"><ele>153.6</ele><time>2026-07-30T00:00:00Z</time></trkpt>
<trkpt lat="37.812386000" lon="-121.955030000"><ele>154.0</ele><time>2026-07-30T00:00:00Z</time></trkpt>
<trkpt lat="37.812477000" lon="-121.955030000"><ele>154.1</ele><time>2026-07-30T00:00:00Z</time></trkpt>
<trkpt lat="37.812565000" lon="-121.955020000"><ele>154.2</ele><time>2026-07-30T00:00:00Z</time></trkpt>
<trkpt lat="37.812656000" lon="-121.955025000"><ele>154.4</ele><time>2026-07-30T00:00:00Z</time></trkpt>
<trkpt lat="37.812710000" lon="-121.954950000"><ele>154.6</ele><time>2026-07-30T00:00:00Z</time></trkpt>
<trkpt lat="37.812740000" lon="-121.954895000"><ele>154.8</ele><time>2026-07-30T00:00:00Z</time></trkpt>
</trkseg>
</trk>
</gpx>
