<?xml version="1.0" encoding="UTF-8"?>
<gpx
  version="1.1"
  creator="Runkeeper - http://www.runkeeper.com"
  xmlns:xsi="http://www.w3.org/2001/XMLSchema-instance"
  xmlns="http://www.topografix.com/GPX/1/1"
  xsi:schemaLocation="http://www.topografix.com/GPX/1/1 http://www.topografix.com/GPX/1/1/gpx.xsd"
  xmlns:gpxtpx="http://www.garmin.com/xmlschemas/TrackPointExtension/v1">
<trk>
  <name><![CDATA[Walking 8/1/26]]></name>
  <time>2026-08-01T00:00:00Z</time>
<trkseg>
<trkpt lat="37.801662000" lon="-121.927560000"><ele>178.0</ele><time>2026-08-01T00:00:00Z</time></trkpt>
<trkpt lat="37.801693000" lon="-121.927666000"><ele>178.0</ele><time>2026-08-01T00:00:00Z</time></trkpt>
<trkpt lat="37.801716000" lon="-121.927765000"><ele>178.0</ele><time>2026-08-01T00:00:00Z</time></trkpt>
<trkpt lat="37.801723000" lon="-121.927880000"><ele>178.0</ele><time>2026-08-01T00:00:00Z</time></trkpt>
<trkpt lat="37.801746000" lon="-121.927986000"><ele>178.1</ele><time>2026-08-01T00:00:00Z</time></trkpt>
<trkpt lat="37.801823000" lon="-121.928050000"><ele>178.2</ele><time>2026-08-01T00:00:00Z</time></trkpt>
<trkpt lat="37.801914000" lon="-121.928055000"><ele>178.3</ele><time>2026-08-01T00:00:00Z</time></trkpt>
<trkpt lat="37.802000000" lon="-121.928060000"><ele>178.5</ele><time>2026-08-01T00:00:00Z</time></trkpt>
<trkpt lat="37.802080000" lon="-121.928060000"><ele>178.6</ele><time>2026-08-01T00:00:00Z</time></trkpt>
<trkpt lat="37.802147000" lon="-121.928120000"><ele>178.8</ele><time>2026-08-01T00:00:00Z</time></trkpt>
<trkpt lat="37.802220000" lon="-121.928190000"><ele>179.0</ele><time>2026-08-01T00:00:00Z</time></trkpt>
<trkpt lat="37.802310000" lon="-121.928190000"><ele>179.2</ele><time>2026-08-01T00:00:00Z</time></trkpt>
<trkpt lat="37.802395000" lon="-121.928190000"><ele>179.4</ele><time>2026-08-01T00:00:00Z</time></trkpt>
<trkpt lat="37.802483000" lon="-121.928190000"><ele>179.5</ele><time>2026-08-01T00:00:00Z</time></trkpt>
<trkpt lat="37.802567000" lon="-121.928190000"><ele>179.8</ele><time>2026-08-01T00:00:00Z</time></trkpt>
<trkpt lat="37.802647000" lon="-121.928185000"><ele>180.0</ele><time>2026-08-01T00:00:00Z</time></trkpt>
<trkpt lat="37.802740000" lon="-121.928160000"><ele>180.2</ele><time>2026-08-01T00:00:00Z</time></trkpt>
<trkpt lat="37.802830000" lon="-121.928150000"><ele>180.4</ele><time>2026-08-01T00:00:00Z</time></trkpt>
<trkpt lat="37.802920000" lon="-121.928116000"><ele>180.5</ele><time>2026-08-01T00:00:00Z</time></trkpt>
<trkpt lat="37.803000000" lon="-121.928070000"><ele>180.5</ele><time>2026-08-01T00:00:00Z</time></trkpt>
<trkpt lat="37.803085000" lon="-121.928024000"><ele>180.5</ele><time>2026-08-01T00:00:00Z</time></trkpt>
<trkpt lat="37.803165000" lon="-121.927980000"><ele>180.6</ele><time>2026-08-01T00:00:00Z</time></trkpt>
<trkpt lat="37.803246000" lon="-121.927940000"><ele>180.7</ele><time>2026-08-01T00:00:00Z</time></trkpt>
<trkpt lat="37.803330000" lon="-121.927900000"><ele>180.8</ele><time>2026-08-01T00:00:00Z</time></trkpt>
<trkpt lat="37.803413000" lon="-121.927870000"><ele>180.9</ele><time>2026-08-01T00:00:00Z</time></trkpt>
<trkpt lat="37.803497000" lon="-121.927860000"><ele>181.0</ele><time>2026-08-01T00:00:00Z</time></trkpt>
<trkpt lat="37.803574000" lon="-121.927800000"><ele>181.0</ele><time>2026-08-01T00:00:00Z</time></trkpt>
<trkpt lat="37.803642000" lon="-121.927750000"><ele>181.0</ele><time>2026-08-01T00:00:00Z</time></trkpt>
<trkpt lat="37.803726000" lon="-121.927710000"><ele>181.1</ele><time>2026-08-01T00:00:00Z</time></trkpt>
<trkpt lat="37.803806000" lon="-121.927666000"><ele>181.2</ele><time>2026-08-01T00:00:00Z</time></trkpt>
<trkpt lat="37.803890000" lon="-121.927630000"><ele>181.3</ele><time>2026-08-01T00:00:00Z</time></trkpt>
<trkpt lat="37.803978000" lon="-121.927600000"><ele>181.5</ele><time>2026-08-01T00:00:00Z</time></trkpt>
<trkpt lat="37.804054000" lon="-121.927570000"><ele>181.7</ele><time>2026-08-01T00:00:00Z</time></trkpt>
<trkpt lat="37.804140000" lon="-121.927530000"><ele>181.9</ele><time>2026-08-01T00:00:00Z</time></trkpt>
<trkpt lat="37.804220000" lon="-121.927505000"><ele>182.1</ele><time>2026-08-01T00:00:00Z</time></trkpt>
<trkpt lat="37.804300000" lon="-121.927475000"><ele>182.2</ele><time>2026-08-01T00:00:00Z</time></trkpt>
<trkpt lat="37.804380000" lon="-121.927444000"><ele>182.1</ele><time>2026-08-01T00:00:00Z</time></trkpt>
<trkpt lat="37.804460000" lon="-121.927410000"><ele>182.0</ele><time>2026-08-01T00:00:00Z</time></trkpt>
<trkpt lat="37.804510000" lon="-121.927500000"><ele>181.8</ele><time>2026-08-01T00:00:00Z</time></trkpt>
<trkpt lat="37.804500000" lon="-121.927605000"><ele>181.7</ele><time>2026-08-01T00:00:00Z</time></trkpt>
<trkpt lat="37.804480000" lon="-121.927730000"><ele>181.7</ele><time>2026-08-01T00:00:00Z</time></trkpt>
<trkpt lat="37.804450000" lon="-121.927830000"><ele>181.6</ele><time>2026-08-01T00:00:00Z</time></trkpt>
<trkpt lat="37.804424000" lon="-121.927940000"><ele>181.4</ele><time>2026-08-01T00:00:00Z</time></trkpt>
<trkpt lat="37.804398000" lon="-121.928050000"><ele>181.1</ele><time>2026-08-01T00:00:00Z</time></trkpt>
<trkpt lat="37.804367000" lon="-121.928154000"><ele>180.9</ele><time>2026-08-01T00:00:00Z</time></trkpt>
<trkpt lat="37.804330000" lon="-121.928260000"><ele>180.8</ele><time>2026-08-01T00:00:00Z</time></trkpt>
<trkpt lat="37.804325000" lon="-121.928150000"><ele>180.9</ele><time>2026-08-01T00:00:00Z</time></trkpt>
<trkpt lat="37.804344000" lon="-121.928050000"><ele>181.1</ele><time>2026-08-01T00:00:00Z</time></trkpt>
<trkpt lat="37.804390000" lon="-121.927950000"><ele>181.4</ele><time>2026-08-01T00:00:00Z</time></trkpt>
<trkpt lat="37.804424000" lon="-121.927840000"><ele>181.7</ele><time>2026-08-01T00:00:00Z</time></trkpt>
<trkpt lat="37.804455000" lon="-121.927740000"><ele>181.9</ele><time>2026-08-01T00:00:00Z</time></trkpt>
<trkpt lat="37.804478000" lon="-121.927635000"><ele>182.0</ele><time>2026-08-01T00:00:00Z</time></trkpt>
<trkpt lat="37.804490000" lon="-121.927530000"><ele>182.2</ele><time>2026-08-01T00:00:00Z</time></trkpt>
<trkpt lat="37.804504000" lon="-121.927420000"><ele>182.5</ele><time>2026-08-01T00:00:00Z</time></trkpt>
<trkpt lat="37.804565000" lon="-121.927340000"><ele>182.7</ele><time>2026-08-01T00:00:00Z</time></trkpt>
<trkpt lat="37.804646000" lon="-121.927315000"><ele>182.9</ele><time>2026-08-01T00:00:00Z</time></trkpt>
<trkpt lat="37.804700000" lon="-121.927220000"><ele>183.0</ele><time>2026-08-01T00:00:00Z</time></trkpt>
<trkpt lat="37.804730000" lon="-121.927124000"><ele>183.0</ele><time>2026-08-01T00:00:00Z</time></trkpt>
<trkpt lat="37.804733000" lon="-121.927020000"><ele>183.0</ele><time>2026-08-01T00:00:00Z</time></trkpt>
<trkpt lat="37.804714000" lon="-121.926910000"><ele>183.0</ele><time>2026-08-01T00:00:00Z</time></trkpt>
<trkpt lat="37.804623000" lon="-121.926895000"><ele>183.0</ele><time>2026-08-01T00:00:00Z</time></trkpt>
<trkpt lat="37.804540000" lon="-121.926920000"><ele>183.0</ele><time>2026-08-01T00:00:00Z</time></trkpt>
<trkpt lat="37.804455000" lon="-121.926930000"><ele>183.0</ele><time>2026-08-01T00:00:00Z</time></trkpt>
<trkpt lat="37.804523000" lon="-121.926870000"><ele>183.1</ele><time>2026-08-01T00:00:00Z</time></trkpt>
<trkpt lat="37.804620000" lon="-121.926865000"><ele>183.2</ele><time>2026-08-01T00:00:00Z</time></trkpt>
<trkpt lat="37.804703000" lon="-121.926830000"><ele>183.3</ele><time>2026-08-01T00:00:00Z</time></trkpt>
<trkpt lat="37.804750000" lon="-121.926735000"><ele>183.4</ele><time>2026-08-01T00:00:00Z</time></trkpt>
<trkpt lat="37.804806000" lon="-121.926650000"><ele>183.5</ele><time>2026-08-01T00:00:00Z</time></trkpt>
<trkpt lat="37.804890000" lon="-121.926630000"><ele>183.5</ele><time>2026-08-01T00:00:00Z</time></trkpt>
<trkpt lat="37.804970000" lon="-121.926600000"><ele>183.6</ele><time>2026-08-01T00:00:00Z</time></trkpt>
<trkpt lat="37.805054000" lon="-121.926570000"><ele>183.7</ele><time>2026-08-01T00:00:00Z</time></trkpt>
<trkpt lat="37.805126000" lon="-121.926520000"><ele>183.8</ele><time>2026-08-01T00:00:00Z</time></trkpt>
<trkpt lat="37.805218000" lon="-121.926500000"><ele>184.0</ele><time>2026-08-01T00:00:00Z</time></trkpt>
<trkpt lat="37.805310000" lon="-121.926500000"><ele>184.2</ele><time>2026-08-01T00:00:00Z</time></trkpt>
<trkpt lat="37.805400000" lon="-121.926490000"><ele>184.3</ele><time>2026-08-01T00:00:00Z</time></trkpt>
<trkpt lat="37.805480000" lon="-121.926460000"><ele>184.4</ele><time>2026-08-01T00:00:00Z</time></trkpt>
<trkpt lat="37.805573000" lon="-121.926460000"><ele>184.5</ele><time>2026-08-01T00:00:00Z</time></trkpt>
<trkpt lat="37.805656000" lon="-121.926450000"><ele>184.5</ele><time>2026-08-01T00:00:00Z</time></trkpt>
<trkpt lat="37.805748000" lon="-121.926445000"><ele>184.6</ele><time>2026-08-01T00:00:00Z</time></trkpt>
<trkpt lat="37.805836000" lon="-121.926440000"><ele>184.8</ele><time>2026-08-01T00:00:00Z</time></trkpt>
<trkpt lat="37.805927000" lon="-121.926420000"><ele>185.0</ele><time>2026-08-01T00:00:00Z</time></trkpt>
<trkpt lat="37.806015000" lon="-121.926420000"><ele>185.1</ele><time>2026-08-01T00:00:00Z</time></trkpt>
<trkpt lat="37.806095000" lon="-121.926420000"><ele>185.2</ele><time>2026-08-01T00:00:00Z</time></trkpt>
<trkpt lat="37.806190000" lon="-121.926440000"><ele>185.2</ele><time>2026-08-01T00:00:00Z</time></trkpt>
<trkpt lat="37.806280000" lon="-121.926440000"><ele>185.2</ele><time>2026-08-01T00:00:00Z</time></trkpt>
<trkpt lat="37.806206000" lon="-121.926490000"><ele>185.2</ele><time>2026-08-01T00:00:00Z</time></trkpt>
<trkpt lat="37.806118000" lon="-121.926460000"><ele>185.2</ele><time>2026-08-01T00:00:00Z</time></trkpt>
<trkpt lat="37.806034000" lon="-121.926470000"><ele>185.2</ele><time>2026-08-01T00:00:00Z</time></trkpt>
<trkpt lat="37.805946000" lon="-121.926470000"><ele>185.2</ele><time>2026-08-01T00:00:00Z</time></trkpt>
<trkpt lat="37.805862000" lon="-121.926510000"><ele>185.2</ele><time>2026-08-01T00:00:00Z</time></trkpt>
<trkpt lat="37.805847000" lon="-121.926620000"><ele>185.0</ele><time>2026-08-01T00:00:00Z</time></trkpt>
<trkpt lat="37.805843000" lon="-121.926735000"><ele>184.8</ele><time>2026-08-01T00:00:00Z</time></trkpt>
<trkpt lat="37.805805000" lon="-121.926630000"><ele>184.7</ele><time>2026-08-01T00:00:00Z</time></trkpt>
<trkpt lat="37.805760000" lon="-121.926540000"><ele>184.6</ele><time>2026-08-01T00:00:00Z</time></trkpt>
<trkpt lat="37.805676000" lon="-121.926510000"><ele>184.5</ele><time>2026-08-01T00:00:00Z</time></trkpt>
<trkpt lat="37.805590000" lon="-121.926506000"><ele>184.5</ele><time>2026-08-01T00:00:00Z</time></trkpt>
<trkpt lat="37.805510000" lon="-121.926490000"><ele>184.4</ele><time>2026-08-01T00:00:00Z</time></trkpt>
<trkpt lat="37.805424000" lon="-121.926480000"><ele>184.3</ele><time>2026-08-01T00:00:00Z</time></trkpt>
<trkpt lat="37.805336000" lon="-121.926480000"><ele>184.2</ele><time>2026-08-01T00:00:00Z</time></trkpt>
<trkpt lat="37.805250000" lon="-121.926506000"><ele>184.0</ele><time>2026-08-01T00:00:00Z</time></trkpt>
<trkpt lat="37.805160000" lon="-121.926540000"><ele>183.8</ele><time>2026-08-01T00:00:00Z</time></trkpt>
<trkpt lat="37.805065000" lon="-121.926570000"><ele>183.7</ele><time>2026-08-01T00:00:00Z</time></trkpt>
<trkpt lat="37.804977000" lon="-121.926580000"><ele>183.6</ele><time>2026-08-01T00:00:00Z</time></trkpt>
<trkpt lat="37.804886000" lon="-121.926590000"><ele>183.6</ele><time>2026-08-01T00:00:00Z</time></trkpt>
<trkpt lat="37.804794000" lon="-121.926580000"><ele>183.6</ele><time>2026-08-01T00:00:00Z</time></trkpt>
<trkpt lat="37.804756000" lon="-121.926490000"><ele>183.6</ele><time>2026-08-01T00:00:00Z</time></trkpt>
<trkpt lat="37.804745000" lon="-121.926384000"><ele>183.6</ele><time>2026-08-01T00:00:00Z</time></trkpt>
<trkpt lat="37.804733000" lon="-121.926280000"><ele>183.6</ele><time>2026-08-01T00:00:00Z</time></trkpt>
<trkpt lat="37.804726000" lon="-121.926170000"><ele>183.6</ele><time>2026-08-01T00:00:00Z</time></trkpt>
<trkpt lat="37.804710000" lon="-121.926056000"><ele>183.6</ele><time>2026-08-01T00:00:00Z</time></trkpt>
<trkpt lat="37.804680000" lon="-121.925950000"><ele>183.7</ele><time>2026-08-01T00:00:00Z</time></trkpt>
<trkpt lat="37.804665000" lon="-121.925835000"><ele>183.9</ele><time>2026-08-01T00:00:00Z</time></trkpt>
<trkpt lat="37.804638000" lon="-121.925730000"><ele>184.0</ele><time>2026-08-01T00:00:00Z</time></trkpt>
<trkpt lat="37.804604000" lon="-121.925630000"><ele>184.1</ele><time>2026-08-01T00:00:00Z</time></trkpt>
<trkpt lat="37.804550000" lon="-121.925540000"><ele>184.2</ele><time>2026-08-01T00:00:00Z</time></trkpt>
<trkpt lat="37.804535000" lon="-121.925440000"><ele>184.3</ele><time>2026-08-01T00:00:00Z</time></trkpt>
<trkpt lat="37.804565000" lon="-121.925330000"><ele>184.4</ele><time>2026-08-01T00:00:00Z</time></trkpt>
<trkpt lat="37.804623000" lon="-121.925250000"><ele>184.5</ele><time>2026-08-01T00:00:00Z</time></trkpt>
<trkpt lat="37.804707000" lon="-121.925190000"><ele>184.5</ele><time>2026-08-01T00:00:00Z</time></trkpt>
<trkpt lat="37.804787000" lon="-121.925150000"><ele>184.6</ele><time>2026-08-01T00:00:00Z</time></trkpt>
<trkpt lat="37.804870000" lon="-121.925125000"><ele>184.7</ele><time>2026-08-01T00:00:00Z</time></trkpt>
<trkpt lat="37.804960000" lon="-121.925110000"><ele>184.8</ele><time>2026-08-01T00:00:00Z</time></trkpt>
<trkpt lat="37.805042000" lon="-121.925100000"><ele>184.7</ele><time>2026-08-01T00:00:00Z</time></trkpt>
<trkpt lat="37.805126000" lon="-121.925125000"><ele>184.7</ele><time>2026-08-01T00:00:00Z</time></trkpt>
<trkpt lat="37.805190000" lon="-121.925186000"><ele>184.8</ele><time>2026-08-01T00:00:00Z</time></trkpt>
<trkpt lat="37.805237000" lon="-121.925290000"><ele>184.8</ele><time>2026-08-01T00:00:00Z</time></trkpt>
<trkpt lat="37.805264000" lon="-121.925400000"><ele>184.8</ele><time>2026-08-01T00:00:00Z</time></trkpt>
<trkpt lat="37.805270000" lon="-121.925500000"><ele>184.8</ele><time>2026-08-01T00:00:00Z</time></trkpt>
<trkpt lat="37.805305000" lon="-121.925606000"><ele>184.9</ele><time>2026-08-01T00:00:00Z</time></trkpt>
<trkpt lat="37.805363000" lon="-121.925674000"><ele>185.0</ele><time>2026-08-01T00:00:00Z</time></trkpt>
<trkpt lat="37.805454000" lon="-121.925674000"><ele>185.1</ele><time>2026-08-01T00:00:00Z</time></trkpt>
<trkpt lat="37.805534000" lon="-121.925644000"><ele>185.2</ele><time>2026-08-01T00:00:00Z</time></trkpt>
<trkpt lat="37.805630000" lon="-121.925660000"><ele>185.3</ele><time>2026-08-01T00:00:00Z</time></trkpt>
<trkpt lat="37.805720000" lon="-121.925660000"><ele>185.5</ele><time>2026-08-01T00:00:00Z</time></trkpt>
<trkpt lat="37.805817000" lon="-121.925650000"><ele>185.7</ele><time>2026-08-01T00:00:00Z</time></trkpt>
<trkpt lat="37.805904000" lon="-121.925640000"><ele>185.9</ele><time>2026-08-01T00:00:00Z</time></trkpt>
<trkpt lat="37.805992000" lon="-121.925640000"><ele>186.1</ele><time>2026-08-01T00:00:00Z</time></trkpt>
<trkpt lat="37.806087000" lon="-121.925606000"><ele>186.4</ele><time>2026-08-01T00:00:00Z</time></trkpt>
<trkpt lat="37.806150000" lon="-121.925530000"><ele>186.6</ele><time>2026-08-01T00:00:00Z</time></trkpt>
<trkpt lat="37.806126000" lon="-121.925415000"><ele>186.9</ele><time>2026-08-01T00:00:00Z</time></trkpt>
<trkpt lat="37.806095000" lon="-121.925310000"><ele>187.2</ele><time>2026-08-01T00:00:00Z</time></trkpt>
<trkpt lat="37.806057000" lon="-121.925200000"><ele>187.5</ele><time>2026-08-01T00:00:00Z</time></trkpt>
<trkpt lat="37.806015000" lon="-121.925095000"><ele>187.6</ele><time>2026-08-01T00:00:00Z</time></trkpt>
<trkpt lat="37.805984000" lon="-121.924990000"><ele>187.8</ele><time>2026-08-01T00:00:00Z</time></trkpt>
<trkpt lat="37.805935000" lon="-121.924890000"><ele>188.0</ele><time>2026-08-01T00:00:00Z</time></trkpt>
<trkpt lat="37.805855000" lon="-121.924866000"><ele>188.1</ele><time>2026-08-01T00:00:00Z</time></trkpt>
<trkpt lat="37.805775000" lon="-121.924870000"><ele>188.2</ele><time>2026-08-01T00:00:00Z</time></trkpt>
<trkpt lat="37.805690000" lon="-121.924880000"><ele>188.4</ele><time>2026-08-01T00:00:00Z</time></trkpt>
<trkpt lat="37.805610000" lon="-121.924890000"><ele>188.5</ele><time>2026-08-01T00:00:00Z</time></trkpt>
<trkpt lat="37.805520000" lon="-121.924880000"><ele>188.5</ele><time>2026-08-01T00:00:00Z</time></trkpt>
<trkpt lat="37.805580000" lon="-121.924805000"><ele>188.5</ele><time>2026-08-01T00:00:00Z</time></trkpt>
<trkpt lat="37.805670000" lon="-121.924820000"><ele>188.6</ele><time>2026-08-01T00:00:00Z</time></trkpt>
<trkpt lat="37.805756000" lon="-121.924830000"><ele>188.7</ele><time>2026-08-01T00:00:00Z</time></trkpt>
<trkpt lat="37.805840000" lon="-121.924805000"><ele>189.0</ele><time>2026-08-01T00:00:00Z</time></trkpt>
<trkpt lat="37.805880000" lon="-121.924710000"><ele>189.3</ele><time>2026-08-01T00:00:00Z</time></trkpt>
<trkpt lat="37.805850000" lon="-121.924610000"><ele>189.5</ele><time>2026-08-01T00:00:00Z</time></trkpt>
<trkpt lat="37.805830000" lon="-121.924500000"><ele>189.8</ele><time>2026-08-01T00:00:00Z</time></trkpt>
<trkpt lat="37.805780000" lon="-121.924400000"><ele>190.2</ele><time>2026-08-01T00:00:00Z</time></trkpt>
<trkpt lat="37.805702000" lon="-121.924355000"><ele>190.5</ele><time>2026-08-01T00:00:00Z</time></trkpt>
<trkpt lat="37.805620000" lon="-121.924360000"><ele>191.1</ele><time>2026-08-01T00:00:00Z</time></trkpt>
<trkpt lat="37.805550000" lon="-121.924416000"><ele>191.8</ele><time>2026-08-01T00:00:00Z</time></trkpt>
<trkpt lat="37.805470000" lon="-121.924440000"><ele>192.6</ele><time>2026-08-01T00:00:00Z</time></trkpt>
<trkpt lat="37.805424000" lon="-121.924350000"><ele>193.5</ele><time>2026-08-01T00:00:00Z</time></trkpt>
<trkpt lat="37.805412000" lon="-121.924240000"><ele>194.2</ele><time>2026-08-01T00:00:00Z</time></trkpt>
<trkpt lat="37.805363000" lon="-121.924150000"><ele>194.8</ele><time>2026-08-01T00:00:00Z</time></trkpt>
<trkpt lat="37.805275000" lon="-121.924130000"><ele>195.4</ele><time>2026-08-01T00:00:00Z</time></trkpt>
<trkpt lat="37.805195000" lon="-121.924095000"><ele>195.8</ele><time>2026-08-01T00:00:00Z</time></trkpt>
<trkpt lat="37.805107000" lon="-121.924095000"><ele>196.2</ele><time>2026-08-01T00:00:00Z</time></trkpt>
<trkpt lat="37.805058000" lon="-121.924180000"><ele>196.3</ele><time>2026-08-01T00:00:00Z</time></trkpt>
<trkpt lat="37.804985000" lon="-121.924225000"><ele>196.1</ele><time>2026-08-01T00:00:00Z</time></trkpt>
<trkpt lat="37.804900000" lon="-121.924250000"><ele>195.6</ele><time>2026-08-01T00:00:00Z</time></trkpt>
<trkpt lat="37.804820000" lon="-121.924255000"><ele>194.8</ele><time>2026-08-01T00:00:00Z</time></trkpt>
<trkpt lat="37.804737000" lon="-121.924280000"><ele>193.7</ele><time>2026-08-01T00:00:00Z</time></trkpt>
<trkpt lat="37.804700000" lon="-121.924370000"><ele>192.5</ele><time>2026-08-01T00:00:00Z</time></trkpt>
<trkpt lat="37.804740000" lon="-121.924480000"><ele>191.4</ele><time>2026-08-01T00:00:00Z</time></trkpt>
<trkpt lat="37.804707000" lon="-121.924580000"><ele>190.2</ele><time>2026-08-01T00:00:00Z</time></trkpt>
<trkpt lat="37.804750000" lon="-121.924680000"><ele>189.1</ele><time>2026-08-01T00:00:00Z</time></trkpt>
<trkpt lat="37.804790000" lon="-121.924790000"><ele>188.1</ele><time>2026-08-01T00:00:00Z</time></trkpt>
<trkpt lat="37.804825000" lon="-121.924900000"><ele>187.2</ele><time>2026-08-01T00:00:00Z</time></trkpt>
<trkpt lat="37.804848000" lon="-121.924995000"><ele>186.5</ele><time>2026-08-01T00:00:00Z</time></trkpt>
<trkpt lat="37.804863000" lon="-121.925095000"><ele>185.9</ele><time>2026-08-01T00:00:00Z</time></trkpt>
<trkpt lat="37.804930000" lon="-121.925160000"><ele>185.4</ele><time>2026-08-01T00:00:00Z</time></trkpt>
<trkpt lat="37.805027000" lon="-121.925170000"><ele>185.0</ele><time>2026-08-01T00:00:00Z</time></trkpt>
<trkpt lat="37.805115000" lon="-121.925190000"><ele>184.8</ele><time>2026-08-01T00:00:00Z</time></trkpt>
<trkpt lat="37.805183000" lon="-121.925270000"><ele>184.7</ele><time>2026-08-01T00:00:00Z</time></trkpt>
<trkpt lat="37.805210000" lon="-121.925385000"><ele>184.7</ele><time>2026-08-01T00:00:00Z</time></trkpt>
<trkpt lat="37.805230000" lon="-121.925480000"><ele>184.7</ele><time>2026-08-01T00:00:00Z</time></trkpt>
<trkpt lat="37.805260000" lon="-121.925590000"><ele>184.7</ele><time>2026-08-01T00:00:00Z</time></trkpt>
<trkpt lat="37.805313000" lon="-121.925674000"><ele>184.8</ele><time>2026-08-01T00:00:00Z</time></trkpt>
<trkpt lat="37.805380000" lon="-121.925735000"><ele>184.9</ele><time>2026-08-01T00:00:00Z</time></trkpt>
<trkpt lat="37.805460000" lon="-121.925740000"><ele>185.0</ele><time>2026-08-01T00:00:00Z</time></trkpt>
<trkpt lat="37.805553000" lon="-121.925730000"><ele>185.1</ele><time>2026-08-01T00:00:00Z</time></trkpt>
<trkpt lat="37.805640000" lon="-121.925730000"><ele>185.3</ele><time>2026-08-01T00:00:00Z</time></trkpt>
<trkpt lat="37.805725000" lon="-121.925705000"><ele>185.5</ele><time>2026-08-01T00:00:00Z</time></trkpt>
<trkpt lat="37.805810000" lon="-121.925680000"><ele>185.6</ele><time>2026-08-01T00:00:00Z</time></trkpt>
<trkpt lat="37.805897000" lon="-121.925660000"><ele>185.8</ele><time>2026-08-01T00:00:00Z</time></trkpt>
<trkpt lat="37.805984000" lon="-121.925644000"><ele>186.0</ele><time>2026-08-01T00:00:00Z</time></trkpt>
<trkpt lat="37.806060000" lon="-121.925590000"><ele>186.3</ele><time>2026-08-01T00:00:00Z</time></trkpt>
<trkpt lat="37.806145000" lon="-121.925550000"><ele>186.6</ele><time>2026-08-01T00:00:00Z</time></trkpt>
<trkpt lat="37.806225000" lon="-121.925545000"><ele>186.9</ele><time>2026-08-01T00:00:00Z</time></trkpt>
<trkpt lat="37.806313000" lon="-121.925520000"><ele>187.2</ele><time>2026-08-01T00:00:00Z</time></trkpt>
<trkpt lat="37.806400000" lon="-121.925490000"><ele>187.5</ele><time>2026-08-01T00:00:00Z</time></trkpt>
<trkpt lat="37.806488000" lon="-121.925510000"><ele>187.6</ele><time>2026-08-01T00:00:00Z</time></trkpt>
<trkpt lat="37.806540000" lon="-121.925590000"><ele>187.8</ele><time>2026-08-01T00:00:00Z</time></trkpt>
<trkpt lat="37.806576000" lon="-121.925705000"><ele>188.0</ele><time>2026-08-01T00:00:00Z</time></trkpt>
<trkpt lat="37.806620000" lon="-121.925800000"><ele>188.2</ele><time>2026-08-01T00:00:00Z</time></trkpt>
<trkpt lat="37.806656000" lon="-121.925890000"><ele>188.2</ele><time>2026-08-01T00:00:00Z</time></trkpt>
<trkpt lat="37.806683000" lon="-121.925990000"><ele>188.2</ele><time>2026-08-01T00:00:00Z</time></trkpt>
<trkpt lat="37.806694000" lon="-121.926094000"><ele>188.1</ele><time>2026-08-01T00:00:00Z</time></trkpt>
<trkpt lat="37.806730000" lon="-121.926210000"><ele>187.9</ele><time>2026-08-01T00:00:00Z</time></trkpt>
<trkpt lat="37.806790000" lon="-121.926290000"><ele>187.6</ele><time>2026-08-01T00:00:00Z</time></trkpt>
<trkpt lat="37.806824000" lon="-121.926400000"><ele>187.4</ele><time>2026-08-01T00:00:00Z</time></trkpt>
<trkpt lat="37.806892000" lon="-121.926460000"><ele>187.0</ele><time>2026-08-01T00:00:00Z</time></trkpt>
<trkpt lat="37.806930000" lon="-121.926560000"><ele>186.7</ele><time>2026-08-01T00:00:00Z</time></trkpt>
<trkpt lat="37.806866000" lon="-121.926650000"><ele>186.5</ele><time>2026-08-01T00:00:00Z</time></trkpt>
<trkpt lat="37.806790000" lon="-121.926704000"><ele>186.2</ele><time>2026-08-01T00:00:00Z</time></trkpt>
<trkpt lat="37.806720000" lon="-121.926770000"><ele>185.9</ele><time>2026-08-01T00:00:00Z</time></trkpt>
<trkpt lat="37.806664000" lon="-121.926850000"><ele>185.7</ele><time>2026-08-01T00:00:00Z</time></trkpt>
<trkpt lat="37.806583000" lon="-121.926920000"><ele>185.5</ele><time>2026-08-01T00:00:00Z</time></trkpt>
<trkpt lat="37.806515000" lon="-121.926970000"><ele>185.4</ele><time>2026-08-01T00:00:00Z</time></trkpt>
<trkpt lat="37.806440000" lon="-121.927025000"><ele>185.2</ele><time>2026-08-01T00:00:00Z</time></trkpt>
<trkpt lat="37.806355000" lon="-121.927020000"><ele>185.0</ele><time>2026-08-01T00:00:00Z</time></trkpt>
<trkpt lat="37.806270000" lon="-121.927020000"><ele>184.7</ele><time>2026-08-01T00:00:00Z</time></trkpt>
<trkpt lat="37.806183000" lon="-121.927050000"><ele>184.5</ele><time>2026-08-01T00:00:00Z</time></trkpt>
<trkpt lat="37.806126000" lon="-121.927140000"><ele>184.4</ele><time>2026-08-01T00:00:00Z</time></trkpt>
<trkpt lat="37.806046000" lon="-121.927170000"><ele>184.2</ele><time>2026-08-01T00:00:00Z</time></trkpt>
<trkpt lat="37.805960000" lon="-121.927180000"><ele>184.0</ele><time>2026-08-01T00:00:00Z</time></trkpt>
<trkpt lat="37.805870000" lon="-121.927185000"><ele>183.8</ele><time>2026-08-01T00:00:00Z</time></trkpt>
<trkpt lat="37.805780000" lon="-121.927200000"><ele>183.6</ele><time>2026-08-01T00:00:00Z</time></trkpt>
<trkpt lat="37.805690000" lon="-121.927200000"><ele>183.5</ele><time>2026-08-01T00:00:00Z</time></trkpt>
<trkpt lat="37.805603000" lon="-121.927210000"><ele>183.3</ele><time>2026-08-01T00:00:00Z</time></trkpt>
<trkpt lat="37.805520000" lon="-121.927216000"><ele>183.0</ele><time>2026-08-01T00:00:00Z</time></trkpt>
<trkpt lat="37.805430000" lon="-121.927240000"><ele>182.8</ele><time>2026-08-01T00:00:00Z</time></trkpt>
<trkpt lat="37.805347000" lon="-121.927240000"><ele>182.7</ele><time>2026-08-01T00:00:00Z</time></trkpt>
<trkpt lat="37.805267000" lon="-121.927246000"><ele>182.7</ele><time>2026-08-01T00:00:00Z</time></trkpt>
<trkpt lat="37.805180000" lon="-121.927246000"><ele>182.7</ele><time>2026-08-01T00:00:00Z</time></trkpt>
<trkpt lat="37.805100000" lon="-121.927246000"><ele>182.7</ele><time>2026-08-01T00:00:00Z</time></trkpt>
<trkpt lat="37.805020000" lon="-121.927250000"><ele>182.7</ele><time>2026-08-01T00:00:00Z</time></trkpt>
<trkpt lat="37.804935000" lon="-121.927250000"><ele>182.7</ele><time>2026-08-01T00:00:00Z</time></trkpt>
<trkpt lat="37.804874000" lon="-121.927170000"><ele>182.7</ele><time>2026-08-01T00:00:00Z</time></trkpt>
<trkpt lat="37.804813000" lon="-121.927080000"><ele>182.8</ele><time>2026-08-01T00:00:00Z</time></trkpt>
<trkpt lat="37.804790000" lon="-121.926980000"><ele>182.9</ele><time>2026-08-01T00:00:00Z</time></trkpt>
<trkpt lat="37.804787000" lon="-121.926870000"><ele>183.1</ele><time>2026-08-01T00:00:00Z</time></trkpt>
<trkpt lat="37.804770000" lon="-121.926760000"><ele>183.3</ele><time>2026-08-01T00:00:00Z</time></trkpt>
<trkpt lat="37.804787000" lon="-121.926640000"><ele>183.5</ele><time>2026-08-01T00:00:00Z</time></trkpt>
<trkpt lat="37.804880000" lon="-121.926620000"><ele>183.5</ele><time>2026-08-01T00:00:00Z</time></trkpt>
<trkpt lat="37.804966000" lon="-121.926600000"><ele>183.6</ele><time>2026-08-01T00:00:00Z</time></trkpt>
<trkpt lat="37.805054000" lon="-121.926575000"><ele>183.7</ele><time>2026-08-01T00:00:00Z</time></trkpt>
<trkpt lat="37.805138000" lon="-121.926560000"><ele>183.8</ele><time>2026-08-01T00:00:00Z</time></trkpt>
<trkpt lat="37.805225000" lon="-121.926544000"><ele>183.9</ele><time>2026-08-01T00:00:00Z</time></trkpt>
<trkpt lat="37.805313000" lon="-121.926590000"><ele>184.0</ele><time>2026-08-01T00:00:00Z</time></trkpt>
<trkpt lat="37.805332000" lon="-121.926700000"><ele>184.0</ele><time>2026-08-01T00:00:00Z</time></trkpt>
<trkpt lat="37.805344000" lon="-121.926810000"><ele>184.0</ele><time>2026-08-01T00:00:00Z</time></trkpt>
<trkpt lat="37.805390000" lon="-121.926900000"><ele>184.0</ele><time>2026-08-01T00:00:00Z</time></trkpt>
<trkpt lat="37.805378000" lon="-121.926796000"><ele>184.0</ele><time>2026-08-01T00:00:00Z</time></trkpt>
<trkpt lat="37.805363000" lon="-121.926690000"><ele>184.0</ele><time>2026-08-01T00:00:00Z</time></trkpt>
<trkpt lat="37.805336000" lon="-121.926580000"><ele>184.0</ele><time>2026-08-01T00:00:00Z</time></trkpt>
<trkpt lat="37.805244000" lon="-121.926560000"><ele>183.9</ele><time>2026-08-01T00:00:00Z</time></trkpt>
<trkpt lat="37.805164000" lon="-121.926590000"><ele>183.8</ele><time>2026-08-01T00:00:00Z</time></trkpt>
<trkpt lat="37.805073000" lon="-121.926605000"><ele>183.7</ele><time>2026-08-01T00:00:00Z</time></trkpt>
<trkpt lat="37.804977000" lon="-121.926630000"><ele>183.6</ele><time>2026-08-01T00:00:00Z</time></trkpt>
<trkpt lat="37.804886000" lon="-121.926650000"><ele>183.5</ele><time>2026-08-01T00:00:00Z</time></trkpt>
<trkpt lat="37.804794000" lon="-121.926674000"><ele>183.5</ele><time>2026-08-01T00:00:00Z</time></trkpt>
<trkpt lat="37.804794000" lon="-121.926770000"><ele>183.4</ele><time>2026-08-01T00:00:00Z</time></trkpt>
<trkpt lat="37.804813000" lon="-121.926890000"><ele>183.3</ele><time>2026-08-01T00:00:00Z</time></trkpt>
<trkpt lat="37.804825000" lon="-121.927000000"><ele>183.2</ele><time>2026-08-01T00:00:00Z</time></trkpt>
<trkpt lat="37.804850000" lon="-121.927110000"><ele>183.1</ele><time>2026-08-01T00:00:00Z</time></trkpt>
<trkpt lat="37.804850000" lon="-121.927216000"><ele>183.0</ele><time>2026-08-01T00:00:00Z</time></trkpt>
<trkpt lat="37.804813000" lon="-121.927315000"><ele>183.0</ele><time>2026-08-01T00:00:00Z</time></trkpt>
<trkpt lat="37.804733000" lon="-121.927340000"><ele>183.0</ele><time>2026-08-01T00:00:00Z</time></trkpt>
<trkpt lat="37.804646000" lon="-121.927350000"><ele>182.9</ele><time>2026-08-01T00:00:00Z</time></trkpt>
<trkpt lat="37.804560000" lon="-121.927400000"><ele>182.7</ele><time>2026-08-01T00:00:00Z</time></trkpt>
<trkpt lat="37.804480000" lon="-121.927420000"><ele>182.5</ele><time>2026-08-01T00:00:00Z</time></trkpt>
<trkpt lat="37.804400000" lon="-121.927444000"><ele>182.4</ele><time>2026-08-01T00:00:00Z</time></trkpt>
<trkpt lat="37.804325000" lon="-121.927475000"><ele>182.2</ele><time>2026-08-01T00:00:00Z</time></trkpt>
<trkpt lat="37.804234000" lon="-121.927510000"><ele>182.0</ele><time>2026-08-01T00:00:00Z</time></trkpt>
<trkpt lat="37.804157000" lon="-121.927550000"><ele>181.8</ele><time>2026-08-01T00:00:00Z</time></trkpt>
<trkpt lat="37.804066000" lon="-121.927574000"><ele>181.6</ele><time>2026-08-01T00:00:00Z</time></trkpt>
<trkpt lat="37.803980000" lon="-121.927605000"><ele>181.5</ele><time>2026-08-01T00:00:00Z</time></trkpt>
<trkpt lat="37.803900000" lon="-121.927635000"><ele>181.2</ele><time>2026-08-01T00:00:00Z</time></trkpt>
<trkpt lat="37.803820000" lon="-121.927680000"><ele>181.0</ele><time>2026-08-01T00:00:00Z</time></trkpt>
<trkpt lat="37.803738000" lon="-121.927720000"><ele>180.9</ele><time>2026-08-01T00:00:00Z</time></trkpt>
<trkpt lat="37.803650000" lon="-121.927765000"><ele>180.9</ele><time>2026-08-01T00:00:00Z</time></trkpt>
<trkpt lat="37.803580000" lon="-121.927826000"><ele>180.9</ele><time>2026-08-01T00:00:00Z</time></trkpt>
<trkpt lat="37.803500000" lon="-121.927880000"><ele>180.9</ele><time>2026-08-01T00:00:00Z</time></trkpt>
<trkpt lat="37.803410000" lon="-121.927890000"><ele>180.8</ele><time>2026-08-01T00:00:00Z</time></trkpt>
<trkpt lat="37.803330000" lon="-121.927930000"><ele>180.7</ele><time>2026-08-01T00:00:00Z</time></trkpt>
<trkpt lat="37.803240000" lon="-121.927980000"><ele>180.6</ele><time>2026-08-01T00:00:00Z</time></trkpt>
<trkpt lat="37.803154000" lon="-121.928000000"><ele>180.5</ele><time>2026-08-01T00:00:00Z</time></trkpt>
<trkpt lat="37.803070000" lon="-121.928050000"><ele>180.5</ele><time>2026-08-01T00:00:00Z</time></trkpt>
<trkpt lat="37.802994000" lon="-121.928116000"><ele>180.5</ele><time>2026-08-01T00:00:00Z</time></trkpt>
<trkpt lat="37.802910000" lon="-121.928154000"><ele>180.4</ele><time>2026-08-01T00:00:00Z</time></trkpt>
<trkpt lat="37.802822000" lon="-121.928185000"><ele>180.3</ele><time>2026-08-01T00:00:00Z</time></trkpt>
<trkpt lat="37.802734000" lon="-121.928185000"><ele>180.1</ele><time>2026-08-01T00:00:00Z</time></trkpt>
<trkpt lat="37.802650000" lon="-121.928200000"><ele>179.9</ele><time>2026-08-01T00:00:00Z</time></trkpt>
<trkpt lat="37.802567000" lon="-121.928185000"><ele>179.7</ele><time>2026-08-01T00:00:00Z</time></trkpt>
<trkpt lat="37.802470000" lon="-121.928185000"><ele>179.6</ele><time>2026-08-01T00:00:00Z</time></trkpt>
<trkpt lat="37.802376000" lon="-121.928180000"><ele>179.5</ele><time>2026-08-01T00:00:00Z</time></trkpt>
<trkpt lat="37.802284000" lon="-121.928170000"><ele>179.3</ele><time>2026-08-01T00:00:00Z</time></trkpt>
<trkpt lat="37.802200000" lon="-121.928170000"><ele>179.1</ele><time>2026-08-01T00:00:00Z</time></trkpt>
<trkpt lat="37.802113000" lon="-121.928160000"><ele>178.9</ele><time>2026-08-01T00:00:00Z</time></trkpt>
<trkpt lat="37.802032000" lon="-121.928160000"><ele>178.7</ele><time>2026-08-01T00:00:00Z</time></trkpt>
<trkpt lat="37.801945000" lon="-121.928160000"><ele>178.5</ele><time>2026-08-01T00:00:00Z</time></trkpt>
<trkpt lat="37.801853000" lon="-121.928150000"><ele>178.4</ele><time>2026-08-01T00:00:00Z</time></trkpt>
<trkpt lat="37.801770000" lon="-121.928154000"><ele>178.3</ele><time>2026-08-01T00:00:00Z</time></trkpt>
<trkpt lat="37.801723000" lon="-121.928070000"><ele>178.2</ele><time>2026-08-01T00:00:00Z</time></trkpt>
<trkpt lat="37.801693000" lon="-121.927960000"><ele>178.1</ele><time>2026-08-01T00:00:00Z</time></trkpt>
<trkpt lat="37.801710000" lon="-121.927860000"><ele>178.0</ele><time>2026-08-01T00:00:00Z</time></trkpt>
<trkpt lat="37.801704000" lon="-121.927740000"><ele>178.0</ele><time>2026-08-01T00:00:00Z</time></trkpt>
<trkpt lat="37.801700000" lon="-121.927620000"><ele>178.0</ele><time>2026-08-01T00:00:00Z</time></trkpt>
<trkpt lat="37.801666000" lon="-121.927530000"><ele>178.0</ele><time>2026-08-01T00:00:00Z</time></trkpt>
<trkpt lat="37.801746000" lon="-121.927536000"><ele>178.0</ele><time>2026-08-01T00:00:00Z</time></trkpt>
<trkpt lat="37.801712000" lon="-121.927536000"><ele>178.0</ele><time>2026-08-01T00:00:00Z</time></trkpt>
</trkseg>
</trk>
</gpx>
