<?xml version="1.0" encoding="UTF-8"?>
<gpx
  version="1.1"
  creator="Runkeeper - http://www.runkeeper.com"
  xmlns:xsi="http://www.w3.org/2001/XMLSchema-instance"
  xmlns="http://www.topografix.com/GPX/1/1"
  xsi:schemaLocation="http://www.topografix.com/GPX/1/1 http://www.topografix.com/GPX/1/1/gpx.xsd"
  xmlns:gpxtpx="http://www.garmin.com/xmlschemas/TrackPointExtension/v1">
<trk>
  <name><![CDATA[Walking 8/15/26]]></name>
  <time>2026-08-16T00:00:00Z</time>
<trkseg>
<trkpt lat="37.810177000" lon="-121.929146000"><ele>196.0</ele><time>2026-08-16T00:00:00Z</time></trkpt>
<trkpt lat="37.810192000" lon="-121.928950000"><ele>196.1</ele><time>2026-08-16T00:00:00Z</time></trkpt>
<trkpt lat="37.810210000" lon="-121.929050000"><ele>196.2</ele><time>2026-08-16T00:00:00Z</time></trkpt>
<trkpt lat="37.810130000" lon="-121.929080000"><ele>196.4</ele><time>2026-08-16T00:00:00Z</time></trkpt>
<trkpt lat="37.810215000" lon="-121.929050000"><ele>196.6</ele><time>2026-08-16T00:00:00Z</time></trkpt>
<trkpt lat="37.810300000" lon="-121.929080000"><ele>196.8</ele><time>2026-08-16T00:00:00Z</time></trkpt>
<trkpt lat="37.810370000" lon="-121.929130000"><ele>197.1</ele><time>2026-08-16T00:00:00Z</time></trkpt>
<trkpt lat="37.810450000" lon="-121.929190000"><ele>197.4</ele><time>2026-08-16T00:00:00Z</time></trkpt>
<trkpt lat="37.810524000" lon="-121.929245000"><ele>197.6</ele><time>2026-08-16T00:00:00Z</time></trkpt>
<trkpt lat="37.810596000" lon="-121.929306000"><ele>198.0</ele><time>2026-08-16T00:00:00Z</time></trkpt>
<trkpt lat="37.810673000" lon="-121.929360000"><ele>198.4</ele><time>2026-08-16T00:00:00Z</time></trkpt>
<trkpt lat="37.810745000" lon="-121.929420000"><ele>198.7</ele><time>2026-08-16T00:00:00Z</time></trkpt>
<trkpt lat="37.810820000" lon="-121.929474000"><ele>199.0</ele><time>2026-08-16T00:00:00Z</time></trkpt>
<trkpt lat="37.810894000" lon="-121.929535000"><ele>199.3</ele><time>2026-08-16T00:00:00Z</time></trkpt>
<trkpt lat="37.810970000" lon="-121.929596000"><ele>199.5</ele><time>2026-08-16T00:00:00Z</time></trkpt>
<trkpt lat="37.811043000" lon="-121.929650000"><ele>199.5</ele><time>2026-08-16T00:00:00Z</time></trkpt>
<trkpt lat="37.811120000" lon="-121.929710000"><ele>199.5</ele><time>2026-08-16T00:00:00Z</time></trkpt>
<trkpt lat="37.811190000" lon="-121.929770000"><ele>199.5</ele><time>2026-08-16T00:00:00Z</time></trkpt>
<trkpt lat="37.811264000" lon="-121.929825000"><ele>199.5</ele><time>2026-08-16T00:00:00Z</time></trkpt>
<trkpt lat="37.811333000" lon="-121.929880000"><ele>199.5</ele><time>2026-08-16T00:00:00Z</time></trkpt>
<trkpt lat="37.811405000" lon="-121.929955000"><ele>199.5</ele><time>2026-08-16T00:00:00Z</time></trkpt>
<trkpt lat="37.811490000" lon="-121.929990000"><ele>199.5</ele><time>2026-08-16T00:00:00Z</time></trkpt>
<trkpt lat="37.811550000" lon="-121.930060000"><ele>199.5</ele><time>2026-08-16T00:00:00Z</time></trkpt>
<trkpt lat="37.811620000" lon="-121.930120000"><ele>199.5</ele><time>2026-08-16T00:00:00Z</time></trkpt>
<trkpt lat="37.811687000" lon="-121.930190000"><ele>199.6</ele><time>2026-08-16T00:00:00Z</time></trkpt>
<trkpt lat="37.811770000" lon="-121.930240000"><ele>199.7</ele><time>2026-08-16T00:00:00Z</time></trkpt>
<trkpt lat="37.811844000" lon="-121.930290000"><ele>199.8</ele><time>2026-08-16T00:00:00Z</time></trkpt>
<trkpt lat="37.811920000" lon="-121.930336000"><ele>200.0</ele><time>2026-08-16T00:00:00Z</time></trkpt>
<trkpt lat="37.811990000" lon="-121.930390000"><ele>200.3</ele><time>2026-08-16T00:00:00Z</time></trkpt>
<trkpt lat="37.812070000" lon="-121.930435000"><ele>200.5</ele><time>2026-08-16T00:00:00Z</time></trkpt>
<trkpt lat="37.812145000" lon="-121.930490000"><ele>200.9</ele><time>2026-08-16T00:00:00Z</time></trkpt>
<trkpt lat="37.812220000" lon="-121.930534000"><ele>201.2</ele><time>2026-08-16T00:00:00Z</time></trkpt>
<trkpt lat="37.812294000" lon="-121.930590000"><ele>201.5</ele><time>2026-08-16T00:00:00Z</time></trkpt>
<trkpt lat="37.812374000" lon="-121.930626000"><ele>201.8</ele><time>2026-08-16T00:00:00Z</time></trkpt>
<trkpt lat="37.812450000" lon="-121.930664000"><ele>202.2</ele><time>2026-08-16T00:00:00Z</time></trkpt>
<trkpt lat="37.812527000" lon="-121.930710000"><ele>202.5</ele><time>2026-08-16T00:00:00Z</time></trkpt>
<trkpt lat="37.812603000" lon="-121.930756000"><ele>202.9</ele><time>2026-08-16T00:00:00Z</time></trkpt>
<trkpt lat="37.812690000" lon="-121.930800000"><ele>203.4</ele><time>2026-08-16T00:00:00Z</time></trkpt>
<trkpt lat="37.812763000" lon="-121.930850000"><ele>203.8</ele><time>2026-08-16T00:00:00Z</time></trkpt>
<trkpt lat="37.812836000" lon="-121.930890000"><ele>204.3</ele><time>2026-08-16T00:00:00Z</time></trkpt>
<trkpt lat="37.812916000" lon="-121.930954000"><ele>204.7</ele><time>2026-08-16T00:00:00Z</time></trkpt>
<trkpt lat="37.813000000" lon="-121.931000000"><ele>205.1</ele><time>2026-08-16T00:00:00Z</time></trkpt>
<trkpt lat="37.813080000" lon="-121.931046000"><ele>205.5</ele><time>2026-08-16T00:00:00Z</time></trkpt>
<trkpt lat="37.813152000" lon="-121.931100000"><ele>205.8</ele><time>2026-08-16T00:00:00Z</time></trkpt>
<trkpt lat="37.813225000" lon="-121.931140000"><ele>206.1</ele><time>2026-08-16T00:00:00Z</time></trkpt>
<trkpt lat="37.813310000" lon="-121.931190000"><ele>206.4</ele><time>2026-08-16T00:00:00Z</time></trkpt>
<trkpt lat="37.813380000" lon="-121.931240000"><ele>206.5</ele><time>2026-08-16T00:00:00Z</time></trkpt>
<trkpt lat="37.813454000" lon="-121.931290000"><ele>206.7</ele><time>2026-08-16T00:00:00Z</time></trkpt>
<trkpt lat="37.813526000" lon="-121.931350000"><ele>207.0</ele><time>2026-08-16T00:00:00Z</time></trkpt>
<trkpt lat="37.813614000" lon="-121.931390000"><ele>207.2</ele><time>2026-08-16T00:00:00Z</time></trkpt>
<trkpt lat="37.813698000" lon="-121.931404000"><ele>207.3</ele><time>2026-08-16T00:00:00Z</time></trkpt>
<trkpt lat="37.813790000" lon="-121.931420000"><ele>207.3</ele><time>2026-08-16T00:00:00Z</time></trkpt>
<trkpt lat="37.813880000" lon="-121.931440000"><ele>207.3</ele><time>2026-08-16T00:00:00Z</time></trkpt>
<trkpt lat="37.813960000" lon="-121.931465000"><ele>207.4</ele><time>2026-08-16T00:00:00Z</time></trkpt>
<trkpt lat="37.814045000" lon="-121.931520000"><ele>207.5</ele><time>2026-08-16T00:00:00Z</time></trkpt>
<trkpt lat="37.814130000" lon="-121.931570000"><ele>207.5</ele><time>2026-08-16T00:00:00Z</time></trkpt>
<trkpt lat="37.814194000" lon="-121.931640000"><ele>207.7</ele><time>2026-08-16T00:00:00Z</time></trkpt>
<trkpt lat="37.814270000" lon="-121.931710000"><ele>207.9</ele><time>2026-08-16T00:00:00Z</time></trkpt>
<trkpt lat="37.814346000" lon="-121.931780000"><ele>208.2</ele><time>2026-08-16T00:00:00Z</time></trkpt>
<trkpt lat="37.814426000" lon="-121.931820000"><ele>208.4</ele><time>2026-08-16T00:00:00Z</time></trkpt>
<trkpt lat="37.814514000" lon="-121.931854000"><ele>208.5</ele><time>2026-08-16T00:00:00Z</time></trkpt>
<trkpt lat="37.814598000" lon="-121.931885000"><ele>208.7</ele><time>2026-08-16T00:00:00Z</time></trkpt>
<trkpt lat="37.814686000" lon="-121.931900000"><ele>209.1</ele><time>2026-08-16T00:00:00Z</time></trkpt>
<trkpt lat="37.814770000" lon="-121.931930000"><ele>209.5</ele><time>2026-08-16T00:00:00Z</time></trkpt>
<trkpt lat="37.814854000" lon="-121.931970000"><ele>210.0</ele><time>2026-08-16T00:00:00Z</time></trkpt>
<trkpt lat="37.814940000" lon="-121.931990000"><ele>210.5</ele><time>2026-08-16T00:00:00Z</time></trkpt>
<trkpt lat="37.815030000" lon="-121.932014000"><ele>210.9</ele><time>2026-08-16T00:00:00Z</time></trkpt>
<trkpt lat="37.815110000" lon="-121.932045000"><ele>211.4</ele><time>2026-08-16T00:00:00Z</time></trkpt>
<trkpt lat="37.815197000" lon="-121.932070000"><ele>211.8</ele><time>2026-08-16T00:00:00Z</time></trkpt>
<trkpt lat="37.815280000" lon="-121.932100000"><ele>212.2</ele><time>2026-08-16T00:00:00Z</time></trkpt>
<trkpt lat="37.815365000" lon="-121.932130000"><ele>212.5</ele><time>2026-08-16T00:00:00Z</time></trkpt>
<trkpt lat="37.815453000" lon="-121.932150000"><ele>213.0</ele><time>2026-08-16T00:00:00Z</time></trkpt>
<trkpt lat="37.815544000" lon="-121.932170000"><ele>213.5</ele><time>2026-08-16T00:00:00Z</time></trkpt>
<trkpt lat="37.815630000" lon="-121.932160000"><ele>213.8</ele><time>2026-08-16T00:00:00Z</time></trkpt>
<trkpt lat="37.815716000" lon="-121.932160000"><ele>214.1</ele><time>2026-08-16T00:00:00Z</time></trkpt>
<trkpt lat="37.815800000" lon="-121.932170000"><ele>214.3</ele><time>2026-08-16T00:00:00Z</time></trkpt>
<trkpt lat="37.815884000" lon="-121.932150000"><ele>214.5</ele><time>2026-08-16T00:00:00Z</time></trkpt>
<trkpt lat="37.815964000" lon="-121.932150000"><ele>214.8</ele><time>2026-08-16T00:00:00Z</time></trkpt>
<trkpt lat="37.816050000" lon="-121.932160000"><ele>215.1</ele><time>2026-08-16T00:00:00Z</time></trkpt>
<trkpt lat="37.816135000" lon="-121.932144000"><ele>215.4</ele><time>2026-08-16T00:00:00Z</time></trkpt>
<trkpt lat="37.816230000" lon="-121.932144000"><ele>215.6</ele><time>2026-08-16T00:00:00Z</time></trkpt>
<trkpt lat="37.816322000" lon="-121.932144000"><ele>215.9</ele><time>2026-08-16T00:00:00Z</time></trkpt>
<trkpt lat="37.816410000" lon="-121.932144000"><ele>216.0</ele><time>2026-08-16T00:00:00Z</time></trkpt>
<trkpt lat="37.816500000" lon="-121.932144000"><ele>216.1</ele><time>2026-08-16T00:00:00Z</time></trkpt>
<trkpt lat="37.816586000" lon="-121.932175000"><ele>216.2</ele><time>2026-08-16T00:00:00Z</time></trkpt>
<trkpt lat="37.816670000" lon="-121.932205000"><ele>216.2</ele><time>2026-08-16T00:00:00Z</time></trkpt>
<trkpt lat="37.816746000" lon="-121.932270000"><ele>216.3</ele><time>2026-08-16T00:00:00Z</time></trkpt>
<trkpt lat="37.816803000" lon="-121.932360000"><ele>216.4</ele><time>2026-08-16T00:00:00Z</time></trkpt>
<trkpt lat="37.816845000" lon="-121.932460000"><ele>216.5</ele><time>2026-08-16T00:00:00Z</time></trkpt>
<trkpt lat="37.816910000" lon="-121.932530000"><ele>216.5</ele><time>2026-08-16T00:00:00Z</time></trkpt>
<trkpt lat="37.816936000" lon="-121.932640000"><ele>216.5</ele><time>2026-08-16T00:00:00Z</time></trkpt>
<trkpt lat="37.816970000" lon="-121.932740000"><ele>216.7</ele><time>2026-08-16T00:00:00Z</time></trkpt>
<trkpt lat="37.817020000" lon="-121.932830000"><ele>217.0</ele><time>2026-08-16T00:00:00Z</time></trkpt>
<trkpt lat="37.817080000" lon="-121.932915000"><ele>217.4</ele><time>2026-08-16T00:00:00Z</time></trkpt>
<trkpt lat="37.817154000" lon="-121.932980000"><ele>217.8</ele><time>2026-08-16T00:00:00Z</time></trkpt>
<trkpt lat="37.817220000" lon="-121.933075000"><ele>218.3</ele><time>2026-08-16T00:00:00Z</time></trkpt>
<trkpt lat="37.817280000" lon="-121.933150000"><ele>218.8</ele><time>2026-08-16T00:00:00Z</time></trkpt>
<trkpt lat="37.817356000" lon="-121.933200000"><ele>219.3</ele><time>2026-08-16T00:00:00Z</time></trkpt>
<trkpt lat="37.817448000" lon="-121.933210000"><ele>219.6</ele><time>2026-08-16T00:00:00Z</time></trkpt>
<trkpt lat="37.817535000" lon="-121.933230000"><ele>220.0</ele><time>2026-08-16T00:00:00Z</time></trkpt>
<trkpt lat="37.817623000" lon="-121.933240000"><ele>220.4</ele><time>2026-08-16T00:00:00Z</time></trkpt>
<trkpt lat="37.817715000" lon="-121.933266000"><ele>220.8</ele><time>2026-08-16T00:00:00Z</time></trkpt>
<trkpt lat="37.817802000" lon="-121.933300000"><ele>221.3</ele><time>2026-08-16T00:00:00Z</time></trkpt>
<trkpt lat="37.817886000" lon="-121.933330000"><ele>221.6</ele><time>2026-08-16T00:00:00Z</time></trkpt>
<trkpt lat="37.817974000" lon="-121.933340000"><ele>222.2</ele><time>2026-08-16T00:00:00Z</time></trkpt>
<trkpt lat="37.818060000" lon="-121.933360000"><ele>222.8</ele><time>2026-08-16T00:00:00Z</time></trkpt>
<trkpt lat="37.818146000" lon="-121.933370000"><ele>223.6</ele><time>2026-08-16T00:00:00Z</time></trkpt>
<trkpt lat="37.818222000" lon="-121.933410000"><ele>224.5</ele><time>2026-08-16T00:00:00Z</time></trkpt>
<trkpt lat="37.818306000" lon="-121.933426000"><ele>225.6</ele><time>2026-08-16T00:00:00Z</time></trkpt>
<trkpt lat="37.818382000" lon="-121.933480000"><ele>227.0</ele><time>2026-08-16T00:00:00Z</time></trkpt>
<trkpt lat="37.818450000" lon="-121.933550000"><ele>228.2</ele><time>2026-08-16T00:00:00Z</time></trkpt>
<trkpt lat="37.818527000" lon="-121.933610000"><ele>229.1</ele><time>2026-08-16T00:00:00Z</time></trkpt>
<trkpt lat="37.818604000" lon="-121.933660000"><ele>229.9</ele><time>2026-08-16T00:00:00Z</time></trkpt>
<trkpt lat="37.818680000" lon="-121.933716000"><ele>230.4</ele><time>2026-08-16T00:00:00Z</time></trkpt>
<trkpt lat="37.818750000" lon="-121.933790000"><ele>230.7</ele><time>2026-08-16T00:00:00Z</time></trkpt>
<trkpt lat="37.818670000" lon="-121.933760000"><ele>230.7</ele><time>2026-08-16T00:00:00Z</time></trkpt>
<trkpt lat="37.818584000" lon="-121.933750000"><ele>230.4</ele><time>2026-08-16T00:00:00Z</time></trkpt>
<trkpt lat="37.818530000" lon="-121.933670000"><ele>229.7</ele><time>2026-08-16T00:00:00Z</time></trkpt>
<trkpt lat="37.818466000" lon="-121.933610000"><ele>228.9</ele><time>2026-08-16T00:00:00Z</time></trkpt>
<trkpt lat="37.818390000" lon="-121.933550000"><ele>227.8</ele><time>2026-08-16T00:00:00Z</time></trkpt>
<trkpt lat="37.818325000" lon="-121.933480000"><ele>226.5</ele><time>2026-08-16T00:00:00Z</time></trkpt>
<trkpt lat="37.818245000" lon="-121.933430000"><ele>225.3</ele><time>2026-08-16T00:00:00Z</time></trkpt>
<trkpt lat="37.818160000" lon="-121.933390000"><ele>224.3</ele><time>2026-08-16T00:00:00Z</time></trkpt>
<trkpt lat="37.818080000" lon="-121.933365000"><ele>223.4</ele><time>2026-08-16T00:00:00Z</time></trkpt>
<trkpt lat="37.818000000" lon="-121.933340000"><ele>222.6</ele><time>2026-08-16T00:00:00Z</time></trkpt>
<trkpt lat="37.817913000" lon="-121.933320000"><ele>222.0</ele><time>2026-08-16T00:00:00Z</time></trkpt>
<trkpt lat="37.817830000" lon="-121.933310000"><ele>221.5</ele><time>2026-08-16T00:00:00Z</time></trkpt>
<trkpt lat="37.817750000" lon="-121.933290000"><ele>221.1</ele><time>2026-08-16T00:00:00Z</time></trkpt>
<trkpt lat="37.817665000" lon="-121.933266000"><ele>220.7</ele><time>2026-08-16T00:00:00Z</time></trkpt>
<trkpt lat="37.817577000" lon="-121.933250000"><ele>220.5</ele><time>2026-08-16T00:00:00Z</time></trkpt>
<trkpt lat="37.817482000" lon="-121.933235000"><ele>220.5</ele><time>2026-08-16T00:00:00Z</time></trkpt>
<trkpt lat="37.817390000" lon="-121.933230000"><ele>220.4</ele><time>2026-08-16T00:00:00Z</time></trkpt>
<trkpt lat="37.817300000" lon="-121.933200000"><ele>220.2</ele><time>2026-08-16T00:00:00Z</time></trkpt>
<trkpt lat="37.817215000" lon="-121.933180000"><ele>220.0</ele><time>2026-08-16T00:00:00Z</time></trkpt>
<trkpt lat="37.817130000" lon="-121.933180000"><ele>219.9</ele><time>2026-08-16T00:00:00Z</time></trkpt>
<trkpt lat="37.817043000" lon="-121.933200000"><ele>219.9</ele><time>2026-08-16T00:00:00Z</time></trkpt>
<trkpt lat="37.817000000" lon="-121.933100000"><ele>219.9</ele><time>2026-08-16T00:00:00Z</time></trkpt>
<trkpt lat="37.816940000" lon="-121.933030000"><ele>220.1</ele><time>2026-08-16T00:00:00Z</time></trkpt>
<trkpt lat="37.816868000" lon="-121.932980000"><ele>220.4</ele><time>2026-08-16T00:00:00Z</time></trkpt>
<trkpt lat="37.816780000" lon="-121.932950000"><ele>220.8</ele><time>2026-08-16T00:00:00Z</time></trkpt>
<trkpt lat="37.816696000" lon="-121.932940000"><ele>221.1</ele><time>2026-08-16T00:00:00Z</time></trkpt>
<trkpt lat="37.816612000" lon="-121.932920000"><ele>221.2</ele><time>2026-08-16T00:00:00Z</time></trkpt>
<trkpt lat="37.816530000" lon="-121.932915000"><ele>221.5</ele><time>2026-08-16T00:00:00Z</time></trkpt>
<trkpt lat="37.816450000" lon="-121.932915000"><ele>221.7</ele><time>2026-08-16T00:00:00Z</time></trkpt>
<trkpt lat="37.816360000" lon="-121.932915000"><ele>221.9</ele><time>2026-08-16T00:00:00Z</time></trkpt>
<trkpt lat="37.816277000" lon="-121.932940000"><ele>221.9</ele><time>2026-08-16T00:00:00Z</time></trkpt>
<trkpt lat="37.816196000" lon="-121.932960000"><ele>221.7</ele><time>2026-08-16T00:00:00Z</time></trkpt>
<trkpt lat="37.816116000" lon="-121.933020000"><ele>221.5</ele><time>2026-08-16T00:00:00Z</time></trkpt>
<trkpt lat="37.816032000" lon="-121.933080000"><ele>221.2</ele><time>2026-08-16T00:00:00Z</time></trkpt>
<trkpt lat="37.815956000" lon="-121.933140000"><ele>220.7</ele><time>2026-08-16T00:00:00Z</time></trkpt>
<trkpt lat="37.815870000" lon="-121.933140000"><ele>220.3</ele><time>2026-08-16T00:00:00Z</time></trkpt>
<trkpt lat="37.815784000" lon="-121.933110000"><ele>219.9</ele><time>2026-08-16T00:00:00Z</time></trkpt>
<trkpt lat="37.815712000" lon="-121.933060000"><ele>219.7</ele><time>2026-08-16T00:00:00Z</time></trkpt>
<trkpt lat="37.815636000" lon="-121.933030000"><ele>219.5</ele><time>2026-08-16T00:00:00Z</time></trkpt>
<trkpt lat="37.815550000" lon="-121.932990000"><ele>219.2</ele><time>2026-08-16T00:00:00Z</time></trkpt>
<trkpt lat="37.815470000" lon="-121.932960000"><ele>219.2</ele><time>2026-08-16T00:00:00Z</time></trkpt>
<trkpt lat="37.815380000" lon="-121.932940000"><ele>219.2</ele><time>2026-08-16T00:00:00Z</time></trkpt>
<trkpt lat="37.815292000" lon="-121.932920000"><ele>219.2</ele><time>2026-08-16T00:00:00Z</time></trkpt>
<trkpt lat="37.815200000" lon="-121.932930000"><ele>219.3</ele><time>2026-08-16T00:00:00Z</time></trkpt>
<trkpt lat="37.815125000" lon="-121.932960000"><ele>219.3</ele><time>2026-08-16T00:00:00Z</time></trkpt>
<trkpt lat="37.815075000" lon="-121.933060000"><ele>219.5</ele><time>2026-08-16T00:00:00Z</time></trkpt>
<trkpt lat="37.814995000" lon="-121.933090000"><ele>219.5</ele><time>2026-08-16T00:00:00Z</time></trkpt>
<trkpt lat="37.814940000" lon="-121.933170000"><ele>219.7</ele><time>2026-08-16T00:00:00Z</time></trkpt>
<trkpt lat="37.814995000" lon="-121.933070000"><ele>219.7</ele><time>2026-08-16T00:00:00Z</time></trkpt>
<trkpt lat="37.815067000" lon="-121.933010000"><ele>219.7</ele><time>2026-08-16T00:00:00Z</time></trkpt>
<trkpt lat="37.815140000" lon="-121.932970000"><ele>219.7</ele><time>2026-08-16T00:00:00Z</time></trkpt>
<trkpt lat="37.815228000" lon="-121.932945000"><ele>219.5</ele><time>2026-08-16T00:00:00Z</time></trkpt>
<trkpt lat="37.815310000" lon="-121.932950000"><ele>219.5</ele><time>2026-08-16T00:00:00Z</time></trkpt>
<trkpt lat="37.815403000" lon="-121.932970000"><ele>219.5</ele><time>2026-08-16T00:00:00Z</time></trkpt>
<trkpt lat="37.815487000" lon="-121.932980000"><ele>219.6</ele><time>2026-08-16T00:00:00Z</time></trkpt>
<trkpt lat="37.815567000" lon="-121.933014000"><ele>219.9</ele><time>2026-08-16T00:00:00Z</time></trkpt>
<trkpt lat="37.815650000" lon="-121.933044000"><ele>220.1</ele><time>2026-08-16T00:00:00Z</time></trkpt>
<trkpt lat="37.815730000" lon="-121.933090000"><ele>220.4</ele><time>2026-08-16T00:00:00Z</time></trkpt>
<trkpt lat="37.815815000" lon="-121.933136000"><ele>220.5</ele><time>2026-08-16T00:00:00Z</time></trkpt>
<trkpt lat="37.815903000" lon="-121.933160000"><ele>220.9</ele><time>2026-08-16T00:00:00Z</time></trkpt>
<trkpt lat="37.815983000" lon="-121.933136000"><ele>221.5</ele><time>2026-08-16T00:00:00Z</time></trkpt>
<trkpt lat="37.816063000" lon="-121.933075000"><ele>221.8</ele><time>2026-08-16T00:00:00Z</time></trkpt>
<trkpt lat="37.816135000" lon="-121.933030000"><ele>222.1</ele><time>2026-08-16T00:00:00Z</time></trkpt>
<trkpt lat="37.816208000" lon="-121.932976000"><ele>222.4</ele><time>2026-08-16T00:00:00Z</time></trkpt>
<trkpt lat="37.816296000" lon="-121.932950000"><ele>222.5</ele><time>2026-08-16T00:00:00Z</time></trkpt>
<trkpt lat="37.816383000" lon="-121.932940000"><ele>222.5</ele><time>2026-08-16T00:00:00Z</time></trkpt>
<trkpt lat="37.816467000" lon="-121.932930000"><ele>222.2</ele><time>2026-08-16T00:00:00Z</time></trkpt>
<trkpt lat="37.816547000" lon="-121.932920000"><ele>221.9</ele><time>2026-08-16T00:00:00Z</time></trkpt>
<trkpt lat="37.816643000" lon="-121.932940000"><ele>221.6</ele><time>2026-08-16T00:00:00Z</time></trkpt>
<trkpt lat="37.816730000" lon="-121.932950000"><ele>221.5</ele><time>2026-08-16T00:00:00Z</time></trkpt>
<trkpt lat="37.816814000" lon="-121.932976000"><ele>221.0</ele><time>2026-08-16T00:00:00Z</time></trkpt>
<trkpt lat="37.816900000" lon="-121.933010000"><ele>220.5</ele><time>2026-08-16T00:00:00Z</time></trkpt>
<trkpt lat="37.816982000" lon="-121.933070000"><ele>219.9</ele><time>2026-08-16T00:00:00Z</time></trkpt>
<trkpt lat="37.817047000" lon="-121.933130000"><ele>219.5</ele><time>2026-08-16T00:00:00Z</time></trkpt>
<trkpt lat="37.817090000" lon="-121.933220000"><ele>219.2</ele><time>2026-08-16T00:00:00Z</time></trkpt>
<trkpt lat="37.817173000" lon="-121.933190000"><ele>218.8</ele><time>2026-08-16T00:00:00Z</time></trkpt>
<trkpt lat="37.817253000" lon="-121.933170000"><ele>218.5</ele><time>2026-08-16T00:00:00Z</time></trkpt>
<trkpt lat="37.817240000" lon="-121.933060000"><ele>218.1</ele><time>2026-08-16T00:00:00Z</time></trkpt>
<trkpt lat="37.817173000" lon="-121.932990000"><ele>217.7</ele><time>2026-08-16T00:00:00Z</time></trkpt>
<trkpt lat="37.817100000" lon="-121.932930000"><ele>217.4</ele><time>2026-08-16T00:00:00Z</time></trkpt>
<trkpt lat="37.817043000" lon="-121.932850000"><ele>216.9</ele><time>2026-08-16T00:00:00Z</time></trkpt>
<trkpt lat="37.816986000" lon="-121.932760000"><ele>216.7</ele><time>2026-08-16T00:00:00Z</time></trkpt>
<trkpt lat="37.816936000" lon="-121.932660000"><ele>216.5</ele><time>2026-08-16T00:00:00Z</time></trkpt>
<trkpt lat="37.816902000" lon="-121.932560000"><ele>216.5</ele><time>2026-08-16T00:00:00Z</time></trkpt>
<trkpt lat="37.816864000" lon="-121.932470000"><ele>216.4</ele><time>2026-08-16T00:00:00Z</time></trkpt>
<trkpt lat="37.816814000" lon="-121.932370000"><ele>216.2</ele><time>2026-08-16T00:00:00Z</time></trkpt>
<trkpt lat="37.816760000" lon="-121.932290000"><ele>216.1</ele><time>2026-08-16T00:00:00Z</time></trkpt>
<trkpt lat="37.816690000" lon="-121.932220000"><ele>216.1</ele><time>2026-08-16T00:00:00Z</time></trkpt>
<trkpt lat="37.816616000" lon="-121.932170000"><ele>216.1</ele><time>2026-08-16T00:00:00Z</time></trkpt>
<trkpt lat="37.816525000" lon="-121.932144000"><ele>216.1</ele><time>2026-08-16T00:00:00Z</time></trkpt>
<trkpt lat="37.816440000" lon="-121.932140000"><ele>216.0</ele><time>2026-08-16T00:00:00Z</time></trkpt>
<trkpt lat="37.816357000" lon="-121.932144000"><ele>215.9</ele><time>2026-08-16T00:00:00Z</time></trkpt>
<trkpt lat="37.816273000" lon="-121.932144000"><ele>215.6</ele><time>2026-08-16T00:00:00Z</time></trkpt>
<trkpt lat="37.816185000" lon="-121.932144000"><ele>215.5</ele><time>2026-08-16T00:00:00Z</time></trkpt>
<trkpt lat="37.816093000" lon="-121.932144000"><ele>215.2</ele><time>2026-08-16T00:00:00Z</time></trkpt>
<trkpt lat="37.816000000" lon="-121.932144000"><ele>214.9</ele><time>2026-08-16T00:00:00Z</time></trkpt>
<trkpt lat="37.815914000" lon="-121.932150000"><ele>214.6</ele><time>2026-08-16T00:00:00Z</time></trkpt>
<trkpt lat="37.815826000" lon="-121.932160000"><ele>214.4</ele><time>2026-08-16T00:00:00Z</time></trkpt>
<trkpt lat="37.815740000" lon="-121.932160000"><ele>214.1</ele><time>2026-08-16T00:00:00Z</time></trkpt>
<trkpt lat="37.815650000" lon="-121.932160000"><ele>213.8</ele><time>2026-08-16T00:00:00Z</time></trkpt>
<trkpt lat="37.815567000" lon="-121.932160000"><ele>213.5</ele><time>2026-08-16T00:00:00Z</time></trkpt>
<trkpt lat="37.815475000" lon="-121.932144000"><ele>213.3</ele><time>2026-08-16T00:00:00Z</time></trkpt>
<trkpt lat="37.815390000" lon="-121.932110000"><ele>212.9</ele><time>2026-08-16T00:00:00Z</time></trkpt>
<trkpt lat="37.815304000" lon="-121.932090000"><ele>212.5</ele><time>2026-08-16T00:00:00Z</time></trkpt>
<trkpt lat="37.815220000" lon="-121.932070000"><ele>212.2</ele><time>2026-08-16T00:00:00Z</time></trkpt>
<trkpt lat="37.815136000" lon="-121.932040000"><ele>211.8</ele><time>2026-08-16T00:00:00Z</time></trkpt>
<trkpt lat="37.815075000" lon="-121.931950000"><ele>211.4</ele><time>2026-08-16T00:00:00Z</time></trkpt>
<trkpt lat="37.814995000" lon="-121.931950000"><ele>211.0</ele><time>2026-08-16T00:00:00Z</time></trkpt>
<trkpt lat="37.814910000" lon="-121.931940000"><ele>210.5</ele><time>2026-08-16T00:00:00Z</time></trkpt>
<trkpt lat="37.814827000" lon="-121.931915000"><ele>210.1</ele><time>2026-08-16T00:00:00Z</time></trkpt>
<trkpt lat="37.814735000" lon="-121.931890000"><ele>209.7</ele><time>2026-08-16T00:00:00Z</time></trkpt>
<trkpt lat="37.814655000" lon="-121.931880000"><ele>209.4</ele><time>2026-08-16T00:00:00Z</time></trkpt>
<trkpt lat="37.814570000" lon="-121.931854000"><ele>209.0</ele><time>2026-08-16T00:00:00Z</time></trkpt>
<trkpt lat="37.814487000" lon="-121.931840000"><ele>208.7</ele><time>2026-08-16T00:00:00Z</time></trkpt>
<trkpt lat="37.814410000" lon="-121.931790000"><ele>208.6</ele><time>2026-08-16T00:00:00Z</time></trkpt>
<trkpt lat="37.814342000" lon="-121.931740000"><ele>208.5</ele><time>2026-08-16T00:00:00Z</time></trkpt>
<trkpt lat="37.814266000" lon="-121.931680000"><ele>208.2</ele><time>2026-08-16T00:00:00Z</time></trkpt>
<trkpt lat="37.814190000" lon="-121.931620000"><ele>208.0</ele><time>2026-08-16T00:00:00Z</time></trkpt>
<trkpt lat="37.814117000" lon="-121.931550000"><ele>207.8</ele><time>2026-08-16T00:00:00Z</time></trkpt>
<trkpt lat="37.814050000" lon="-121.931490000"><ele>207.8</ele><time>2026-08-16T00:00:00Z</time></trkpt>
<trkpt lat="37.813970000" lon="-121.931440000"><ele>207.8</ele><time>2026-08-16T00:00:00Z</time></trkpt>
<trkpt lat="37.813880000" lon="-121.931420000"><ele>207.8</ele><time>2026-08-16T00:00:00Z</time></trkpt>
<trkpt lat="37.813790000" lon="-121.931410000"><ele>207.8</ele><time>2026-08-16T00:00:00Z</time></trkpt>
<trkpt lat="37.813705000" lon="-121.931400000"><ele>207.7</ele><time>2026-08-16T00:00:00Z</time></trkpt>
<trkpt lat="37.813620000" lon="-121.931366000"><ele>207.6</ele><time>2026-08-16T00:00:00Z</time></trkpt>
<trkpt lat="37.813540000" lon="-121.931330000"><ele>207.4</ele><time>2026-08-16T00:00:00Z</time></trkpt>
<trkpt lat="37.813465000" lon="-121.931280000"><ele>207.1</ele><time>2026-08-16T00:00:00Z</time></trkpt>
<trkpt lat="37.813390000" lon="-121.931230000"><ele>206.9</ele><time>2026-08-16T00:00:00Z</time></trkpt>
<trkpt lat="37.813300000" lon="-121.931175000"><ele>206.7</ele><time>2026-08-16T00:00:00Z</time></trkpt>
<trkpt lat="37.813217000" lon="-121.931130000"><ele>206.5</ele><time>2026-08-16T00:00:00Z</time></trkpt>
<trkpt lat="37.813137000" lon="-121.931076000"><ele>206.1</ele><time>2026-08-16T00:00:00Z</time></trkpt>
<trkpt lat="37.813057000" lon="-121.931020000"><ele>205.6</ele><time>2026-08-16T00:00:00Z</time></trkpt>
<trkpt lat="37.812984000" lon="-121.930980000"><ele>205.2</ele><time>2026-08-16T00:00:00Z</time></trkpt>
<trkpt lat="37.812897000" lon="-121.930920000"><ele>204.7</ele><time>2026-08-16T00:00:00Z</time></trkpt>
<trkpt lat="37.812820000" lon="-121.930870000"><ele>204.3</ele><time>2026-08-16T00:00:00Z</time></trkpt>
<trkpt lat="37.812748000" lon="-121.930824000"><ele>203.8</ele><time>2026-08-16T00:00:00Z</time></trkpt>
<trkpt lat="37.812668000" lon="-121.930780000"><ele>203.4</ele><time>2026-08-16T00:00:00Z</time></trkpt>
<trkpt lat="37.812590000" lon="-121.930725000"><ele>203.0</ele><time>2026-08-16T00:00:00Z</time></trkpt>
<trkpt lat="37.812515000" lon="-121.930680000"><ele>202.6</ele><time>2026-08-16T00:00:00Z</time></trkpt>
<trkpt lat="37.812435000" lon="-121.930640000"><ele>202.3</ele><time>2026-08-16T00:00:00Z</time></trkpt>
<trkpt lat="37.812360000" lon="-121.930590000"><ele>201.9</ele><time>2026-08-16T00:00:00Z</time></trkpt>
<trkpt lat="37.812275000" lon="-121.930550000"><ele>201.5</ele><time>2026-08-16T00:00:00Z</time></trkpt>
<trkpt lat="37.812200000" lon="-121.930500000"><ele>201.3</ele><time>2026-08-16T00:00:00Z</time></trkpt>
<trkpt lat="37.812115000" lon="-121.930440000"><ele>201.0</ele><time>2026-08-16T00:00:00Z</time></trkpt>
<trkpt lat="37.812030000" lon="-121.930400000"><ele>200.6</ele><time>2026-08-16T00:00:00Z</time></trkpt>
<trkpt lat="37.811960000" lon="-121.930350000"><ele>200.4</ele><time>2026-08-16T00:00:00Z</time></trkpt>
<trkpt lat="37.811882000" lon="-121.930310000"><ele>200.1</ele><time>2026-08-16T00:00:00Z</time></trkpt>
<trkpt lat="37.811806000" lon="-121.930270000"><ele>199.9</ele><time>2026-08-16T00:00:00Z</time></trkpt>
<trkpt lat="37.811726000" lon="-121.930220000"><ele>199.7</ele><time>2026-08-16T00:00:00Z</time></trkpt>
<trkpt lat="37.811650000" lon="-121.930170000"><ele>199.6</ele><time>2026-08-16T00:00:00Z</time></trkpt>
<trkpt lat="37.811580000" lon="-121.930110000"><ele>199.5</ele><time>2026-08-16T00:00:00Z</time></trkpt>
<trkpt lat="37.811512000" lon="-121.930050000"><ele>199.5</ele><time>2026-08-16T00:00:00Z</time></trkpt>
<trkpt lat="37.811443000" lon="-121.929990000"><ele>199.5</ele><time>2026-08-16T00:00:00Z</time></trkpt>
<trkpt lat="37.811367000" lon="-121.929930000"><ele>199.5</ele><time>2026-08-16T00:00:00Z</time></trkpt>
<trkpt lat="37.811295000" lon="-121.929870000"><ele>199.5</ele><time>2026-08-16T00:00:00Z</time></trkpt>
<trkpt lat="37.811220000" lon="-121.929820000"><ele>199.5</ele><time>2026-08-16T00:00:00Z</time></trkpt>
<trkpt lat="37.811146000" lon="-121.929750000"><ele>199.5</ele><time>2026-08-16T00:00:00Z</time></trkpt>
<trkpt lat="37.811073000" lon="-121.929690000"><ele>199.5</ele><time>2026-08-16T00:00:00Z</time></trkpt>
<trkpt lat="37.810997000" lon="-121.929634000"><ele>199.5</ele><time>2026-08-16T00:00:00Z</time></trkpt>
<trkpt lat="37.810930000" lon="-121.929570000"><ele>199.4</ele><time>2026-08-16T00:00:00Z</time></trkpt>
<trkpt lat="37.810856000" lon="-121.929510000"><ele>199.2</ele><time>2026-08-16T00:00:00Z</time></trkpt>
<trkpt lat="37.810783000" lon="-121.929440000"><ele>198.9</ele><time>2026-08-16T00:00:00Z</time></trkpt>
<trkpt lat="37.810707000" lon="-121.929375000"><ele>198.6</ele><time>2026-08-16T00:00:00Z</time></trkpt>
<trkpt lat="37.810640000" lon="-121.929310000"><ele>198.3</ele><time>2026-08-16T00:00:00Z</time></trkpt>
<trkpt lat="37.810566000" lon="-121.929250000"><ele>197.9</ele><time>2026-08-16T00:00:00Z</time></trkpt>
<trkpt lat="37.810490000" lon="-121.929200000"><ele>197.5</ele><time>2026-08-16T00:00:00Z</time></trkpt>
<trkpt lat="37.810410000" lon="-121.929146000"><ele>197.1</ele><time>2026-08-16T00:00:00Z</time></trkpt>
<trkpt lat="37.810337000" lon="-121.929090000"><ele>196.9</ele><time>2026-08-16T00:00:00Z</time></trkpt>
<trkpt lat="37.810253000" lon="-121.929054000"><ele>196.7</ele><time>2026-08-16T00:00:00Z</time></trkpt>
<trkpt lat="37.810170000" lon="-121.929016000"><ele>196.5</ele><time>2026-08-16T00:00:00Z</time></trkpt>
<trkpt lat="37.810085000" lon="-121.929020000"><ele>196.3</ele><time>2026-08-16T00:00:00Z</time></trkpt>
<trkpt lat="37.810085000" lon="-121.929115000"><ele>196.0</ele><time>2026-08-16T00:00:00Z</time></trkpt>
</trkseg>
</trk>
</gpx>
