<?xml version="1.0" encoding="UTF-8"?>
<gpx
  version="1.1"
  creator="Runkeeper - http://www.runkeeper.com"
  xmlns:xsi="http://www.w3.org/2001/XMLSchema-instance"
  xmlns="http://www.topografix.com/GPX/1/1"
  xsi:schemaLocation="http://www.topografix.com/GPX/1/1 http://www.topografix.com/GPX/1/1/gpx.xsd"
  xmlns:gpxtpx="http://www.garmin.com/xmlschemas/TrackPointExtension/v1">
<trk>
  <name><![CDATA[Walking 8/21/26]]></name>
  <time>2026-08-21T00:00:00Z</time>
<trkseg>
<trkpt lat="37.806330000" lon="-121.976860000"><ele>136.7</ele><time>2026-08-21T00:00:00Z</time></trkpt>
<trkpt lat="37.806324000" lon="-121.976750000"><ele>137.4</ele><time>2026-08-21T00:00:00Z</time></trkpt>
<trkpt lat="37.806297000" lon="-121.976650000"><ele>138.2</ele><time>2026-08-21T00:00:00Z</time></trkpt>
<trkpt lat="37.806313000" lon="-121.976540000"><ele>139.0</ele><time>2026-08-21T00:00:00Z</time></trkpt>
<trkpt lat="37.806313000" lon="-121.976425000"><ele>139.7</ele><time>2026-08-21T00:00:00Z</time></trkpt>
<trkpt lat="37.806316000" lon="-121.976320000"><ele>140.5</ele><time>2026-08-21T00:00:00Z</time></trkpt>
<trkpt lat="37.806320000" lon="-121.976210000"><ele>141.8</ele><time>2026-08-21T00:00:00Z</time></trkpt>
<trkpt lat="37.806320000" lon="-121.976105000"><ele>143.2</ele><time>2026-08-21T00:00:00Z</time></trkpt>
<trkpt lat="37.806320000" lon="-121.975990000"><ele>144.5</ele><time>2026-08-21T00:00:00Z</time></trkpt>
<trkpt lat="37.806316000" lon="-121.975890000"><ele>145.9</ele><time>2026-08-21T00:00:00Z</time></trkpt>
<trkpt lat="37.806316000" lon="-121.975784000"><ele>147.3</ele><time>2026-08-21T00:00:00Z</time></trkpt>
<trkpt lat="37.806324000" lon="-121.975680000"><ele>148.5</ele><time>2026-08-21T00:00:00Z</time></trkpt>
<trkpt lat="37.806286000" lon="-121.975580000"><ele>149.7</ele><time>2026-08-21T00:00:00Z</time></trkpt>
<trkpt lat="37.806300000" lon="-121.975460000"><ele>150.7</ele><time>2026-08-21T00:00:00Z</time></trkpt>
<trkpt lat="37.806313000" lon="-121.975340000"><ele>151.7</ele><time>2026-08-21T00:00:00Z</time></trkpt>
<trkpt lat="37.806324000" lon="-121.975235000"><ele>152.6</ele><time>2026-08-21T00:00:00Z</time></trkpt>
<trkpt lat="37.806355000" lon="-121.975130000"><ele>153.5</ele><time>2026-08-21T00:00:00Z</time></trkpt>
<trkpt lat="37.806390000" lon="-121.975030000"><ele>154.4</ele><time>2026-08-21T00:00:00Z</time></trkpt>
<trkpt lat="37.806316000" lon="-121.974960000"><ele>155.4</ele><time>2026-08-21T00:00:00Z</time></trkpt>
<trkpt lat="37.806362000" lon="-121.974870000"><ele>156.5</ele><time>2026-08-21T00:00:00Z</time></trkpt>
<trkpt lat="37.806450000" lon="-121.974890000"><ele>157.6</ele><time>2026-08-21T00:00:00Z</time></trkpt>
<trkpt lat="37.806484000" lon="-121.974785000"><ele>158.9</ele><time>2026-08-21T00:00:00Z</time></trkpt>
<trkpt lat="37.806500000" lon="-121.974670000"><ele>160.3</ele><time>2026-08-21T00:00:00Z</time></trkpt>
<trkpt lat="37.806515000" lon="-121.974556000"><ele>161.7</ele><time>2026-08-21T00:00:00Z</time></trkpt>
<trkpt lat="37.806515000" lon="-121.974450000"><ele>163.3</ele><time>2026-08-21T00:00:00Z</time></trkpt>
<trkpt lat="37.806503000" lon="-121.974340000"><ele>164.9</ele><time>2026-08-21T00:00:00Z</time></trkpt>
<trkpt lat="37.806484000" lon="-121.974230000"><ele>166.7</ele><time>2026-08-21T00:00:00Z</time></trkpt>
<trkpt lat="37.806450000" lon="-121.974130000"><ele>168.5</ele><time>2026-08-21T00:00:00Z</time></trkpt>
<trkpt lat="37.806404000" lon="-121.974030000"><ele>170.4</ele><time>2026-08-21T00:00:00Z</time></trkpt>
<trkpt lat="37.806360000" lon="-121.973940000"><ele>172.1</ele><time>2026-08-21T00:00:00Z</time></trkpt>
<trkpt lat="37.806316000" lon="-121.973850000"><ele>173.7</ele><time>2026-08-21T00:00:00Z</time></trkpt>
<trkpt lat="37.806270000" lon="-121.973755000"><ele>175.2</ele><time>2026-08-21T00:00:00Z</time></trkpt>
<trkpt lat="37.806220000" lon="-121.973670000"><ele>176.5</ele><time>2026-08-21T00:00:00Z</time></trkpt>
<trkpt lat="37.806175000" lon="-121.973580000"><ele>177.7</ele><time>2026-08-21T00:00:00Z</time></trkpt>
<trkpt lat="37.806110000" lon="-121.973495000"><ele>178.8</ele><time>2026-08-21T00:00:00Z</time></trkpt>
<trkpt lat="37.806080000" lon="-121.973390000"><ele>179.8</ele><time>2026-08-21T00:00:00Z</time></trkpt>
<trkpt lat="37.806038000" lon="-121.973290000"><ele>180.6</ele><time>2026-08-21T00:00:00Z</time></trkpt>
<trkpt lat="37.805990000" lon="-121.973200000"><ele>181.3</ele><time>2026-08-21T00:00:00Z</time></trkpt>
<trkpt lat="37.805943000" lon="-121.973114000"><ele>181.8</ele><time>2026-08-21T00:00:00Z</time></trkpt>
<trkpt lat="37.805930000" lon="-121.973010000"><ele>182.2</ele><time>2026-08-21T00:00:00Z</time></trkpt>
<trkpt lat="37.805893000" lon="-121.972910000"><ele>182.4</ele><time>2026-08-21T00:00:00Z</time></trkpt>
<trkpt lat="37.805843000" lon="-121.972820000"><ele>182.5</ele><time>2026-08-21T00:00:00Z</time></trkpt>
<trkpt lat="37.805923000" lon="-121.972870000"><ele>182.5</ele><time>2026-08-21T00:00:00Z</time></trkpt>
<trkpt lat="37.805984000" lon="-121.972950000"><ele>182.3</ele><time>2026-08-21T00:00:00Z</time></trkpt>
<trkpt lat="37.806060000" lon="-121.973015000"><ele>182.0</ele><time>2026-08-21T00:00:00Z</time></trkpt>
<trkpt lat="37.806080000" lon="-121.973120000"><ele>181.5</ele><time>2026-08-21T00:00:00Z</time></trkpt>
<trkpt lat="37.806118000" lon="-121.973210000"><ele>181.0</ele><time>2026-08-21T00:00:00Z</time></trkpt>
<trkpt lat="37.806156000" lon="-121.973310000"><ele>180.3</ele><time>2026-08-21T00:00:00Z</time></trkpt>
<trkpt lat="37.806206000" lon="-121.973390000"><ele>179.3</ele><time>2026-08-21T00:00:00Z</time></trkpt>
<trkpt lat="37.806260000" lon="-121.973470000"><ele>178.2</ele><time>2026-08-21T00:00:00Z</time></trkpt>
<trkpt lat="37.806300000" lon="-121.973564000"><ele>177.0</ele><time>2026-08-21T00:00:00Z</time></trkpt>
<trkpt lat="37.806340000" lon="-121.973670000"><ele>175.7</ele><time>2026-08-21T00:00:00Z</time></trkpt>
<trkpt lat="37.806385000" lon="-121.973760000"><ele>174.3</ele><time>2026-08-21T00:00:00Z</time></trkpt>
<trkpt lat="37.806430000" lon="-121.973860000"><ele>172.8</ele><time>2026-08-21T00:00:00Z</time></trkpt>
<trkpt lat="37.806404000" lon="-121.973970000"><ele>171.3</ele><time>2026-08-21T00:00:00Z</time></trkpt>
<trkpt lat="37.806420000" lon="-121.974075000"><ele>169.6</ele><time>2026-08-21T00:00:00Z</time></trkpt>
<trkpt lat="37.806442000" lon="-121.974174000"><ele>167.9</ele><time>2026-08-21T00:00:00Z</time></trkpt>
<trkpt lat="37.806490000" lon="-121.974260000"><ele>166.1</ele><time>2026-08-21T00:00:00Z</time></trkpt>
<trkpt lat="37.806510000" lon="-121.974365000"><ele>164.4</ele><time>2026-08-21T00:00:00Z</time></trkpt>
<trkpt lat="37.806526000" lon="-121.974480000"><ele>162.8</ele><time>2026-08-21T00:00:00Z</time></trkpt>
<trkpt lat="37.806530000" lon="-121.974590000"><ele>161.3</ele><time>2026-08-21T00:00:00Z</time></trkpt>
<trkpt lat="37.806510000" lon="-121.974686000"><ele>159.8</ele><time>2026-08-21T00:00:00Z</time></trkpt>
<trkpt lat="37.806488000" lon="-121.974790000"><ele>158.5</ele><time>2026-08-21T00:00:00Z</time></trkpt>
<trkpt lat="37.806450000" lon="-121.974890000"><ele>157.4</ele><time>2026-08-21T00:00:00Z</time></trkpt>
<trkpt lat="37.806408000" lon="-121.974990000"><ele>156.2</ele><time>2026-08-21T00:00:00Z</time></trkpt>
<trkpt lat="37.806324000" lon="-121.975020000"><ele>155.1</ele><time>2026-08-21T00:00:00Z</time></trkpt>
<trkpt lat="37.806240000" lon="-121.974980000"><ele>154.1</ele><time>2026-08-21T00:00:00Z</time></trkpt>
<trkpt lat="37.806160000" lon="-121.974960000"><ele>153.2</ele><time>2026-08-21T00:00:00Z</time></trkpt>
<trkpt lat="37.806065000" lon="-121.974940000"><ele>152.5</ele><time>2026-08-21T00:00:00Z</time></trkpt>
<trkpt lat="37.805980000" lon="-121.974915000"><ele>151.7</ele><time>2026-08-21T00:00:00Z</time></trkpt>
<trkpt lat="37.805893000" lon="-121.974884000"><ele>151.0</ele><time>2026-08-21T00:00:00Z</time></trkpt>
<trkpt lat="37.805800000" lon="-121.974850000"><ele>150.3</ele><time>2026-08-21T00:00:00Z</time></trkpt>
<trkpt lat="37.805710000" lon="-121.974820000"><ele>149.5</ele><time>2026-08-21T00:00:00Z</time></trkpt>
<trkpt lat="37.805626000" lon="-121.974810000"><ele>148.6</ele><time>2026-08-21T00:00:00Z</time></trkpt>
<trkpt lat="37.805546000" lon="-121.974785000"><ele>147.8</ele><time>2026-08-21T00:00:00Z</time></trkpt>
<trkpt lat="37.805460000" lon="-121.974790000"><ele>147.1</ele><time>2026-08-21T00:00:00Z</time></trkpt>
<trkpt lat="37.805390000" lon="-121.974750000"><ele>146.4</ele><time>2026-08-21T00:00:00Z</time></trkpt>
<trkpt lat="37.805310000" lon="-121.974710000"><ele>145.7</ele><time>2026-08-21T00:00:00Z</time></trkpt>
<trkpt lat="37.805233000" lon="-121.974655000"><ele>145.2</ele><time>2026-08-21T00:00:00Z</time></trkpt>
<trkpt lat="37.805160000" lon="-121.974600000"><ele>144.5</ele><time>2026-08-21T00:00:00Z</time></trkpt>
<trkpt lat="37.805084000" lon="-121.974550000"><ele>144.0</ele><time>2026-08-21T00:00:00Z</time></trkpt>
<trkpt lat="37.805008000" lon="-121.974490000"><ele>143.5</ele><time>2026-08-21T00:00:00Z</time></trkpt>
<trkpt lat="37.804928000" lon="-121.974440000"><ele>143.1</ele><time>2026-08-21T00:00:00Z</time></trkpt>
<trkpt lat="37.804850000" lon="-121.974480000"><ele>142.7</ele><time>2026-08-21T00:00:00Z</time></trkpt>
<trkpt lat="37.804764000" lon="-121.974440000"><ele>142.4</ele><time>2026-08-21T00:00:00Z</time></trkpt>
<trkpt lat="37.804690000" lon="-121.974390000"><ele>142.0</ele><time>2026-08-21T00:00:00Z</time></trkpt>
<trkpt lat="37.804607000" lon="-121.974340000"><ele>141.6</ele><time>2026-08-21T00:00:00Z</time></trkpt>
<trkpt lat="37.804520000" lon="-121.974304000"><ele>141.4</ele><time>2026-08-21T00:00:00Z</time></trkpt>
<trkpt lat="37.804430000" lon="-121.974270000"><ele>141.0</ele><time>2026-08-21T00:00:00Z</time></trkpt>
<trkpt lat="37.804337000" lon="-121.974250000"><ele>140.6</ele><time>2026-08-21T00:00:00Z</time></trkpt>
<trkpt lat="37.804253000" lon="-121.974236000"><ele>140.4</ele><time>2026-08-21T00:00:00Z</time></trkpt>
<trkpt lat="37.804173000" lon="-121.974236000"><ele>140.1</ele><time>2026-08-21T00:00:00Z</time></trkpt>
<trkpt lat="37.804077000" lon="-121.974230000"><ele>139.8</ele><time>2026-08-21T00:00:00Z</time></trkpt>
<trkpt lat="37.803997000" lon="-121.974220000"><ele>139.5</ele><time>2026-08-21T00:00:00Z</time></trkpt>
<trkpt lat="37.803905000" lon="-121.974210000"><ele>139.1</ele><time>2026-08-21T00:00:00Z</time></trkpt>
<trkpt lat="37.803814000" lon="-121.974220000"><ele>138.6</ele><time>2026-08-21T00:00:00Z</time></trkpt>
<trkpt lat="37.803783000" lon="-121.974330000"><ele>138.2</ele><time>2026-08-21T00:00:00Z</time></trkpt>
<trkpt lat="37.803787000" lon="-121.974434000"><ele>137.7</ele><time>2026-08-21T00:00:00Z</time></trkpt>
<trkpt lat="37.803787000" lon="-121.974556000"><ele>137.3</ele><time>2026-08-21T00:00:00Z</time></trkpt>
<trkpt lat="37.803776000" lon="-121.974680000"><ele>136.8</ele><time>2026-08-21T00:00:00Z</time></trkpt>
<trkpt lat="37.803764000" lon="-121.974780000"><ele>136.4</ele><time>2026-08-21T00:00:00Z</time></trkpt>
<trkpt lat="37.803760000" lon="-121.974900000"><ele>135.9</ele><time>2026-08-21T00:00:00Z</time></trkpt>
<trkpt lat="37.803772000" lon="-121.975020000"><ele>135.4</ele><time>2026-08-21T00:00:00Z</time></trkpt>
<trkpt lat="37.803790000" lon="-121.975120000"><ele>134.8</ele><time>2026-08-21T00:00:00Z</time></trkpt>
<trkpt lat="37.803818000" lon="-121.975220000"><ele>134.4</ele><time>2026-08-21T00:00:00Z</time></trkpt>
<trkpt lat="37.803837000" lon="-121.975334000"><ele>134.1</ele><time>2026-08-21T00:00:00Z</time></trkpt>
<trkpt lat="37.803852000" lon="-121.975430000"><ele>133.8</ele><time>2026-08-21T00:00:00Z</time></trkpt>
<trkpt lat="37.803880000" lon="-121.975530000"><ele>133.6</ele><time>2026-08-21T00:00:00Z</time></trkpt>
<trkpt lat="37.803960000" lon="-121.975525000"><ele>133.5</ele><time>2026-08-21T00:00:00Z</time></trkpt>
<trkpt lat="37.804047000" lon="-121.975510000"><ele>133.3</ele><time>2026-08-21T00:00:00Z</time></trkpt>
<trkpt lat="37.804140000" lon="-121.975500000"><ele>133.2</ele><time>2026-08-21T00:00:00Z</time></trkpt>
<trkpt lat="37.804234000" lon="-121.975510000"><ele>133.1</ele><time>2026-08-21T00:00:00Z</time></trkpt>
<trkpt lat="37.804314000" lon="-121.975525000"><ele>133.0</ele><time>2026-08-21T00:00:00Z</time></trkpt>
<trkpt lat="37.804410000" lon="-121.975530000"><ele>133.0</ele><time>2026-08-21T00:00:00Z</time></trkpt>
<trkpt lat="37.804485000" lon="-121.975560000"><ele>133.0</ele><time>2026-08-21T00:00:00Z</time></trkpt>
<trkpt lat="37.804570000" lon="-121.975586000"><ele>133.0</ele><time>2026-08-21T00:00:00Z</time></trkpt>
<trkpt lat="37.804646000" lon="-121.975630000"><ele>133.0</ele><time>2026-08-21T00:00:00Z</time></trkpt>
<trkpt lat="37.804720000" lon="-121.975680000"><ele>133.0</ele><time>2026-08-21T00:00:00Z</time></trkpt>
<trkpt lat="37.804802000" lon="-121.975730000"><ele>133.0</ele><time>2026-08-21T00:00:00Z</time></trkpt>
<trkpt lat="37.804880000" lon="-121.975790000"><ele>133.0</ele><time>2026-08-21T00:00:00Z</time></trkpt>
<trkpt lat="37.804955000" lon="-121.975850000"><ele>133.0</ele><time>2026-08-21T00:00:00Z</time></trkpt>
<trkpt lat="37.805023000" lon="-121.975914000"><ele>132.9</ele><time>2026-08-21T00:00:00Z</time></trkpt>
<trkpt lat="37.805100000" lon="-121.975980000"><ele>132.8</ele><time>2026-08-21T00:00:00Z</time></trkpt>
<trkpt lat="37.805164000" lon="-121.976070000"><ele>132.7</ele><time>2026-08-21T00:00:00Z</time></trkpt>
<trkpt lat="37.805220000" lon="-121.976150000"><ele>132.6</ele><time>2026-08-21T00:00:00Z</time></trkpt>
<trkpt lat="37.805294000" lon="-121.976190000"><ele>132.5</ele><time>2026-08-21T00:00:00Z</time></trkpt>
<trkpt lat="37.805317000" lon="-121.976295000"><ele>132.5</ele><time>2026-08-21T00:00:00Z</time></trkpt>
<trkpt lat="37.805374000" lon="-121.976380000"><ele>132.4</ele><time>2026-08-21T00:00:00Z</time></trkpt>
<trkpt lat="37.805428000" lon="-121.976470000"><ele>132.3</ele><time>2026-08-21T00:00:00Z</time></trkpt>
<trkpt lat="37.805477000" lon="-121.976560000"><ele>132.2</ele><time>2026-08-21T00:00:00Z</time></trkpt>
<trkpt lat="37.805530000" lon="-121.976654000"><ele>132.1</ele><time>2026-08-21T00:00:00Z</time></trkpt>
<trkpt lat="37.805584000" lon="-121.976730000"><ele>131.9</ele><time>2026-08-21T00:00:00Z</time></trkpt>
<trkpt lat="37.805645000" lon="-121.976814000"><ele>131.8</ele><time>2026-08-21T00:00:00Z</time></trkpt>
<trkpt lat="37.805720000" lon="-121.976880000"><ele>131.7</ele><time>2026-08-21T00:00:00Z</time></trkpt>
<trkpt lat="37.805780000" lon="-121.976960000"><ele>131.6</ele><time>2026-08-21T00:00:00Z</time></trkpt>
<trkpt lat="37.805850000" lon="-121.977005000"><ele>131.5</ele><time>2026-08-21T00:00:00Z</time></trkpt>
<trkpt lat="37.805916000" lon="-121.977090000"><ele>131.5</ele><time>2026-08-21T00:00:00Z</time></trkpt>
<trkpt lat="37.805984000" lon="-121.977150000"><ele>131.5</ele><time>2026-08-21T00:00:00Z</time></trkpt>
<trkpt lat="37.806060000" lon="-121.977210000"><ele>131.6</ele><time>2026-08-21T00:00:00Z</time></trkpt>
<trkpt lat="37.806137000" lon="-121.977264000"><ele>131.8</ele><time>2026-08-21T00:00:00Z</time></trkpt>
<trkpt lat="37.806225000" lon="-121.977280000"><ele>132.0</ele><time>2026-08-21T00:00:00Z</time></trkpt>
<trkpt lat="37.806225000" lon="-121.977160000"><ele>132.0</ele><time>2026-08-21T00:00:00Z</time></trkpt>
<trkpt lat="37.806260000" lon="-121.977066000"><ele>132.1</ele><time>2026-08-21T00:00:00Z</time></trkpt>
<trkpt lat="37.806267000" lon="-121.976960000"><ele>132.2</ele><time>2026-08-21T00:00:00Z</time></trkpt>
<trkpt lat="37.806320000" lon="-121.976870000"><ele>132.4</ele><time>2026-08-21T00:00:00Z</time></trkpt>
<trkpt lat="37.806310000" lon="-121.976830000"><ele>132.7</ele><time>2026-08-21T00:00:00Z</time></trkpt>
</trkseg>
</trk>
</gpx>
