<?xml version="1.0" encoding="UTF-8"?>
<gpx
  version="1.1"
  creator="Runkeeper - http://www.runkeeper.com"
  xmlns:xsi="http://www.w3.org/2001/XMLSchema-instance"
  xmlns="http://www.topografix.com/GPX/1/1"
  xsi:schemaLocation="http://www.topografix.com/GPX/1/1 http://www.topografix.com/GPX/1/1/gpx.xsd"
  xmlns:gpxtpx="http://www.garmin.com/xmlschemas/TrackPointExtension/v1">
<trk>
  <name><![CDATA[Walking 7/31/26]]></name>
  <time>2026-07-31T00:00:00Z</time>
<trkseg>
<trkpt lat="37.820896000" lon="-121.980120000"><ele>121.7</ele><time>2026-07-31T00:00:00Z</time></trkpt>
<trkpt lat="37.820976000" lon="-121.980080000"><ele>121.7</ele><time>2026-07-31T00:00:00Z</time></trkpt>
<trkpt lat="37.820995000" lon="-121.980180000"><ele>121.7</ele><time>2026-07-31T00:00:00Z</time></trkpt>
<trkpt lat="37.820927000" lon="-121.980255000"><ele>121.7</ele><time>2026-07-31T00:00:00Z</time></trkpt>
<trkpt lat="37.820830000" lon="-121.980270000"><ele>121.7</ele><time>2026-07-31T00:00:00Z</time></trkpt>
<trkpt lat="37.820770000" lon="-121.980340000"><ele>121.7</ele><time>2026-07-31T00:00:00Z</time></trkpt>
<trkpt lat="37.820778000" lon="-121.980290000"><ele>121.8</ele><time>2026-07-31T00:00:00Z</time></trkpt>
</trkseg>
<trkseg>
<trkpt lat="37.821114000" lon="-121.980370000"><ele>121.0</ele><time>2026-07-31T00:00:00Z</time></trkpt>
<trkpt lat="37.821150000" lon="-121.980440000"><ele>121.0</ele><time>2026-07-31T00:00:00Z</time></trkpt>
<trkpt lat="37.821200000" lon="-121.980540000"><ele>120.9</ele><time>2026-07-31T00:00:00Z</time></trkpt>
<trkpt lat="37.821236000" lon="-121.980640000"><ele>120.8</ele><time>2026-07-31T00:00:00Z</time></trkpt>
<trkpt lat="37.821274000" lon="-121.980736000"><ele>120.7</ele><time>2026-07-31T00:00:00Z</time></trkpt>
<trkpt lat="37.821320000" lon="-121.980830000"><ele>120.6</ele><time>2026-07-31T00:00:00Z</time></trkpt>
<trkpt lat="37.821365000" lon="-121.980930000"><ele>120.5</ele><time>2026-07-31T00:00:00Z</time></trkpt>
<trkpt lat="37.821396000" lon="-121.981026000"><ele>120.5</ele><time>2026-07-31T00:00:00Z</time></trkpt>
<trkpt lat="37.821300000" lon="-121.981060000"><ele>120.3</ele><time>2026-07-31T00:00:00Z</time></trkpt>
<trkpt lat="37.821224000" lon="-121.981090000"><ele>120.1</ele><time>2026-07-31T00:00:00Z</time></trkpt>
<trkpt lat="37.821144000" lon="-121.981130000"><ele>119.9</ele><time>2026-07-31T00:00:00Z</time></trkpt>
<trkpt lat="37.821053000" lon="-121.981180000"><ele>119.8</ele><time>2026-07-31T00:00:00Z</time></trkpt>
<trkpt lat="37.820976000" lon="-121.981224000"><ele>119.7</ele><time>2026-07-31T00:00:00Z</time></trkpt>
<trkpt lat="37.820896000" lon="-121.981280000"><ele>119.7</ele><time>2026-07-31T00:00:00Z</time></trkpt>
<trkpt lat="37.820812000" lon="-121.981340000"><ele>119.8</ele><time>2026-07-31T00:00:00Z</time></trkpt>
<trkpt lat="37.820736000" lon="-121.981400000"><ele>119.9</ele><time>2026-07-31T00:00:00Z</time></trkpt>
<trkpt lat="37.820660000" lon="-121.981450000"><ele>120.1</ele><time>2026-07-31T00:00:00Z</time></trkpt>
<trkpt lat="37.820587000" lon="-121.981514000"><ele>120.4</ele><time>2026-07-31T00:00:00Z</time></trkpt>
<trkpt lat="37.820515000" lon="-121.981560000"><ele>120.7</ele><time>2026-07-31T00:00:00Z</time></trkpt>
<trkpt lat="37.820446000" lon="-121.981636000"><ele>121.2</ele><time>2026-07-31T00:00:00Z</time></trkpt>
<trkpt lat="37.820377000" lon="-121.981690000"><ele>121.7</ele><time>2026-07-31T00:00:00Z</time></trkpt>
<trkpt lat="37.820297000" lon="-121.981750000"><ele>122.4</ele><time>2026-07-31T00:00:00Z</time></trkpt>
<trkpt lat="37.820248000" lon="-121.981840000"><ele>122.9</ele><time>2026-07-31T00:00:00Z</time></trkpt>
<trkpt lat="37.820190000" lon="-121.981920000"><ele>123.5</ele><time>2026-07-31T00:00:00Z</time></trkpt>
<trkpt lat="37.820103000" lon="-121.981900000"><ele>124.2</ele><time>2026-07-31T00:00:00Z</time></trkpt>
<trkpt lat="37.820015000" lon="-121.981900000"><ele>124.8</ele><time>2026-07-31T00:00:00Z</time></trkpt>
<trkpt lat="37.819930000" lon="-121.981940000"><ele>125.5</ele><time>2026-07-31T00:00:00Z</time></trkpt>
<trkpt lat="37.819843000" lon="-121.981964000"><ele>126.0</ele><time>2026-07-31T00:00:00Z</time></trkpt>
<trkpt lat="37.819763000" lon="-121.982020000"><ele>126.5</ele><time>2026-07-31T00:00:00Z</time></trkpt>
<trkpt lat="37.819690000" lon="-121.982070000"><ele>127.0</ele><time>2026-07-31T00:00:00Z</time></trkpt>
<trkpt lat="37.819614000" lon="-121.982110000"><ele>127.5</ele><time>2026-07-31T00:00:00Z</time></trkpt>
<trkpt lat="37.819540000" lon="-121.982155000"><ele>128.0</ele><time>2026-07-31T00:00:00Z</time></trkpt>
<trkpt lat="37.819458000" lon="-121.982140000"><ele>128.5</ele><time>2026-07-31T00:00:00Z</time></trkpt>
<trkpt lat="37.819427000" lon="-121.982040000"><ele>128.9</ele><time>2026-07-31T00:00:00Z</time></trkpt>
<trkpt lat="37.819393000" lon="-121.981940000"><ele>129.4</ele><time>2026-07-31T00:00:00Z</time></trkpt>
<trkpt lat="37.819347000" lon="-121.981840000"><ele>129.8</ele><time>2026-07-31T00:00:00Z</time></trkpt>
<trkpt lat="37.819263000" lon="-121.981804000"><ele>130.3</ele><time>2026-07-31T00:00:00Z</time></trkpt>
<trkpt lat="37.819225000" lon="-121.981700000"><ele>130.7</ele><time>2026-07-31T00:00:00Z</time></trkpt>
<trkpt lat="37.819200000" lon="-121.981600000"><ele>131.3</ele><time>2026-07-31T00:00:00Z</time></trkpt>
<trkpt lat="37.819168000" lon="-121.981480000"><ele>131.7</ele><time>2026-07-31T00:00:00Z</time></trkpt>
<trkpt lat="37.819126000" lon="-121.981384000"><ele>132.2</ele><time>2026-07-31T00:00:00Z</time></trkpt>
<trkpt lat="37.819107000" lon="-121.981280000"><ele>132.5</ele><time>2026-07-31T00:00:00Z</time></trkpt>
<trkpt lat="37.819070000" lon="-121.981186000"><ele>132.9</ele><time>2026-07-31T00:00:00Z</time></trkpt>
<trkpt lat="37.819023000" lon="-121.981090000"><ele>133.2</ele><time>2026-07-31T00:00:00Z</time></trkpt>
<trkpt lat="37.818962000" lon="-121.981000000"><ele>133.5</ele><time>2026-07-31T00:00:00Z</time></trkpt>
<trkpt lat="37.818893000" lon="-121.980920000"><ele>133.6</ele><time>2026-07-31T00:00:00Z</time></trkpt>
<trkpt lat="37.818825000" lon="-121.980850000"><ele>133.8</ele><time>2026-07-31T00:00:00Z</time></trkpt>
<trkpt lat="37.818752000" lon="-121.980790000"><ele>133.9</ele><time>2026-07-31T00:00:00Z</time></trkpt>
<trkpt lat="37.818672000" lon="-121.980740000"><ele>134.0</ele><time>2026-07-31T00:00:00Z</time></trkpt>
<trkpt lat="37.818592000" lon="-121.980720000"><ele>134.0</ele><time>2026-07-31T00:00:00Z</time></trkpt>
<trkpt lat="37.818504000" lon="-121.980690000"><ele>134.0</ele><time>2026-07-31T00:00:00Z</time></trkpt>
<trkpt lat="37.818413000" lon="-121.980705000"><ele>134.0</ele><time>2026-07-31T00:00:00Z</time></trkpt>
<trkpt lat="37.818325000" lon="-121.980730000"><ele>133.9</ele><time>2026-07-31T00:00:00Z</time></trkpt>
<trkpt lat="37.818237000" lon="-121.980736000"><ele>133.8</ele><time>2026-07-31T00:00:00Z</time></trkpt>
<trkpt lat="37.818157000" lon="-121.980740000"><ele>133.7</ele><time>2026-07-31T00:00:00Z</time></trkpt>
<trkpt lat="37.818066000" lon="-121.980774000"><ele>133.7</ele><time>2026-07-31T00:00:00Z</time></trkpt>
<trkpt lat="37.817978000" lon="-121.980804000"><ele>133.8</ele><time>2026-07-31T00:00:00Z</time></trkpt>
<trkpt lat="37.817900000" lon="-121.980840000"><ele>133.9</ele><time>2026-07-31T00:00:00Z</time></trkpt>
<trkpt lat="37.817820000" lon="-121.980865000"><ele>134.1</ele><time>2026-07-31T00:00:00Z</time></trkpt>
<trkpt lat="37.817738000" lon="-121.980830000"><ele>134.3</ele><time>2026-07-31T00:00:00Z</time></trkpt>
<trkpt lat="37.817673000" lon="-121.980740000"><ele>134.5</ele><time>2026-07-31T00:00:00Z</time></trkpt>
<trkpt lat="37.817627000" lon="-121.980644000"><ele>134.8</ele><time>2026-07-31T00:00:00Z</time></trkpt>
<trkpt lat="37.817585000" lon="-121.980540000"><ele>135.1</ele><time>2026-07-31T00:00:00Z</time></trkpt>
<trkpt lat="37.817580000" lon="-121.980440000"><ele>135.5</ele><time>2026-07-31T00:00:00Z</time></trkpt>
<trkpt lat="37.817577000" lon="-121.980316000"><ele>135.7</ele><time>2026-07-31T00:00:00Z</time></trkpt>
<trkpt lat="37.817593000" lon="-121.980200000"><ele>136.1</ele><time>2026-07-31T00:00:00Z</time></trkpt>
<trkpt lat="37.817623000" lon="-121.980095000"><ele>136.4</ele><time>2026-07-31T00:00:00Z</time></trkpt>
<trkpt lat="37.817654000" lon="-121.979990000"><ele>136.5</ele><time>2026-07-31T00:00:00Z</time></trkpt>
<trkpt lat="37.817690000" lon="-121.979880000"><ele>136.7</ele><time>2026-07-31T00:00:00Z</time></trkpt>
<trkpt lat="37.817677000" lon="-121.979774000"><ele>136.8</ele><time>2026-07-31T00:00:00Z</time></trkpt>
<trkpt lat="37.817610000" lon="-121.979706000"><ele>136.9</ele><time>2026-07-31T00:00:00Z</time></trkpt>
<trkpt lat="37.817520000" lon="-121.979700000"><ele>136.8</ele><time>2026-07-31T00:00:00Z</time></trkpt>
<trkpt lat="37.817425000" lon="-121.979700000"><ele>136.7</ele><time>2026-07-31T00:00:00Z</time></trkpt>
<trkpt lat="37.817333000" lon="-121.979706000"><ele>136.6</ele><time>2026-07-31T00:00:00Z</time></trkpt>
<trkpt lat="37.817245000" lon="-121.979706000"><ele>136.5</ele><time>2026-07-31T00:00:00Z</time></trkpt>
<trkpt lat="37.817154000" lon="-121.979706000"><ele>136.5</ele><time>2026-07-31T00:00:00Z</time></trkpt>
<trkpt lat="37.817060000" lon="-121.979700000"><ele>136.5</ele><time>2026-07-31T00:00:00Z</time></trkpt>
<trkpt lat="37.816970000" lon="-121.979700000"><ele>136.4</ele><time>2026-07-31T00:00:00Z</time></trkpt>
<trkpt lat="37.816883000" lon="-121.979700000"><ele>136.4</ele><time>2026-07-31T00:00:00Z</time></trkpt>
<trkpt lat="37.816795000" lon="-121.979706000"><ele>136.4</ele><time>2026-07-31T00:00:00Z</time></trkpt>
<trkpt lat="37.816700000" lon="-121.979710000"><ele>136.3</ele><time>2026-07-31T00:00:00Z</time></trkpt>
<trkpt lat="37.816612000" lon="-121.979710000"><ele>136.2</ele><time>2026-07-31T00:00:00Z</time></trkpt>
<trkpt lat="37.816530000" lon="-121.979690000"><ele>136.2</ele><time>2026-07-31T00:00:00Z</time></trkpt>
<trkpt lat="37.816600000" lon="-121.979630000"><ele>136.2</ele><time>2026-07-31T00:00:00Z</time></trkpt>
<trkpt lat="37.816677000" lon="-121.979650000"><ele>136.2</ele><time>2026-07-31T00:00:00Z</time></trkpt>
<trkpt lat="37.816760000" lon="-121.979660000"><ele>136.3</ele><time>2026-07-31T00:00:00Z</time></trkpt>
<trkpt lat="37.816845000" lon="-121.979650000"><ele>136.4</ele><time>2026-07-31T00:00:00Z</time></trkpt>
<trkpt lat="37.816917000" lon="-121.979576000"><ele>136.5</ele><time>2026-07-31T00:00:00Z</time></trkpt>
<trkpt lat="37.816933000" lon="-121.979480000"><ele>136.7</ele><time>2026-07-31T00:00:00Z</time></trkpt>
<trkpt lat="37.816933000" lon="-121.979355000"><ele>136.8</ele><time>2026-07-31T00:00:00Z</time></trkpt>
<trkpt lat="37.816948000" lon="-121.979250000"><ele>136.9</ele><time>2026-07-31T00:00:00Z</time></trkpt>
<trkpt lat="37.816982000" lon="-121.979160000"><ele>137.1</ele><time>2026-07-31T00:00:00Z</time></trkpt>
<trkpt lat="37.817036000" lon="-121.979060000"><ele>137.3</ele><time>2026-07-31T00:00:00Z</time></trkpt>
<trkpt lat="37.817104000" lon="-121.978970000"><ele>137.5</ele><time>2026-07-31T00:00:00Z</time></trkpt>
<trkpt lat="37.817177000" lon="-121.978910000"><ele>137.5</ele><time>2026-07-31T00:00:00Z</time></trkpt>
<trkpt lat="37.817253000" lon="-121.978840000"><ele>137.6</ele><time>2026-07-31T00:00:00Z</time></trkpt>
<trkpt lat="37.817204000" lon="-121.978930000"><ele>137.5</ele><time>2026-07-31T00:00:00Z</time></trkpt>
<trkpt lat="37.817140000" lon="-121.979004000"><ele>137.5</ele><time>2026-07-31T00:00:00Z</time></trkpt>
<trkpt lat="37.817078000" lon="-121.979095000"><ele>137.3</ele><time>2026-07-31T00:00:00Z</time></trkpt>
<trkpt lat="37.817020000" lon="-121.979180000"><ele>137.2</ele><time>2026-07-31T00:00:00Z</time></trkpt>
<trkpt lat="37.816986000" lon="-121.979290000"><ele>137.1</ele><time>2026-07-31T00:00:00Z</time></trkpt>
<trkpt lat="37.816986000" lon="-121.979410000"><ele>137.0</ele><time>2026-07-31T00:00:00Z</time></trkpt>
<trkpt lat="37.816998000" lon="-121.979510000"><ele>136.9</ele><time>2026-07-31T00:00:00Z</time></trkpt>
<trkpt lat="37.817020000" lon="-121.979614000"><ele>136.8</ele><time>2026-07-31T00:00:00Z</time></trkpt>
<trkpt lat="37.817104000" lon="-121.979620000"><ele>136.7</ele><time>2026-07-31T00:00:00Z</time></trkpt>
<trkpt lat="37.817190000" lon="-121.979640000"><ele>136.7</ele><time>2026-07-31T00:00:00Z</time></trkpt>
<trkpt lat="37.817272000" lon="-121.979630000"><ele>136.6</ele><time>2026-07-31T00:00:00Z</time></trkpt>
<trkpt lat="37.817356000" lon="-121.979620000"><ele>136.6</ele><time>2026-07-31T00:00:00Z</time></trkpt>
<trkpt lat="37.817450000" lon="-121.979630000"><ele>136.6</ele><time>2026-07-31T00:00:00Z</time></trkpt>
<trkpt lat="37.817543000" lon="-121.979640000"><ele>136.7</ele><time>2026-07-31T00:00:00Z</time></trkpt>
<trkpt lat="37.817635000" lon="-121.979670000"><ele>136.7</ele><time>2026-07-31T00:00:00Z</time></trkpt>
<trkpt lat="37.817715000" lon="-121.979730000"><ele>136.7</ele><time>2026-07-31T00:00:00Z</time></trkpt>
<trkpt lat="37.817800000" lon="-121.979760000"><ele>136.7</ele><time>2026-07-31T00:00:00Z</time></trkpt>
<trkpt lat="37.817880000" lon="-121.979720000"><ele>136.7</ele><time>2026-07-31T00:00:00Z</time></trkpt>
<trkpt lat="37.817950000" lon="-121.979650000"><ele>136.7</ele><time>2026-07-31T00:00:00Z</time></trkpt>
<trkpt lat="37.818035000" lon="-121.979610000"><ele>136.7</ele><time>2026-07-31T00:00:00Z</time></trkpt>
<trkpt lat="37.818123000" lon="-121.979590000"><ele>136.8</ele><time>2026-07-31T00:00:00Z</time></trkpt>
<trkpt lat="37.818214000" lon="-121.979580000"><ele>137.0</ele><time>2026-07-31T00:00:00Z</time></trkpt>
<trkpt lat="37.818306000" lon="-121.979550000"><ele>137.2</ele><time>2026-07-31T00:00:00Z</time></trkpt>
<trkpt lat="37.818336000" lon="-121.979454000"><ele>137.4</ele><time>2026-07-31T00:00:00Z</time></trkpt>
<trkpt lat="37.818348000" lon="-121.979330000"><ele>137.5</ele><time>2026-07-31T00:00:00Z</time></trkpt>
<trkpt lat="37.818344000" lon="-121.979225000"><ele>137.5</ele><time>2026-07-31T00:00:00Z</time></trkpt>
<trkpt lat="37.818344000" lon="-121.979120000"><ele>137.5</ele><time>2026-07-31T00:00:00Z</time></trkpt>
<trkpt lat="37.818410000" lon="-121.979180000"><ele>137.6</ele><time>2026-07-31T00:00:00Z</time></trkpt>
<trkpt lat="37.818405000" lon="-121.979280000"><ele>137.7</ele><time>2026-07-31T00:00:00Z</time></trkpt>
<trkpt lat="37.818400000" lon="-121.979385000"><ele>137.8</ele><time>2026-07-31T00:00:00Z</time></trkpt>
<trkpt lat="37.818413000" lon="-121.979510000"><ele>137.8</ele><time>2026-07-31T00:00:00Z</time></trkpt>
<trkpt lat="37.818480000" lon="-121.979580000"><ele>137.7</ele><time>2026-07-31T00:00:00Z</time></trkpt>
<trkpt lat="37.818570000" lon="-121.979590000"><ele>137.7</ele><time>2026-07-31T00:00:00Z</time></trkpt>
<trkpt lat="37.818665000" lon="-121.979580000"><ele>137.7</ele><time>2026-07-31T00:00:00Z</time></trkpt>
<trkpt lat="37.818752000" lon="-121.979560000"><ele>137.7</ele><time>2026-07-31T00:00:00Z</time></trkpt>
<trkpt lat="37.818836000" lon="-121.979530000"><ele>137.7</ele><time>2026-07-31T00:00:00Z</time></trkpt>
<trkpt lat="37.818913000" lon="-121.979470000"><ele>137.8</ele><time>2026-07-31T00:00:00Z</time></trkpt>
<trkpt lat="37.818980000" lon="-121.979400000"><ele>137.8</ele><time>2026-07-31T00:00:00Z</time></trkpt>
<trkpt lat="37.819040000" lon="-121.979320000"><ele>137.8</ele><time>2026-07-31T00:00:00Z</time></trkpt>
<trkpt lat="37.819080000" lon="-121.979210000"><ele>137.8</ele><time>2026-07-31T00:00:00Z</time></trkpt>
<trkpt lat="37.819107000" lon="-121.979110000"><ele>137.9</ele><time>2026-07-31T00:00:00Z</time></trkpt>
<trkpt lat="37.819130000" lon="-121.979000000"><ele>138.0</ele><time>2026-07-31T00:00:00Z</time></trkpt>
<trkpt lat="37.819134000" lon="-121.978880000"><ele>138.1</ele><time>2026-07-31T00:00:00Z</time></trkpt>
<trkpt lat="37.819138000" lon="-121.978770000"><ele>138.1</ele><time>2026-07-31T00:00:00Z</time></trkpt>
<trkpt lat="37.819120000" lon="-121.978650000"><ele>138.1</ele><time>2026-07-31T00:00:00Z</time></trkpt>
<trkpt lat="37.819100000" lon="-121.978540000"><ele>138.2</ele><time>2026-07-31T00:00:00Z</time></trkpt>
<trkpt lat="37.819130000" lon="-121.978424000"><ele>138.3</ele><time>2026-07-31T00:00:00Z</time></trkpt>
<trkpt lat="37.819138000" lon="-121.978310000"><ele>138.4</ele><time>2026-07-31T00:00:00Z</time></trkpt>
<trkpt lat="37.819138000" lon="-121.978195000"><ele>138.5</ele><time>2026-07-31T00:00:00Z</time></trkpt>
<trkpt lat="37.819134000" lon="-121.978080000"><ele>138.5</ele><time>2026-07-31T00:00:00Z</time></trkpt>
<trkpt lat="37.819130000" lon="-121.977960000"><ele>138.6</ele><time>2026-07-31T00:00:00Z</time></trkpt>
<trkpt lat="37.819122000" lon="-121.977860000"><ele>138.6</ele><time>2026-07-31T00:00:00Z</time></trkpt>
<trkpt lat="37.819115000" lon="-121.977740000"><ele>138.7</ele><time>2026-07-31T00:00:00Z</time></trkpt>
<trkpt lat="37.819107000" lon="-121.977615000"><ele>138.7</ele><time>2026-07-31T00:00:00Z</time></trkpt>
<trkpt lat="37.819084000" lon="-121.977500000"><ele>138.8</ele><time>2026-07-31T00:00:00Z</time></trkpt>
<trkpt lat="37.819054000" lon="-121.977390000"><ele>138.9</ele><time>2026-07-31T00:00:00Z</time></trkpt>
<trkpt lat="37.818993000" lon="-121.977310000"><ele>139.0</ele><time>2026-07-31T00:00:00Z</time></trkpt>
<trkpt lat="37.818947000" lon="-121.977210000"><ele>139.1</ele><time>2026-07-31T00:00:00Z</time></trkpt>
<trkpt lat="37.818893000" lon="-121.977110000"><ele>139.3</ele><time>2026-07-31T00:00:00Z</time></trkpt>
<trkpt lat="37.818806000" lon="-121.977110000"><ele>139.5</ele><time>2026-07-31T00:00:00Z</time></trkpt>
<trkpt lat="37.818745000" lon="-121.977190000"><ele>139.7</ele><time>2026-07-31T00:00:00Z</time></trkpt>
<trkpt lat="37.818684000" lon="-121.977264000"><ele>140.0</ele><time>2026-07-31T00:00:00Z</time></trkpt>
<trkpt lat="37.818623000" lon="-121.977350000"><ele>140.3</ele><time>2026-07-31T00:00:00Z</time></trkpt>
<trkpt lat="37.818665000" lon="-121.977440000"><ele>140.5</ele><time>2026-07-31T00:00:00Z</time></trkpt>
<trkpt lat="37.818707000" lon="-121.977540000"><ele>140.9</ele><time>2026-07-31T00:00:00Z</time></trkpt>
<trkpt lat="37.818726000" lon="-121.977650000"><ele>141.2</ele><time>2026-07-31T00:00:00Z</time></trkpt>
<trkpt lat="37.818730000" lon="-121.977770000"><ele>141.5</ele><time>2026-07-31T00:00:00Z</time></trkpt>
<trkpt lat="37.818718000" lon="-121.977875000"><ele>141.6</ele><time>2026-07-31T00:00:00Z</time></trkpt>
<trkpt lat="37.818718000" lon="-121.977990000"><ele>141.9</ele><time>2026-07-31T00:00:00Z</time></trkpt>
<trkpt lat="37.818707000" lon="-121.978096000"><ele>142.1</ele><time>2026-07-31T00:00:00Z</time></trkpt>
<trkpt lat="37.818660000" lon="-121.978200000"><ele>142.3</ele><time>2026-07-31T00:00:00Z</time></trkpt>
<trkpt lat="37.818573000" lon="-121.978230000"><ele>142.4</ele><time>2026-07-31T00:00:00Z</time></trkpt>
<trkpt lat="37.818478000" lon="-121.978250000"><ele>142.5</ele><time>2026-07-31T00:00:00Z</time></trkpt>
<trkpt lat="37.818394000" lon="-121.978260000"><ele>142.5</ele><time>2026-07-31T00:00:00Z</time></trkpt>
<trkpt lat="37.818306000" lon="-121.978270000"><ele>142.6</ele><time>2026-07-31T00:00:00Z</time></trkpt>
<trkpt lat="37.818233000" lon="-121.978320000"><ele>142.6</ele><time>2026-07-31T00:00:00Z</time></trkpt>
<trkpt lat="37.818153000" lon="-121.978360000"><ele>142.6</ele><time>2026-07-31T00:00:00Z</time></trkpt>
<trkpt lat="37.818090000" lon="-121.978430000"><ele>142.6</ele><time>2026-07-31T00:00:00Z</time></trkpt>
<trkpt lat="37.818012000" lon="-121.978470000"><ele>142.6</ele><time>2026-07-31T00:00:00Z</time></trkpt>
<trkpt lat="37.817940000" lon="-121.978420000"><ele>142.5</ele><time>2026-07-31T00:00:00Z</time></trkpt>
<trkpt lat="37.817863000" lon="-121.978380000"><ele>142.5</ele><time>2026-07-31T00:00:00Z</time></trkpt>
<trkpt lat="37.817780000" lon="-121.978340000"><ele>142.5</ele><time>2026-07-31T00:00:00Z</time></trkpt>
<trkpt lat="37.817745000" lon="-121.978230000"><ele>142.5</ele><time>2026-07-31T00:00:00Z</time></trkpt>
<trkpt lat="37.817776000" lon="-121.978130000"><ele>142.5</ele><time>2026-07-31T00:00:00Z</time></trkpt>
<trkpt lat="37.817810000" lon="-121.978035000"><ele>142.5</ele><time>2026-07-31T00:00:00Z</time></trkpt>
<trkpt lat="37.817844000" lon="-121.977940000"><ele>142.5</ele><time>2026-07-31T00:00:00Z</time></trkpt>
<trkpt lat="37.817886000" lon="-121.977830000"><ele>142.5</ele><time>2026-07-31T00:00:00Z</time></trkpt>
<trkpt lat="37.817930000" lon="-121.977740000"><ele>142.5</ele><time>2026-07-31T00:00:00Z</time></trkpt>
<trkpt lat="37.817980000" lon="-121.977650000"><ele>142.5</ele><time>2026-07-31T00:00:00Z</time></trkpt>
<trkpt lat="37.818060000" lon="-121.977585000"><ele>142.3</ele><time>2026-07-31T00:00:00Z</time></trkpt>
<trkpt lat="37.818150000" lon="-121.977550000"><ele>142.1</ele><time>2026-07-31T00:00:00Z</time></trkpt>
<trkpt lat="37.818226000" lon="-121.977490000"><ele>141.9</ele><time>2026-07-31T00:00:00Z</time></trkpt>
<trkpt lat="37.818256000" lon="-121.977394000"><ele>141.5</ele><time>2026-07-31T00:00:00Z</time></trkpt>
<trkpt lat="37.818230000" lon="-121.977290000"><ele>141.2</ele><time>2026-07-31T00:00:00Z</time></trkpt>
<trkpt lat="37.818188000" lon="-121.977180000"><ele>140.8</ele><time>2026-07-31T00:00:00Z</time></trkpt>
<trkpt lat="37.818170000" lon="-121.977070000"><ele>140.5</ele><time>2026-07-31T00:00:00Z</time></trkpt>
<trkpt lat="37.818123000" lon="-121.976970000"><ele>140.4</ele><time>2026-07-31T00:00:00Z</time></trkpt>
<trkpt lat="37.818050000" lon="-121.977020000"><ele>140.3</ele><time>2026-07-31T00:00:00Z</time></trkpt>
<trkpt lat="37.817997000" lon="-121.977104000"><ele>140.4</ele><time>2026-07-31T00:00:00Z</time></trkpt>
<trkpt lat="37.817940000" lon="-121.977180000"><ele>140.5</ele><time>2026-07-31T00:00:00Z</time></trkpt>
<trkpt lat="37.817936000" lon="-121.977295000"><ele>140.7</ele><time>2026-07-31T00:00:00Z</time></trkpt>
<trkpt lat="37.817950000" lon="-121.977410000"><ele>141.0</ele><time>2026-07-31T00:00:00Z</time></trkpt>
<trkpt lat="37.817950000" lon="-121.977520000"><ele>141.2</ele><time>2026-07-31T00:00:00Z</time></trkpt>
<trkpt lat="37.818035000" lon="-121.977580000"><ele>141.4</ele><time>2026-07-31T00:00:00Z</time></trkpt>
<trkpt lat="37.818123000" lon="-121.977540000"><ele>141.5</ele><time>2026-07-31T00:00:00Z</time></trkpt>
<trkpt lat="37.818214000" lon="-121.977500000"><ele>141.6</ele><time>2026-07-31T00:00:00Z</time></trkpt>
<trkpt lat="37.818302000" lon="-121.977455000"><ele>141.6</ele><time>2026-07-31T00:00:00Z</time></trkpt>
<trkpt lat="37.818386000" lon="-121.977430000"><ele>141.5</ele><time>2026-07-31T00:00:00Z</time></trkpt>
<trkpt lat="37.818470000" lon="-121.977380000"><ele>141.1</ele><time>2026-07-31T00:00:00Z</time></trkpt>
<trkpt lat="37.818546000" lon="-121.977320000"><ele>140.7</ele><time>2026-07-31T00:00:00Z</time></trkpt>
<trkpt lat="37.818610000" lon="-121.977230000"><ele>140.5</ele><time>2026-07-31T00:00:00Z</time></trkpt>
<trkpt lat="37.818672000" lon="-121.977160000"><ele>140.0</ele><time>2026-07-31T00:00:00Z</time></trkpt>
<trkpt lat="37.818737000" lon="-121.977100000"><ele>139.5</ele><time>2026-07-31T00:00:00Z</time></trkpt>
<trkpt lat="37.818806000" lon="-121.977010000"><ele>139.2</ele><time>2026-07-31T00:00:00Z</time></trkpt>
<trkpt lat="37.818745000" lon="-121.976940000"><ele>138.8</ele><time>2026-07-31T00:00:00Z</time></trkpt>
<trkpt lat="37.818695000" lon="-121.976845000"><ele>138.5</ele><time>2026-07-31T00:00:00Z</time></trkpt>
<trkpt lat="37.818665000" lon="-121.976730000"><ele>138.2</ele><time>2026-07-31T00:00:00Z</time></trkpt>
<trkpt lat="37.818650000" lon="-121.976630000"><ele>137.9</ele><time>2026-07-31T00:00:00Z</time></trkpt>
<trkpt lat="37.818640000" lon="-121.976520000"><ele>137.7</ele><time>2026-07-31T00:00:00Z</time></trkpt>
<trkpt lat="37.818640000" lon="-121.976420000"><ele>137.6</ele><time>2026-07-31T00:00:00Z</time></trkpt>
<trkpt lat="37.818640000" lon="-121.976300000"><ele>137.5</ele><time>2026-07-31T00:00:00Z</time></trkpt>
<trkpt lat="37.818565000" lon="-121.976250000"><ele>137.3</ele><time>2026-07-31T00:00:00Z</time></trkpt>
<trkpt lat="37.818478000" lon="-121.976250000"><ele>137.2</ele><time>2026-07-31T00:00:00Z</time></trkpt>
<trkpt lat="37.818390000" lon="-121.976234000"><ele>137.1</ele><time>2026-07-31T00:00:00Z</time></trkpt>
<trkpt lat="37.818306000" lon="-121.976220000"><ele>137.0</ele><time>2026-07-31T00:00:00Z</time></trkpt>
<trkpt lat="37.818210000" lon="-121.976200000"><ele>137.0</ele><time>2026-07-31T00:00:00Z</time></trkpt>
<trkpt lat="37.818120000" lon="-121.976190000"><ele>137.0</ele><time>2026-07-31T00:00:00Z</time></trkpt>
<trkpt lat="37.818035000" lon="-121.976190000"><ele>137.0</ele><time>2026-07-31T00:00:00Z</time></trkpt>
<trkpt lat="37.817955000" lon="-121.976210000"><ele>136.9</ele><time>2026-07-31T00:00:00Z</time></trkpt>
<trkpt lat="37.817930000" lon="-121.976310000"><ele>136.9</ele><time>2026-07-31T00:00:00Z</time></trkpt>
<trkpt lat="37.817898000" lon="-121.976410000"><ele>136.9</ele><time>2026-07-31T00:00:00Z</time></trkpt>
<trkpt lat="37.817870000" lon="-121.976510000"><ele>136.8</ele><time>2026-07-31T00:00:00Z</time></trkpt>
<trkpt lat="37.817825000" lon="-121.976610000"><ele>136.7</ele><time>2026-07-31T00:00:00Z</time></trkpt>
<trkpt lat="37.817772000" lon="-121.976700000"><ele>136.5</ele><time>2026-07-31T00:00:00Z</time></trkpt>
<trkpt lat="37.817726000" lon="-121.976800000"><ele>136.4</ele><time>2026-07-31T00:00:00Z</time></trkpt>
<trkpt lat="37.817677000" lon="-121.976890000"><ele>136.2</ele><time>2026-07-31T00:00:00Z</time></trkpt>
<trkpt lat="37.817608000" lon="-121.976960000"><ele>136.0</ele><time>2026-07-31T00:00:00Z</time></trkpt>
<trkpt lat="37.817535000" lon="-121.977030000"><ele>135.8</ele><time>2026-07-31T00:00:00Z</time></trkpt>
<trkpt lat="37.817455000" lon="-121.977090000"><ele>135.7</ele><time>2026-07-31T00:00:00Z</time></trkpt>
<trkpt lat="37.817383000" lon="-121.977150000"><ele>135.7</ele><time>2026-07-31T00:00:00Z</time></trkpt>
<trkpt lat="37.817295000" lon="-121.977196000"><ele>135.7</ele><time>2026-07-31T00:00:00Z</time></trkpt>
<trkpt lat="37.817204000" lon="-121.977240000"><ele>135.7</ele><time>2026-07-31T00:00:00Z</time></trkpt>
<trkpt lat="37.817142000" lon="-121.977320000"><ele>135.9</ele><time>2026-07-31T00:00:00Z</time></trkpt>
<trkpt lat="37.817160000" lon="-121.977430000"><ele>136.1</ele><time>2026-07-31T00:00:00Z</time></trkpt>
<trkpt lat="37.817173000" lon="-121.977550000"><ele>136.4</ele><time>2026-07-31T00:00:00Z</time></trkpt>
<trkpt lat="37.817165000" lon="-121.977650000"><ele>136.5</ele><time>2026-07-31T00:00:00Z</time></trkpt>
<trkpt lat="37.817142000" lon="-121.977770000"><ele>136.7</ele><time>2026-07-31T00:00:00Z</time></trkpt>
<trkpt lat="37.817110000" lon="-121.977875000"><ele>136.9</ele><time>2026-07-31T00:00:00Z</time></trkpt>
<trkpt lat="37.817066000" lon="-121.977974000"><ele>137.1</ele><time>2026-07-31T00:00:00Z</time></trkpt>
<trkpt lat="37.817010000" lon="-121.978065000"><ele>137.2</ele><time>2026-07-31T00:00:00Z</time></trkpt>
<trkpt lat="37.816948000" lon="-121.978140000"><ele>137.3</ele><time>2026-07-31T00:00:00Z</time></trkpt>
<trkpt lat="37.816870000" lon="-121.978200000"><ele>137.2</ele><time>2026-07-31T00:00:00Z</time></trkpt>
<trkpt lat="37.816790000" lon="-121.978260000"><ele>137.1</ele><time>2026-07-31T00:00:00Z</time></trkpt>
<trkpt lat="37.816720000" lon="-121.978310000"><ele>136.9</ele><time>2026-07-31T00:00:00Z</time></trkpt>
<trkpt lat="37.816640000" lon="-121.978370000"><ele>136.7</ele><time>2026-07-31T00:00:00Z</time></trkpt>
<trkpt lat="37.816555000" lon="-121.978430000"><ele>136.5</ele><time>2026-07-31T00:00:00Z</time></trkpt>
<trkpt lat="37.816470000" lon="-121.978490000"><ele>136.5</ele><time>2026-07-31T00:00:00Z</time></trkpt>
<trkpt lat="37.816400000" lon="-121.978560000"><ele>136.5</ele><time>2026-07-31T00:00:00Z</time></trkpt>
<trkpt lat="37.816330000" lon="-121.978640000"><ele>136.5</ele><time>2026-07-31T00:00:00Z</time></trkpt>
<trkpt lat="37.816260000" lon="-121.978700000"><ele>136.5</ele><time>2026-07-31T00:00:00Z</time></trkpt>
<trkpt lat="37.816315000" lon="-121.978775000"><ele>136.5</ele><time>2026-07-31T00:00:00Z</time></trkpt>
<trkpt lat="37.816383000" lon="-121.978836000"><ele>136.5</ele><time>2026-07-31T00:00:00Z</time></trkpt>
<trkpt lat="37.816440000" lon="-121.978920000"><ele>136.6</ele><time>2026-07-31T00:00:00Z</time></trkpt>
<trkpt lat="37.816475000" lon="-121.979034000"><ele>136.7</ele><time>2026-07-31T00:00:00Z</time></trkpt>
<trkpt lat="37.816494000" lon="-121.979150000"><ele>136.8</ele><time>2026-07-31T00:00:00Z</time></trkpt>
<trkpt lat="37.816498000" lon="-121.979260000"><ele>136.8</ele><time>2026-07-31T00:00:00Z</time></trkpt>
<trkpt lat="37.816513000" lon="-121.979370000"><ele>136.8</ele><time>2026-07-31T00:00:00Z</time></trkpt>
<trkpt lat="37.816530000" lon="-121.979480000"><ele>136.7</ele><time>2026-07-31T00:00:00Z</time></trkpt>
<trkpt lat="37.816600000" lon="-121.979560000"><ele>136.6</ele><time>2026-07-31T00:00:00Z</time></trkpt>
<trkpt lat="37.816666000" lon="-121.979640000"><ele>136.6</ele><time>2026-07-31T00:00:00Z</time></trkpt>
<trkpt lat="37.816757000" lon="-121.979640000"><ele>136.6</ele><time>2026-07-31T00:00:00Z</time></trkpt>
<trkpt lat="37.816850000" lon="-121.979645000"><ele>136.6</ele><time>2026-07-31T00:00:00Z</time></trkpt>
<trkpt lat="37.816933000" lon="-121.979610000"><ele>136.6</ele><time>2026-07-31T00:00:00Z</time></trkpt>
<trkpt lat="37.817028000" lon="-121.979620000"><ele>136.6</ele><time>2026-07-31T00:00:00Z</time></trkpt>
<trkpt lat="37.817120000" lon="-121.979645000"><ele>136.6</ele><time>2026-07-31T00:00:00Z</time></trkpt>
<trkpt lat="37.817210000" lon="-121.979640000"><ele>136.6</ele><time>2026-07-31T00:00:00Z</time></trkpt>
<trkpt lat="37.817300000" lon="-121.979620000"><ele>136.6</ele><time>2026-07-31T00:00:00Z</time></trkpt>
<trkpt lat="37.817394000" lon="-121.979630000"><ele>136.6</ele><time>2026-07-31T00:00:00Z</time></trkpt>
<trkpt lat="37.817486000" lon="-121.979645000"><ele>136.7</ele><time>2026-07-31T00:00:00Z</time></trkpt>
<trkpt lat="37.817570000" lon="-121.979670000"><ele>136.8</ele><time>2026-07-31T00:00:00Z</time></trkpt>
<trkpt lat="37.817654000" lon="-121.979706000"><ele>136.8</ele><time>2026-07-31T00:00:00Z</time></trkpt>
<trkpt lat="37.817734000" lon="-121.979760000"><ele>136.8</ele><time>2026-07-31T00:00:00Z</time></trkpt>
<trkpt lat="37.817783000" lon="-121.979840000"><ele>136.7</ele><time>2026-07-31T00:00:00Z</time></trkpt>
<trkpt lat="37.817776000" lon="-121.979950000"><ele>136.5</ele><time>2026-07-31T00:00:00Z</time></trkpt>
<trkpt lat="37.817745000" lon="-121.980060000"><ele>136.4</ele><time>2026-07-31T00:00:00Z</time></trkpt>
<trkpt lat="37.817710000" lon="-121.980160000"><ele>136.1</ele><time>2026-07-31T00:00:00Z</time></trkpt>
<trkpt lat="37.817700000" lon="-121.980280000"><ele>135.7</ele><time>2026-07-31T00:00:00Z</time></trkpt>
<trkpt lat="37.817707000" lon="-121.980380000"><ele>135.5</ele><time>2026-07-31T00:00:00Z</time></trkpt>
<trkpt lat="37.817726000" lon="-121.980490000"><ele>135.4</ele><time>2026-07-31T00:00:00Z</time></trkpt>
<trkpt lat="37.817760000" lon="-121.980606000"><ele>135.1</ele><time>2026-07-31T00:00:00Z</time></trkpt>
<trkpt lat="37.817790000" lon="-121.980705000"><ele>134.8</ele><time>2026-07-31T00:00:00Z</time></trkpt>
<trkpt lat="37.817825000" lon="-121.980804000"><ele>134.5</ele><time>2026-07-31T00:00:00Z</time></trkpt>
<trkpt lat="37.817905000" lon="-121.980810000"><ele>134.3</ele><time>2026-07-31T00:00:00Z</time></trkpt>
<trkpt lat="37.817970000" lon="-121.980736000"><ele>134.1</ele><time>2026-07-31T00:00:00Z</time></trkpt>
<trkpt lat="37.818058000" lon="-121.980740000"><ele>134.0</ele><time>2026-07-31T00:00:00Z</time></trkpt>
<trkpt lat="37.818142000" lon="-121.980705000"><ele>133.9</ele><time>2026-07-31T00:00:00Z</time></trkpt>
<trkpt lat="37.818222000" lon="-121.980675000"><ele>133.9</ele><time>2026-07-31T00:00:00Z</time></trkpt>
<trkpt lat="37.818306000" lon="-121.980675000"><ele>134.0</ele><time>2026-07-31T00:00:00Z</time></trkpt>
<trkpt lat="37.818400000" lon="-121.980680000"><ele>134.0</ele><time>2026-07-31T00:00:00Z</time></trkpt>
<trkpt lat="37.818485000" lon="-121.980700000"><ele>134.0</ele><time>2026-07-31T00:00:00Z</time></trkpt>
<trkpt lat="37.818580000" lon="-121.980720000"><ele>134.0</ele><time>2026-07-31T00:00:00Z</time></trkpt>
<trkpt lat="37.818657000" lon="-121.980760000"><ele>134.0</ele><time>2026-07-31T00:00:00Z</time></trkpt>
<trkpt lat="37.818730000" lon="-121.980804000"><ele>133.9</ele><time>2026-07-31T00:00:00Z</time></trkpt>
<trkpt lat="37.818806000" lon="-121.980860000"><ele>133.8</ele><time>2026-07-31T00:00:00Z</time></trkpt>
<trkpt lat="37.818874000" lon="-121.980920000"><ele>133.6</ele><time>2026-07-31T00:00:00Z</time></trkpt>
<trkpt lat="37.818950000" lon="-121.980980000"><ele>133.5</ele><time>2026-07-31T00:00:00Z</time></trkpt>
<trkpt lat="37.819010000" lon="-121.981050000"><ele>133.2</ele><time>2026-07-31T00:00:00Z</time></trkpt>
<trkpt lat="37.819070000" lon="-121.981150000"><ele>132.9</ele><time>2026-07-31T00:00:00Z</time></trkpt>
<trkpt lat="37.819115000" lon="-121.981230000"><ele>132.5</ele><time>2026-07-31T00:00:00Z</time></trkpt>
<trkpt lat="37.819160000" lon="-121.981340000"><ele>132.2</ele><time>2026-07-31T00:00:00Z</time></trkpt>
<trkpt lat="37.819206000" lon="-121.981440000"><ele>131.7</ele><time>2026-07-31T00:00:00Z</time></trkpt>
<trkpt lat="37.819250000" lon="-121.981544000"><ele>131.3</ele><time>2026-07-31T00:00:00Z</time></trkpt>
<trkpt lat="37.819298000" lon="-121.981640000"><ele>130.7</ele><time>2026-07-31T00:00:00Z</time></trkpt>
<trkpt lat="37.819313000" lon="-121.981760000"><ele>130.3</ele><time>2026-07-31T00:00:00Z</time></trkpt>
<trkpt lat="37.819363000" lon="-121.981865000"><ele>129.7</ele><time>2026-07-31T00:00:00Z</time></trkpt>
<trkpt lat="37.819416000" lon="-121.981964000"><ele>129.3</ele><time>2026-07-31T00:00:00Z</time></trkpt>
<trkpt lat="37.819454000" lon="-121.982060000"><ele>128.7</ele><time>2026-07-31T00:00:00Z</time></trkpt>
<trkpt lat="37.819496000" lon="-121.982170000"><ele>128.3</ele><time>2026-07-31T00:00:00Z</time></trkpt>
<trkpt lat="37.819580000" lon="-121.982155000"><ele>127.7</ele><time>2026-07-31T00:00:00Z</time></trkpt>
<trkpt lat="37.819656000" lon="-121.982090000"><ele>127.3</ele><time>2026-07-31T00:00:00Z</time></trkpt>
<trkpt lat="37.819736000" lon="-121.982030000"><ele>126.7</ele><time>2026-07-31T00:00:00Z</time></trkpt>
<trkpt lat="37.819820000" lon="-121.981980000"><ele>126.3</ele><time>2026-07-31T00:00:00Z</time></trkpt>
<trkpt lat="37.819904000" lon="-121.981920000"><ele>125.7</ele><time>2026-07-31T00:00:00Z</time></trkpt>
<trkpt lat="37.819977000" lon="-121.981860000"><ele>125.2</ele><time>2026-07-31T00:00:00Z</time></trkpt>
<trkpt lat="37.820053000" lon="-121.981800000"><ele>124.5</ele><time>2026-07-31T00:00:00Z</time></trkpt>
<trkpt lat="37.820118000" lon="-121.981730000"><ele>124.0</ele><time>2026-07-31T00:00:00Z</time></trkpt>
<trkpt lat="37.820180000" lon="-121.981640000"><ele>123.4</ele><time>2026-07-31T00:00:00Z</time></trkpt>
<trkpt lat="37.820244000" lon="-121.981570000"><ele>122.8</ele><time>2026-07-31T00:00:00Z</time></trkpt>
<trkpt lat="37.820316000" lon="-121.981514000"><ele>122.3</ele><time>2026-07-31T00:00:00Z</time></trkpt>
<trkpt lat="37.820404000" lon="-121.981476000"><ele>121.7</ele><time>2026-07-31T00:00:00Z</time></trkpt>
<trkpt lat="37.820465000" lon="-121.981390000"><ele>121.3</ele><time>2026-07-31T00:00:00Z</time></trkpt>
<trkpt lat="37.820560000" lon="-121.981380000"><ele>120.9</ele><time>2026-07-31T00:00:00Z</time></trkpt>
<trkpt lat="37.820650000" lon="-121.981390000"><ele>120.5</ele><time>2026-07-31T00:00:00Z</time></trkpt>
<trkpt lat="37.820730000" lon="-121.981330000"><ele>120.3</ele><time>2026-07-31T00:00:00Z</time></trkpt>
<trkpt lat="37.820812000" lon="-121.981280000"><ele>120.1</ele><time>2026-07-31T00:00:00Z</time></trkpt>
<trkpt lat="37.820892000" lon="-121.981224000"><ele>120.0</ele><time>2026-07-31T00:00:00Z</time></trkpt>
<trkpt lat="37.820976000" lon="-121.981180000"><ele>120.0</ele><time>2026-07-31T00:00:00Z</time></trkpt>
<trkpt lat="37.821050000" lon="-121.981125000"><ele>120.1</ele><time>2026-07-31T00:00:00Z</time></trkpt>
<trkpt lat="37.821120000" lon="-121.981070000"><ele>120.2</ele><time>2026-07-31T00:00:00Z</time></trkpt>
<trkpt lat="37.821198000" lon="-121.981000000"><ele>120.3</ele><time>2026-07-31T00:00:00Z</time></trkpt>
<trkpt lat="37.821266000" lon="-121.980960000"><ele>120.5</ele><time>2026-07-31T00:00:00Z</time></trkpt>
<trkpt lat="37.821280000" lon="-121.980850000"><ele>120.5</ele><time>2026-07-31T00:00:00Z</time></trkpt>
<trkpt lat="37.821247000" lon="-121.980740000"><ele>120.6</ele><time>2026-07-31T00:00:00Z</time></trkpt>
<trkpt lat="37.821200000" lon="-121.980640000"><ele>120.8</ele><time>2026-07-31T00:00:00Z</time></trkpt>
<trkpt lat="37.821160000" lon="-121.980530000"><ele>121.0</ele><time>2026-07-31T00:00:00Z</time></trkpt>
<trkpt lat="37.821114000" lon="-121.980420000"><ele>121.2</ele><time>2026-07-31T00:00:00Z</time></trkpt>
<trkpt lat="37.821070000" lon="-121.980330000"><ele>121.4</ele><time>2026-07-31T00:00:00Z</time></trkpt>
<trkpt lat="37.821030000" lon="-121.980240000"><ele>121.5</ele><time>2026-07-31T00:00:00Z</time></trkpt>
<trkpt lat="37.820950000" lon="-121.980225000"><ele>121.5</ele><time>2026-07-31T00:00:00Z</time></trkpt>
<trkpt lat="37.820873000" lon="-121.980270000"><ele>121.6</ele><time>2026-07-31T00:00:00Z</time></trkpt>
<trkpt lat="37.820805000" lon="-121.980330000"><ele>121.7</ele><time>2026-07-31T00:00:00Z</time></trkpt>
<trkpt lat="37.820744000" lon="-121.980400000"><ele>121.8</ele><time>2026-07-31T00:00:00Z</time></trkpt>
<trkpt lat="37.820755000" lon="-121.980290000"><ele>121.9</ele><time>2026-07-31T00:00:00Z</time></trkpt>
<trkpt lat="37.820755000" lon="-121.980290000"><ele>122.0</ele><time>2026-07-31T00:00:00Z</time></trkpt>
</trkseg>
</trk>
</gpx>
