<?xml version="1.0" encoding="UTF-8"?>
<gpx
  version="1.1"
  creator="Runkeeper - http://www.runkeeper.com"
  xmlns:xsi="http://www.w3.org/2001/XMLSchema-instance"
  xmlns="http://www.topografix.com/GPX/1/1"
  xsi:schemaLocation="http://www.topografix.com/GPX/1/1 http://www.topografix.com/GPX/1/1/gpx.xsd"
  xmlns:gpxtpx="http://www.garmin.com/xmlschemas/TrackPointExtension/v1">
<trk>
  <name><![CDATA[Walking 8/30/26]]></name>
  <time>2026-08-30T00:00:00Z</time>
<trkseg>
<trkpt lat="37.803960000" lon="-121.974150000"><ele>140.7</ele><time>2026-08-30T00:00:00Z</time></trkpt>
<trkpt lat="37.803890000" lon="-121.974100000"><ele>141.0</ele><time>2026-08-30T00:00:00Z</time></trkpt>
<trkpt lat="37.803806000" lon="-121.974070000"><ele>141.4</ele><time>2026-08-30T00:00:00Z</time></trkpt>
<trkpt lat="37.803800000" lon="-121.973960000"><ele>141.8</ele><time>2026-08-30T00:00:00Z</time></trkpt>
<trkpt lat="37.803750000" lon="-121.973860000"><ele>142.1</ele><time>2026-08-30T00:00:00Z</time></trkpt>
<trkpt lat="37.803688000" lon="-121.973780000"><ele>142.4</ele><time>2026-08-30T00:00:00Z</time></trkpt>
<trkpt lat="37.803688000" lon="-121.973656000"><ele>142.9</ele><time>2026-08-30T00:00:00Z</time></trkpt>
<trkpt lat="37.803720000" lon="-121.973564000"><ele>143.5</ele><time>2026-08-30T00:00:00Z</time></trkpt>
<trkpt lat="37.803684000" lon="-121.973465000"><ele>143.9</ele><time>2026-08-30T00:00:00Z</time></trkpt>
<trkpt lat="37.803646000" lon="-121.973370000"><ele>144.3</ele><time>2026-08-30T00:00:00Z</time></trkpt>
<trkpt lat="37.803635000" lon="-121.973260000"><ele>144.5</ele><time>2026-08-30T00:00:00Z</time></trkpt>
<trkpt lat="37.803604000" lon="-121.973145000"><ele>144.7</ele><time>2026-08-30T00:00:00Z</time></trkpt>
<trkpt lat="37.803562000" lon="-121.973045000"><ele>144.8</ele><time>2026-08-30T00:00:00Z</time></trkpt>
<trkpt lat="37.803513000" lon="-121.972950000"><ele>144.8</ele><time>2026-08-30T00:00:00Z</time></trkpt>
<trkpt lat="37.803450000" lon="-121.972870000"><ele>144.8</ele><time>2026-08-30T00:00:00Z</time></trkpt>
<trkpt lat="37.803413000" lon="-121.972770000"><ele>144.8</ele><time>2026-08-30T00:00:00Z</time></trkpt>
<trkpt lat="37.803400000" lon="-121.972660000"><ele>144.9</ele><time>2026-08-30T00:00:00Z</time></trkpt>
<trkpt lat="37.803370000" lon="-121.972540000"><ele>145.1</ele><time>2026-08-30T00:00:00Z</time></trkpt>
<trkpt lat="37.803368000" lon="-121.972440000"><ele>145.4</ele><time>2026-08-30T00:00:00Z</time></trkpt>
<trkpt lat="37.803402000" lon="-121.972336000"><ele>145.6</ele><time>2026-08-30T00:00:00Z</time></trkpt>
<trkpt lat="37.803460000" lon="-121.972260000"><ele>146.0</ele><time>2026-08-30T00:00:00Z</time></trkpt>
<trkpt lat="37.803528000" lon="-121.972180000"><ele>146.5</ele><time>2026-08-30T00:00:00Z</time></trkpt>
<trkpt lat="37.803580000" lon="-121.972100000"><ele>147.0</ele><time>2026-08-30T00:00:00Z</time></trkpt>
<trkpt lat="37.803650000" lon="-121.972020000"><ele>147.7</ele><time>2026-08-30T00:00:00Z</time></trkpt>
<trkpt lat="37.803722000" lon="-121.971950000"><ele>148.5</ele><time>2026-08-30T00:00:00Z</time></trkpt>
<trkpt lat="37.803795000" lon="-121.971870000"><ele>149.3</ele><time>2026-08-30T00:00:00Z</time></trkpt>
<trkpt lat="37.803880000" lon="-121.971810000"><ele>150.1</ele><time>2026-08-30T00:00:00Z</time></trkpt>
<trkpt lat="37.803944000" lon="-121.971740000"><ele>150.9</ele><time>2026-08-30T00:00:00Z</time></trkpt>
<trkpt lat="37.804012000" lon="-121.971664000"><ele>151.7</ele><time>2026-08-30T00:00:00Z</time></trkpt>
<trkpt lat="37.804085000" lon="-121.971590000"><ele>152.5</ele><time>2026-08-30T00:00:00Z</time></trkpt>
<trkpt lat="37.804146000" lon="-121.971520000"><ele>153.4</ele><time>2026-08-30T00:00:00Z</time></trkpt>
<trkpt lat="37.804214000" lon="-121.971460000"><ele>154.2</ele><time>2026-08-30T00:00:00Z</time></trkpt>
<trkpt lat="37.804287000" lon="-121.971390000"><ele>154.9</ele><time>2026-08-30T00:00:00Z</time></trkpt>
<trkpt lat="37.804344000" lon="-121.971290000"><ele>155.6</ele><time>2026-08-30T00:00:00Z</time></trkpt>
<trkpt lat="37.804398000" lon="-121.971214000"><ele>156.3</ele><time>2026-08-30T00:00:00Z</time></trkpt>
<trkpt lat="37.804462000" lon="-121.971146000"><ele>156.9</ele><time>2026-08-30T00:00:00Z</time></trkpt>
<trkpt lat="37.804523000" lon="-121.971080000"><ele>157.6</ele><time>2026-08-30T00:00:00Z</time></trkpt>
<trkpt lat="37.804590000" lon="-121.971010000"><ele>158.4</ele><time>2026-08-30T00:00:00Z</time></trkpt>
<trkpt lat="37.804660000" lon="-121.970940000"><ele>159.1</ele><time>2026-08-30T00:00:00Z</time></trkpt>
<trkpt lat="37.804720000" lon="-121.970856000"><ele>159.8</ele><time>2026-08-30T00:00:00Z</time></trkpt>
<trkpt lat="37.804780000" lon="-121.970790000"><ele>160.6</ele><time>2026-08-30T00:00:00Z</time></trkpt>
<trkpt lat="37.804863000" lon="-121.970730000"><ele>161.5</ele><time>2026-08-30T00:00:00Z</time></trkpt>
<trkpt lat="37.804930000" lon="-121.970670000"><ele>162.5</ele><time>2026-08-30T00:00:00Z</time></trkpt>
<trkpt lat="37.804996000" lon="-121.970610000"><ele>163.5</ele><time>2026-08-30T00:00:00Z</time></trkpt>
<trkpt lat="37.805077000" lon="-121.970550000"><ele>164.5</ele><time>2026-08-30T00:00:00Z</time></trkpt>
<trkpt lat="37.805145000" lon="-121.970480000"><ele>165.6</ele><time>2026-08-30T00:00:00Z</time></trkpt>
<trkpt lat="37.805210000" lon="-121.970406000"><ele>166.7</ele><time>2026-08-30T00:00:00Z</time></trkpt>
<trkpt lat="37.805275000" lon="-121.970340000"><ele>167.8</ele><time>2026-08-30T00:00:00Z</time></trkpt>
<trkpt lat="37.805320000" lon="-121.970240000"><ele>168.9</ele><time>2026-08-30T00:00:00Z</time></trkpt>
<trkpt lat="37.805370000" lon="-121.970146000"><ele>170.0</ele><time>2026-08-30T00:00:00Z</time></trkpt>
<trkpt lat="37.805416000" lon="-121.970050000"><ele>171.0</ele><time>2026-08-30T00:00:00Z</time></trkpt>
<trkpt lat="37.805458000" lon="-121.969950000"><ele>172.0</ele><time>2026-08-30T00:00:00Z</time></trkpt>
<trkpt lat="37.805496000" lon="-121.969850000"><ele>173.0</ele><time>2026-08-30T00:00:00Z</time></trkpt>
<trkpt lat="37.805523000" lon="-121.969750000"><ele>174.1</ele><time>2026-08-30T00:00:00Z</time></trkpt>
<trkpt lat="37.805557000" lon="-121.969650000"><ele>175.2</ele><time>2026-08-30T00:00:00Z</time></trkpt>
<trkpt lat="37.805588000" lon="-121.969550000"><ele>176.3</ele><time>2026-08-30T00:00:00Z</time></trkpt>
<trkpt lat="37.805620000" lon="-121.969440000"><ele>177.2</ele><time>2026-08-30T00:00:00Z</time></trkpt>
<trkpt lat="37.805634000" lon="-121.969330000"><ele>178.2</ele><time>2026-08-30T00:00:00Z</time></trkpt>
<trkpt lat="37.805653000" lon="-121.969215000"><ele>179.2</ele><time>2026-08-30T00:00:00Z</time></trkpt>
<trkpt lat="37.805668000" lon="-121.969110000"><ele>180.1</ele><time>2026-08-30T00:00:00Z</time></trkpt>
<trkpt lat="37.805683000" lon="-121.969010000"><ele>181.1</ele><time>2026-08-30T00:00:00Z</time></trkpt>
<trkpt lat="37.805720000" lon="-121.968910000"><ele>182.2</ele><time>2026-08-30T00:00:00Z</time></trkpt>
<trkpt lat="37.805720000" lon="-121.968790000"><ele>183.3</ele><time>2026-08-30T00:00:00Z</time></trkpt>
<trkpt lat="37.805730000" lon="-121.968690000"><ele>184.5</ele><time>2026-08-30T00:00:00Z</time></trkpt>
<trkpt lat="37.805733000" lon="-121.968580000"><ele>185.8</ele><time>2026-08-30T00:00:00Z</time></trkpt>
<trkpt lat="37.805730000" lon="-121.968460000"><ele>187.2</ele><time>2026-08-30T00:00:00Z</time></trkpt>
<trkpt lat="37.805720000" lon="-121.968346000"><ele>188.6</ele><time>2026-08-30T00:00:00Z</time></trkpt>
<trkpt lat="37.805720000" lon="-121.968230000"><ele>190.2</ele><time>2026-08-30T00:00:00Z</time></trkpt>
<trkpt lat="37.805725000" lon="-121.968130000"><ele>191.8</ele><time>2026-08-30T00:00:00Z</time></trkpt>
<trkpt lat="37.805720000" lon="-121.968025000"><ele>193.5</ele><time>2026-08-30T00:00:00Z</time></trkpt>
<trkpt lat="37.805717000" lon="-121.967910000"><ele>195.3</ele><time>2026-08-30T00:00:00Z</time></trkpt>
<trkpt lat="37.805714000" lon="-121.967804000"><ele>196.8</ele><time>2026-08-30T00:00:00Z</time></trkpt>
<trkpt lat="37.805702000" lon="-121.967690000"><ele>198.2</ele><time>2026-08-30T00:00:00Z</time></trkpt>
<trkpt lat="37.805700000" lon="-121.967580000"><ele>199.2</ele><time>2026-08-30T00:00:00Z</time></trkpt>
<trkpt lat="37.805660000" lon="-121.967480000"><ele>199.7</ele><time>2026-08-30T00:00:00Z</time></trkpt>
<trkpt lat="37.805725000" lon="-121.967415000"><ele>199.9</ele><time>2026-08-30T00:00:00Z</time></trkpt>
<trkpt lat="37.805810000" lon="-121.967470000"><ele>199.8</ele><time>2026-08-30T00:00:00Z</time></trkpt>
<trkpt lat="37.805830000" lon="-121.967575000"><ele>199.4</ele><time>2026-08-30T00:00:00Z</time></trkpt>
<trkpt lat="37.805860000" lon="-121.967674000"><ele>198.6</ele><time>2026-08-30T00:00:00Z</time></trkpt>
<trkpt lat="37.805832000" lon="-121.967770000"><ele>197.5</ele><time>2026-08-30T00:00:00Z</time></trkpt>
<trkpt lat="37.805817000" lon="-121.967880000"><ele>196.0</ele><time>2026-08-30T00:00:00Z</time></trkpt>
<trkpt lat="37.805763000" lon="-121.967964000"><ele>194.4</ele><time>2026-08-30T00:00:00Z</time></trkpt>
<trkpt lat="37.805760000" lon="-121.968080000"><ele>192.6</ele><time>2026-08-30T00:00:00Z</time></trkpt>
<trkpt lat="37.805763000" lon="-121.968185000"><ele>190.9</ele><time>2026-08-30T00:00:00Z</time></trkpt>
<trkpt lat="37.805770000" lon="-121.968290000"><ele>189.3</ele><time>2026-08-30T00:00:00Z</time></trkpt>
<trkpt lat="37.805780000" lon="-121.968400000"><ele>187.8</ele><time>2026-08-30T00:00:00Z</time></trkpt>
<trkpt lat="37.805780000" lon="-121.968520000"><ele>186.5</ele><time>2026-08-30T00:00:00Z</time></trkpt>
<trkpt lat="37.805780000" lon="-121.968630000"><ele>185.3</ele><time>2026-08-30T00:00:00Z</time></trkpt>
<trkpt lat="37.805782000" lon="-121.968735000"><ele>184.1</ele><time>2026-08-30T00:00:00Z</time></trkpt>
<trkpt lat="37.805786000" lon="-121.968840000"><ele>182.9</ele><time>2026-08-30T00:00:00Z</time></trkpt>
<trkpt lat="37.805760000" lon="-121.968956000"><ele>181.9</ele><time>2026-08-30T00:00:00Z</time></trkpt>
<trkpt lat="37.805750000" lon="-121.969060000"><ele>180.9</ele><time>2026-08-30T00:00:00Z</time></trkpt>
<trkpt lat="37.805733000" lon="-121.969170000"><ele>180.0</ele><time>2026-08-30T00:00:00Z</time></trkpt>
<trkpt lat="37.805744000" lon="-121.969270000"><ele>179.1</ele><time>2026-08-30T00:00:00Z</time></trkpt>
<trkpt lat="37.805700000" lon="-121.969360000"><ele>178.2</ele><time>2026-08-30T00:00:00Z</time></trkpt>
<trkpt lat="37.805670000" lon="-121.969460000"><ele>177.3</ele><time>2026-08-30T00:00:00Z</time></trkpt>
<trkpt lat="37.805634000" lon="-121.969570000"><ele>176.3</ele><time>2026-08-30T00:00:00Z</time></trkpt>
<trkpt lat="37.805600000" lon="-121.969670000"><ele>175.2</ele><time>2026-08-30T00:00:00Z</time></trkpt>
<trkpt lat="37.805573000" lon="-121.969780000"><ele>174.1</ele><time>2026-08-30T00:00:00Z</time></trkpt>
<trkpt lat="37.805542000" lon="-121.969890000"><ele>173.0</ele><time>2026-08-30T00:00:00Z</time></trkpt>
<trkpt lat="37.805504000" lon="-121.969986000"><ele>172.0</ele><time>2026-08-30T00:00:00Z</time></trkpt>
<trkpt lat="37.805460000" lon="-121.970080000"><ele>171.0</ele><time>2026-08-30T00:00:00Z</time></trkpt>
<trkpt lat="37.805405000" lon="-121.970170000"><ele>170.0</ele><time>2026-08-30T00:00:00Z</time></trkpt>
<trkpt lat="37.805360000" lon="-121.970270000"><ele>169.0</ele><time>2026-08-30T00:00:00Z</time></trkpt>
<trkpt lat="37.805300000" lon="-121.970360000"><ele>168.0</ele><time>2026-08-30T00:00:00Z</time></trkpt>
<trkpt lat="37.805240000" lon="-121.970450000"><ele>167.0</ele><time>2026-08-30T00:00:00Z</time></trkpt>
<trkpt lat="37.805180000" lon="-121.970530000"><ele>166.0</ele><time>2026-08-30T00:00:00Z</time></trkpt>
<trkpt lat="37.805115000" lon="-121.970600000"><ele>165.0</ele><time>2026-08-30T00:00:00Z</time></trkpt>
<trkpt lat="37.805046000" lon="-121.970670000"><ele>164.0</ele><time>2026-08-30T00:00:00Z</time></trkpt>
<trkpt lat="37.804977000" lon="-121.970760000"><ele>163.0</ele><time>2026-08-30T00:00:00Z</time></trkpt>
<trkpt lat="37.804905000" lon="-121.970830000"><ele>162.1</ele><time>2026-08-30T00:00:00Z</time></trkpt>
<trkpt lat="37.804836000" lon="-121.970920000"><ele>161.2</ele><time>2026-08-30T00:00:00Z</time></trkpt>
<trkpt lat="37.804764000" lon="-121.970980000"><ele>160.5</ele><time>2026-08-30T00:00:00Z</time></trkpt>
<trkpt lat="37.804703000" lon="-121.971050000"><ele>159.8</ele><time>2026-08-30T00:00:00Z</time></trkpt>
<trkpt lat="37.804640000" lon="-121.971130000"><ele>159.4</ele><time>2026-08-30T00:00:00Z</time></trkpt>
<trkpt lat="37.804585000" lon="-121.971220000"><ele>159.1</ele><time>2026-08-30T00:00:00Z</time></trkpt>
<trkpt lat="37.804516000" lon="-121.971300000"><ele>159.1</ele><time>2026-08-30T00:00:00Z</time></trkpt>
<trkpt lat="37.804607000" lon="-121.971310000"><ele>159.3</ele><time>2026-08-30T00:00:00Z</time></trkpt>
<trkpt lat="37.804688000" lon="-121.971330000"><ele>159.7</ele><time>2026-08-30T00:00:00Z</time></trkpt>
<trkpt lat="37.804764000" lon="-121.971370000"><ele>160.4</ele><time>2026-08-30T00:00:00Z</time></trkpt>
<trkpt lat="37.804850000" lon="-121.971420000"><ele>161.2</ele><time>2026-08-30T00:00:00Z</time></trkpt>
<trkpt lat="37.804935000" lon="-121.971480000"><ele>162.0</ele><time>2026-08-30T00:00:00Z</time></trkpt>
<trkpt lat="37.805020000" lon="-121.971504000"><ele>163.0</ele><time>2026-08-30T00:00:00Z</time></trkpt>
<trkpt lat="37.805110000" lon="-121.971510000"><ele>163.9</ele><time>2026-08-30T00:00:00Z</time></trkpt>
<trkpt lat="37.805190000" lon="-121.971520000"><ele>164.7</ele><time>2026-08-30T00:00:00Z</time></trkpt>
<trkpt lat="37.805275000" lon="-121.971510000"><ele>165.4</ele><time>2026-08-30T00:00:00Z</time></trkpt>
<trkpt lat="37.805367000" lon="-121.971480000"><ele>165.8</ele><time>2026-08-30T00:00:00Z</time></trkpt>
<trkpt lat="37.805450000" lon="-121.971450000"><ele>165.9</ele><time>2026-08-30T00:00:00Z</time></trkpt>
<trkpt lat="37.805397000" lon="-121.971540000"><ele>165.8</ele><time>2026-08-30T00:00:00Z</time></trkpt>
<trkpt lat="37.805300000" lon="-121.971560000"><ele>165.5</ele><time>2026-08-30T00:00:00Z</time></trkpt>
<trkpt lat="37.805210000" lon="-121.971590000"><ele>164.9</ele><time>2026-08-30T00:00:00Z</time></trkpt>
<trkpt lat="37.805120000" lon="-121.971590000"><ele>164.1</ele><time>2026-08-30T00:00:00Z</time></trkpt>
<trkpt lat="37.805027000" lon="-121.971580000"><ele>163.3</ele><time>2026-08-30T00:00:00Z</time></trkpt>
<trkpt lat="37.804935000" lon="-121.971570000"><ele>162.4</ele><time>2026-08-30T00:00:00Z</time></trkpt>
<trkpt lat="37.804844000" lon="-121.971530000"><ele>161.4</ele><time>2026-08-30T00:00:00Z</time></trkpt>
<trkpt lat="37.804768000" lon="-121.971470000"><ele>160.5</ele><time>2026-08-30T00:00:00Z</time></trkpt>
<trkpt lat="37.804688000" lon="-121.971405000"><ele>159.5</ele><time>2026-08-30T00:00:00Z</time></trkpt>
<trkpt lat="37.804623000" lon="-121.971320000"><ele>158.7</ele><time>2026-08-30T00:00:00Z</time></trkpt>
<trkpt lat="37.804554000" lon="-121.971245000"><ele>157.9</ele><time>2026-08-30T00:00:00Z</time></trkpt>
<trkpt lat="37.804485000" lon="-121.971320000"><ele>157.1</ele><time>2026-08-30T00:00:00Z</time></trkpt>
<trkpt lat="37.804430000" lon="-121.971400000"><ele>156.3</ele><time>2026-08-30T00:00:00Z</time></trkpt>
<trkpt lat="37.804370000" lon="-121.971470000"><ele>155.5</ele><time>2026-08-30T00:00:00Z</time></trkpt>
<trkpt lat="37.804306000" lon="-121.971540000"><ele>154.7</ele><time>2026-08-30T00:00:00Z</time></trkpt>
<trkpt lat="37.804245000" lon="-121.971610000"><ele>153.9</ele><time>2026-08-30T00:00:00Z</time></trkpt>
<trkpt lat="37.804184000" lon="-121.971695000"><ele>153.1</ele><time>2026-08-30T00:00:00Z</time></trkpt>
<trkpt lat="37.804104000" lon="-121.971720000"><ele>152.3</ele><time>2026-08-30T00:00:00Z</time></trkpt>
<trkpt lat="37.804040000" lon="-121.971790000"><ele>151.4</ele><time>2026-08-30T00:00:00Z</time></trkpt>
<trkpt lat="37.803967000" lon="-121.971855000"><ele>150.5</ele><time>2026-08-30T00:00:00Z</time></trkpt>
<trkpt lat="37.803894000" lon="-121.971924000"><ele>149.5</ele><time>2026-08-30T00:00:00Z</time></trkpt>
<trkpt lat="37.803830000" lon="-121.972000000"><ele>148.7</ele><time>2026-08-30T00:00:00Z</time></trkpt>
<trkpt lat="37.803764000" lon="-121.972084000"><ele>148.0</ele><time>2026-08-30T00:00:00Z</time></trkpt>
<trkpt lat="37.803703000" lon="-121.972160000"><ele>147.3</ele><time>2026-08-30T00:00:00Z</time></trkpt>
<trkpt lat="37.803640000" lon="-121.972220000"><ele>146.7</ele><time>2026-08-30T00:00:00Z</time></trkpt>
<trkpt lat="37.803562000" lon="-121.972290000"><ele>146.3</ele><time>2026-08-30T00:00:00Z</time></trkpt>
<trkpt lat="37.803505000" lon="-121.972374000"><ele>146.0</ele><time>2026-08-30T00:00:00Z</time></trkpt>
<trkpt lat="37.803450000" lon="-121.972450000"><ele>145.7</ele><time>2026-08-30T00:00:00Z</time></trkpt>
<trkpt lat="37.803402000" lon="-121.972534000"><ele>145.5</ele><time>2026-08-30T00:00:00Z</time></trkpt>
<trkpt lat="37.803430000" lon="-121.972640000"><ele>145.5</ele><time>2026-08-30T00:00:00Z</time></trkpt>
<trkpt lat="37.803497000" lon="-121.972700000"><ele>145.5</ele><time>2026-08-30T00:00:00Z</time></trkpt>
<trkpt lat="37.803562000" lon="-121.972786000"><ele>145.5</ele><time>2026-08-30T00:00:00Z</time></trkpt>
<trkpt lat="37.803640000" lon="-121.972850000"><ele>145.5</ele><time>2026-08-30T00:00:00Z</time></trkpt>
<trkpt lat="37.803677000" lon="-121.972940000"><ele>145.5</ele><time>2026-08-30T00:00:00Z</time></trkpt>
<trkpt lat="37.803734000" lon="-121.973040000"><ele>145.5</ele><time>2026-08-30T00:00:00Z</time></trkpt>
<trkpt lat="37.803760000" lon="-121.973140000"><ele>145.3</ele><time>2026-08-30T00:00:00Z</time></trkpt>
<trkpt lat="37.803772000" lon="-121.973240000"><ele>145.0</ele><time>2026-08-30T00:00:00Z</time></trkpt>
<trkpt lat="37.803795000" lon="-121.973360000"><ele>144.5</ele><time>2026-08-30T00:00:00Z</time></trkpt>
<trkpt lat="37.803810000" lon="-121.973470000"><ele>144.0</ele><time>2026-08-30T00:00:00Z</time></trkpt>
<trkpt lat="37.803825000" lon="-121.973580000"><ele>143.4</ele><time>2026-08-30T00:00:00Z</time></trkpt>
<trkpt lat="37.803814000" lon="-121.973700000"><ele>142.7</ele><time>2026-08-30T00:00:00Z</time></trkpt>
<trkpt lat="37.803818000" lon="-121.973810000"><ele>142.2</ele><time>2026-08-30T00:00:00Z</time></trkpt>
<trkpt lat="37.803818000" lon="-121.973930000"><ele>141.8</ele><time>2026-08-30T00:00:00Z</time></trkpt>
<trkpt lat="37.803814000" lon="-121.974030000"><ele>141.4</ele><time>2026-08-30T00:00:00Z</time></trkpt>
<trkpt lat="37.803864000" lon="-121.974110000"><ele>141.0</ele><time>2026-08-30T00:00:00Z</time></trkpt>
<trkpt lat="37.803955000" lon="-121.974130000"><ele>140.6</ele><time>2026-08-30T00:00:00Z</time></trkpt>
<trkpt lat="37.803990000" lon="-121.974106000"><ele>140.2</ele><time>2026-08-30T00:00:00Z</time></trkpt>
</trkseg>
</trk>
</gpx>
