<?xml version="1.0" encoding="UTF-8"?>
<gpx
  version="1.1"
  creator="Runkeeper - http://www.runkeeper.com"
  xmlns:xsi="http://www.w3.org/2001/XMLSchema-instance"
  xmlns="http://www.topografix.com/GPX/1/1"
  xsi:schemaLocation="http://www.topografix.com/GPX/1/1 http://www.topografix.com/GPX/1/1/gpx.xsd"
  xmlns:gpxtpx="http://www.garmin.com/xmlschemas/TrackPointExtension/v1">
<trk>
  <name><![CDATA[Walking 8/22/26]]></name>
  <time>2026-08-23T00:00:00Z</time>
<trkseg>
<trkpt lat="37.798880000" lon="-121.979840000"><ele>127.3</ele><time>2026-08-23T00:00:00Z</time></trkpt>
<trkpt lat="37.798798000" lon="-121.979810000"><ele>127.4</ele><time>2026-08-23T00:00:00Z</time></trkpt>
<trkpt lat="37.798720000" lon="-121.979760000"><ele>127.5</ele><time>2026-08-23T00:00:00Z</time></trkpt>
<trkpt lat="37.798630000" lon="-121.979760000"><ele>127.6</ele><time>2026-08-23T00:00:00Z</time></trkpt>
<trkpt lat="37.798588000" lon="-121.979850000"><ele>127.6</ele><time>2026-08-23T00:00:00Z</time></trkpt>
<trkpt lat="37.798550000" lon="-121.979960000"><ele>127.6</ele><time>2026-08-23T00:00:00Z</time></trkpt>
<trkpt lat="37.798504000" lon="-121.980050000"><ele>127.8</ele><time>2026-08-23T00:00:00Z</time></trkpt>
<trkpt lat="37.798460000" lon="-121.980130000"><ele>127.9</ele><time>2026-08-23T00:00:00Z</time></trkpt>
<trkpt lat="37.798397000" lon="-121.980225000"><ele>128.0</ele><time>2026-08-23T00:00:00Z</time></trkpt>
<trkpt lat="37.798340000" lon="-121.980310000"><ele>128.1</ele><time>2026-08-23T00:00:00Z</time></trkpt>
<trkpt lat="37.798280000" lon="-121.980380000"><ele>128.1</ele><time>2026-08-23T00:00:00Z</time></trkpt>
<trkpt lat="37.798218000" lon="-121.980450000"><ele>128.1</ele><time>2026-08-23T00:00:00Z</time></trkpt>
<trkpt lat="37.798153000" lon="-121.980515000"><ele>128.1</ele><time>2026-08-23T00:00:00Z</time></trkpt>
<trkpt lat="37.798187000" lon="-121.980420000"><ele>128.1</ele><time>2026-08-23T00:00:00Z</time></trkpt>
<trkpt lat="37.798252000" lon="-121.980350000"><ele>128.1</ele><time>2026-08-23T00:00:00Z</time></trkpt>
<trkpt lat="37.798320000" lon="-121.980270000"><ele>128.1</ele><time>2026-08-23T00:00:00Z</time></trkpt>
<trkpt lat="37.798378000" lon="-121.980194000"><ele>128.0</ele><time>2026-08-23T00:00:00Z</time></trkpt>
<trkpt lat="37.798420000" lon="-121.980095000"><ele>127.8</ele><time>2026-08-23T00:00:00Z</time></trkpt>
<trkpt lat="37.798424000" lon="-121.979990000"><ele>127.8</ele><time>2026-08-23T00:00:00Z</time></trkpt>
<trkpt lat="37.798492000" lon="-121.979935000"><ele>127.8</ele><time>2026-08-23T00:00:00Z</time></trkpt>
<trkpt lat="37.798540000" lon="-121.979836000"><ele>127.8</ele><time>2026-08-23T00:00:00Z</time></trkpt>
<trkpt lat="37.798576000" lon="-121.979740000"><ele>127.8</ele><time>2026-08-23T00:00:00Z</time></trkpt>
<trkpt lat="37.798610000" lon="-121.979640000"><ele>127.8</ele><time>2026-08-23T00:00:00Z</time></trkpt>
<trkpt lat="37.798656000" lon="-121.979546000"><ele>127.9</ele><time>2026-08-23T00:00:00Z</time></trkpt>
<trkpt lat="37.798695000" lon="-121.979454000"><ele>128.0</ele><time>2026-08-23T00:00:00Z</time></trkpt>
<trkpt lat="37.798737000" lon="-121.979355000"><ele>128.1</ele><time>2026-08-23T00:00:00Z</time></trkpt>
<trkpt lat="37.798744000" lon="-121.979230000"><ele>128.2</ele><time>2026-08-23T00:00:00Z</time></trkpt>
<trkpt lat="37.798760000" lon="-121.979126000"><ele>128.4</ele><time>2026-08-23T00:00:00Z</time></trkpt>
<trkpt lat="37.798748000" lon="-121.979010000"><ele>128.5</ele><time>2026-08-23T00:00:00Z</time></trkpt>
<trkpt lat="37.798756000" lon="-121.978900000"><ele>128.6</ele><time>2026-08-23T00:00:00Z</time></trkpt>
<trkpt lat="37.798763000" lon="-121.978780000"><ele>128.7</ele><time>2026-08-23T00:00:00Z</time></trkpt>
<trkpt lat="37.798767000" lon="-121.978670000"><ele>128.8</ele><time>2026-08-23T00:00:00Z</time></trkpt>
<trkpt lat="37.798767000" lon="-121.978560000"><ele>128.9</ele><time>2026-08-23T00:00:00Z</time></trkpt>
<trkpt lat="37.798780000" lon="-121.978455000"><ele>129.0</ele><time>2026-08-23T00:00:00Z</time></trkpt>
<trkpt lat="37.798798000" lon="-121.978350000"><ele>129.0</ele><time>2026-08-23T00:00:00Z</time></trkpt>
<trkpt lat="37.798794000" lon="-121.978226000"><ele>129.0</ele><time>2026-08-23T00:00:00Z</time></trkpt>
<trkpt lat="37.798805000" lon="-121.978120000"><ele>129.0</ele><time>2026-08-23T00:00:00Z</time></trkpt>
<trkpt lat="37.798800000" lon="-121.978004000"><ele>128.9</ele><time>2026-08-23T00:00:00Z</time></trkpt>
<trkpt lat="37.798800000" lon="-121.977880000"><ele>128.9</ele><time>2026-08-23T00:00:00Z</time></trkpt>
<trkpt lat="37.798763000" lon="-121.977790000"><ele>128.9</ele><time>2026-08-23T00:00:00Z</time></trkpt>
<trkpt lat="37.798695000" lon="-121.977730000"><ele>128.9</ele><time>2026-08-23T00:00:00Z</time></trkpt>
<trkpt lat="37.798620000" lon="-121.977670000"><ele>128.9</ele><time>2026-08-23T00:00:00Z</time></trkpt>
<trkpt lat="37.798534000" lon="-121.977620000"><ele>128.9</ele><time>2026-08-23T00:00:00Z</time></trkpt>
<trkpt lat="37.798500000" lon="-121.977715000"><ele>128.9</ele><time>2026-08-23T00:00:00Z</time></trkpt>
<trkpt lat="37.798412000" lon="-121.977740000"><ele>128.9</ele><time>2026-08-23T00:00:00Z</time></trkpt>
<trkpt lat="37.798340000" lon="-121.977776000"><ele>128.9</ele><time>2026-08-23T00:00:00Z</time></trkpt>
<trkpt lat="37.798264000" lon="-121.977840000"><ele>128.9</ele><time>2026-08-23T00:00:00Z</time></trkpt>
<trkpt lat="37.798195000" lon="-121.977905000"><ele>128.9</ele><time>2026-08-23T00:00:00Z</time></trkpt>
<trkpt lat="37.798145000" lon="-121.977990000"><ele>129.1</ele><time>2026-08-23T00:00:00Z</time></trkpt>
<trkpt lat="37.798115000" lon="-121.978090000"><ele>129.2</ele><time>2026-08-23T00:00:00Z</time></trkpt>
<trkpt lat="37.798100000" lon="-121.978200000"><ele>129.3</ele><time>2026-08-23T00:00:00Z</time></trkpt>
<trkpt lat="37.798096000" lon="-121.978320000"><ele>129.3</ele><time>2026-08-23T00:00:00Z</time></trkpt>
<trkpt lat="37.798130000" lon="-121.978410000"><ele>129.3</ele><time>2026-08-23T00:00:00Z</time></trkpt>
<trkpt lat="37.798160000" lon="-121.978516000"><ele>129.3</ele><time>2026-08-23T00:00:00Z</time></trkpt>
<trkpt lat="37.798157000" lon="-121.978640000"><ele>129.3</ele><time>2026-08-23T00:00:00Z</time></trkpt>
<trkpt lat="37.798153000" lon="-121.978745000"><ele>129.3</ele><time>2026-08-23T00:00:00Z</time></trkpt>
<trkpt lat="37.798153000" lon="-121.978850000"><ele>129.3</ele><time>2026-08-23T00:00:00Z</time></trkpt>
<trkpt lat="37.798145000" lon="-121.978960000"><ele>129.2</ele><time>2026-08-23T00:00:00Z</time></trkpt>
<trkpt lat="37.798140000" lon="-121.979065000"><ele>129.1</ele><time>2026-08-23T00:00:00Z</time></trkpt>
<trkpt lat="37.798145000" lon="-121.979170000"><ele>128.9</ele><time>2026-08-23T00:00:00Z</time></trkpt>
<trkpt lat="37.798145000" lon="-121.979294000"><ele>128.7</ele><time>2026-08-23T00:00:00Z</time></trkpt>
<trkpt lat="37.798164000" lon="-121.979400000"><ele>128.5</ele><time>2026-08-23T00:00:00Z</time></trkpt>
<trkpt lat="37.798250000" lon="-121.979416000"><ele>128.5</ele><time>2026-08-23T00:00:00Z</time></trkpt>
<trkpt lat="37.798332000" lon="-121.979440000"><ele>128.4</ele><time>2026-08-23T00:00:00Z</time></trkpt>
<trkpt lat="37.798424000" lon="-121.979454000"><ele>128.3</ele><time>2026-08-23T00:00:00Z</time></trkpt>
<trkpt lat="37.798508000" lon="-121.979485000"><ele>128.3</ele><time>2026-08-23T00:00:00Z</time></trkpt>
<trkpt lat="37.798584000" lon="-121.979546000"><ele>128.3</ele><time>2026-08-23T00:00:00Z</time></trkpt>
<trkpt lat="37.798542000" lon="-121.979645000"><ele>128.3</ele><time>2026-08-23T00:00:00Z</time></trkpt>
<trkpt lat="37.798462000" lon="-121.979640000"><ele>128.4</ele><time>2026-08-23T00:00:00Z</time></trkpt>
<trkpt lat="37.798378000" lon="-121.979610000"><ele>128.5</ele><time>2026-08-23T00:00:00Z</time></trkpt>
<trkpt lat="37.798294000" lon="-121.979580000"><ele>128.5</ele><time>2026-08-23T00:00:00Z</time></trkpt>
<trkpt lat="37.798214000" lon="-121.979560000"><ele>128.6</ele><time>2026-08-23T00:00:00Z</time></trkpt>
<trkpt lat="37.798130000" lon="-121.979550000"><ele>128.7</ele><time>2026-08-23T00:00:00Z</time></trkpt>
<trkpt lat="37.798040000" lon="-121.979540000"><ele>128.8</ele><time>2026-08-23T00:00:00Z</time></trkpt>
<trkpt lat="37.797955000" lon="-121.979530000"><ele>128.9</ele><time>2026-08-23T00:00:00Z</time></trkpt>
<trkpt lat="37.797870000" lon="-121.979540000"><ele>129.0</ele><time>2026-08-23T00:00:00Z</time></trkpt>
<trkpt lat="37.797780000" lon="-121.979540000"><ele>129.0</ele><time>2026-08-23T00:00:00Z</time></trkpt>
<trkpt lat="37.797695000" lon="-121.979540000"><ele>129.0</ele><time>2026-08-23T00:00:00Z</time></trkpt>
<trkpt lat="37.797604000" lon="-121.979530000"><ele>129.0</ele><time>2026-08-23T00:00:00Z</time></trkpt>
<trkpt lat="37.797512000" lon="-121.979540000"><ele>129.1</ele><time>2026-08-23T00:00:00Z</time></trkpt>
<trkpt lat="37.797424000" lon="-121.979540000"><ele>129.2</ele><time>2026-08-23T00:00:00Z</time></trkpt>
<trkpt lat="37.797344000" lon="-121.979530000"><ele>129.3</ele><time>2026-08-23T00:00:00Z</time></trkpt>
<trkpt lat="37.797264000" lon="-121.979530000"><ele>129.4</ele><time>2026-08-23T00:00:00Z</time></trkpt>
<trkpt lat="37.797184000" lon="-121.979546000"><ele>129.5</ele><time>2026-08-23T00:00:00Z</time></trkpt>
<trkpt lat="37.797146000" lon="-121.979640000"><ele>129.5</ele><time>2026-08-23T00:00:00Z</time></trkpt>
<trkpt lat="37.797146000" lon="-121.979750000"><ele>129.5</ele><time>2026-08-23T00:00:00Z</time></trkpt>
<trkpt lat="37.797146000" lon="-121.979850000"><ele>129.5</ele><time>2026-08-23T00:00:00Z</time></trkpt>
<trkpt lat="37.797157000" lon="-121.979960000"><ele>129.5</ele><time>2026-08-23T00:00:00Z</time></trkpt>
<trkpt lat="37.797165000" lon="-121.980070000"><ele>129.6</ele><time>2026-08-23T00:00:00Z</time></trkpt>
<trkpt lat="37.797170000" lon="-121.980180000"><ele>129.6</ele><time>2026-08-23T00:00:00Z</time></trkpt>
<trkpt lat="37.797203000" lon="-121.980270000"><ele>129.6</ele><time>2026-08-23T00:00:00Z</time></trkpt>
<trkpt lat="37.797268000" lon="-121.980354000"><ele>129.6</ele><time>2026-08-23T00:00:00Z</time></trkpt>
<trkpt lat="37.797256000" lon="-121.980460000"><ele>129.6</ele><time>2026-08-23T00:00:00Z</time></trkpt>
<trkpt lat="37.797176000" lon="-121.980400000"><ele>129.6</ele><time>2026-08-23T00:00:00Z</time></trkpt>
<trkpt lat="37.797123000" lon="-121.980316000"><ele>129.6</ele><time>2026-08-23T00:00:00Z</time></trkpt>
<trkpt lat="37.797090000" lon="-121.980210000"><ele>129.7</ele><time>2026-08-23T00:00:00Z</time></trkpt>
<trkpt lat="37.797092000" lon="-121.980095000"><ele>129.8</ele><time>2026-08-23T00:00:00Z</time></trkpt>
<trkpt lat="37.797090000" lon="-121.979990000"><ele>129.9</ele><time>2026-08-23T00:00:00Z</time></trkpt>
<trkpt lat="37.797090000" lon="-121.979880000"><ele>129.9</ele><time>2026-08-23T00:00:00Z</time></trkpt>
<trkpt lat="37.797080000" lon="-121.979774000"><ele>129.9</ele><time>2026-08-23T00:00:00Z</time></trkpt>
<trkpt lat="37.797077000" lon="-121.979670000"><ele>130.0</ele><time>2026-08-23T00:00:00Z</time></trkpt>
<trkpt lat="37.797070000" lon="-121.979560000"><ele>130.0</ele><time>2026-08-23T00:00:00Z</time></trkpt>
<trkpt lat="37.797054000" lon="-121.979450000"><ele>130.0</ele><time>2026-08-23T00:00:00Z</time></trkpt>
<trkpt lat="37.797077000" lon="-121.979350000"><ele>130.0</ele><time>2026-08-23T00:00:00Z</time></trkpt>
<trkpt lat="37.797092000" lon="-121.979230000"><ele>130.0</ele><time>2026-08-23T00:00:00Z</time></trkpt>
<trkpt lat="37.797092000" lon="-121.979130000"><ele>130.0</ele><time>2026-08-23T00:00:00Z</time></trkpt>
<trkpt lat="37.797100000" lon="-121.979030000"><ele>130.0</ele><time>2026-08-23T00:00:00Z</time></trkpt>
<trkpt lat="37.797115000" lon="-121.978905000"><ele>129.9</ele><time>2026-08-23T00:00:00Z</time></trkpt>
<trkpt lat="37.797115000" lon="-121.978800000"><ele>129.8</ele><time>2026-08-23T00:00:00Z</time></trkpt>
<trkpt lat="37.797110000" lon="-121.978680000"><ele>129.8</ele><time>2026-08-23T00:00:00Z</time></trkpt>
<trkpt lat="37.797115000" lon="-121.978570000"><ele>129.8</ele><time>2026-08-23T00:00:00Z</time></trkpt>
<trkpt lat="37.797142000" lon="-121.978455000"><ele>129.8</ele><time>2026-08-23T00:00:00Z</time></trkpt>
<trkpt lat="37.797207000" lon="-121.978380000"><ele>129.7</ele><time>2026-08-23T00:00:00Z</time></trkpt>
<trkpt lat="37.797290000" lon="-121.978355000"><ele>129.6</ele><time>2026-08-23T00:00:00Z</time></trkpt>
<trkpt lat="37.797375000" lon="-121.978300000"><ele>129.6</ele><time>2026-08-23T00:00:00Z</time></trkpt>
<trkpt lat="37.797450000" lon="-121.978260000"><ele>129.6</ele><time>2026-08-23T00:00:00Z</time></trkpt>
<trkpt lat="37.797390000" lon="-121.978340000"><ele>129.6</ele><time>2026-08-23T00:00:00Z</time></trkpt>
<trkpt lat="37.797314000" lon="-121.978380000"><ele>129.6</ele><time>2026-08-23T00:00:00Z</time></trkpt>
<trkpt lat="37.797237000" lon="-121.978440000"><ele>129.7</ele><time>2026-08-23T00:00:00Z</time></trkpt>
<trkpt lat="37.797207000" lon="-121.978550000"><ele>129.8</ele><time>2026-08-23T00:00:00Z</time></trkpt>
<trkpt lat="37.797195000" lon="-121.978660000"><ele>129.8</ele><time>2026-08-23T00:00:00Z</time></trkpt>
<trkpt lat="37.797188000" lon="-121.978780000"><ele>129.8</ele><time>2026-08-23T00:00:00Z</time></trkpt>
<trkpt lat="37.797184000" lon="-121.978890000"><ele>129.8</ele><time>2026-08-23T00:00:00Z</time></trkpt>
<trkpt lat="37.797176000" lon="-121.979004000"><ele>129.9</ele><time>2026-08-23T00:00:00Z</time></trkpt>
<trkpt lat="37.797173000" lon="-121.979120000"><ele>130.0</ele><time>2026-08-23T00:00:00Z</time></trkpt>
<trkpt lat="37.797160000" lon="-121.979230000"><ele>130.0</ele><time>2026-08-23T00:00:00Z</time></trkpt>
<trkpt lat="37.797123000" lon="-121.979330000"><ele>130.0</ele><time>2026-08-23T00:00:00Z</time></trkpt>
<trkpt lat="37.797047000" lon="-121.979370000"><ele>130.0</ele><time>2026-08-23T00:00:00Z</time></trkpt>
<trkpt lat="37.796963000" lon="-121.979360000"><ele>130.0</ele><time>2026-08-23T00:00:00Z</time></trkpt>
<trkpt lat="37.796870000" lon="-121.979360000"><ele>130.0</ele><time>2026-08-23T00:00:00Z</time></trkpt>
<trkpt lat="37.796776000" lon="-121.979360000"><ele>130.0</ele><time>2026-08-23T00:00:00Z</time></trkpt>
<trkpt lat="37.796688000" lon="-121.979355000"><ele>130.0</ele><time>2026-08-23T00:00:00Z</time></trkpt>
<trkpt lat="37.796600000" lon="-121.979360000"><ele>130.0</ele><time>2026-08-23T00:00:00Z</time></trkpt>
<trkpt lat="37.796540000" lon="-121.979450000"><ele>130.0</ele><time>2026-08-23T00:00:00Z</time></trkpt>
<trkpt lat="37.796482000" lon="-121.979546000"><ele>130.0</ele><time>2026-08-23T00:00:00Z</time></trkpt>
<trkpt lat="37.796455000" lon="-121.979650000"><ele>130.0</ele><time>2026-08-23T00:00:00Z</time></trkpt>
<trkpt lat="37.796444000" lon="-121.979770000"><ele>130.0</ele><time>2026-08-23T00:00:00Z</time></trkpt>
<trkpt lat="37.796432000" lon="-121.979870000"><ele>130.0</ele><time>2026-08-23T00:00:00Z</time></trkpt>
<trkpt lat="37.796432000" lon="-121.979980000"><ele>130.0</ele><time>2026-08-23T00:00:00Z</time></trkpt>
<trkpt lat="37.796402000" lon="-121.979880000"><ele>130.0</ele><time>2026-08-23T00:00:00Z</time></trkpt>
<trkpt lat="37.796406000" lon="-121.979770000"><ele>130.0</ele><time>2026-08-23T00:00:00Z</time></trkpt>
<trkpt lat="37.796406000" lon="-121.979650000"><ele>130.0</ele><time>2026-08-23T00:00:00Z</time></trkpt>
<trkpt lat="37.796406000" lon="-121.979540000"><ele>130.0</ele><time>2026-08-23T00:00:00Z</time></trkpt>
<trkpt lat="37.796400000" lon="-121.979440000"><ele>130.0</ele><time>2026-08-23T00:00:00Z</time></trkpt>
<trkpt lat="37.796400000" lon="-121.979320000"><ele>130.0</ele><time>2026-08-23T00:00:00Z</time></trkpt>
<trkpt lat="37.796413000" lon="-121.979210000"><ele>130.0</ele><time>2026-08-23T00:00:00Z</time></trkpt>
<trkpt lat="37.796420000" lon="-121.979095000"><ele>130.0</ele><time>2026-08-23T00:00:00Z</time></trkpt>
<trkpt lat="37.796425000" lon="-121.978980000"><ele>130.0</ele><time>2026-08-23T00:00:00Z</time></trkpt>
<trkpt lat="37.796440000" lon="-121.978874000"><ele>130.0</ele><time>2026-08-23T00:00:00Z</time></trkpt>
<trkpt lat="37.796436000" lon="-121.978760000"><ele>130.0</ele><time>2026-08-23T00:00:00Z</time></trkpt>
<trkpt lat="37.796436000" lon="-121.978645000"><ele>130.0</ele><time>2026-08-23T00:00:00Z</time></trkpt>
<trkpt lat="37.796370000" lon="-121.978580000"><ele>130.1</ele><time>2026-08-23T00:00:00Z</time></trkpt>
<trkpt lat="37.796280000" lon="-121.978580000"><ele>130.2</ele><time>2026-08-23T00:00:00Z</time></trkpt>
<trkpt lat="37.796192000" lon="-121.978570000"><ele>130.3</ele><time>2026-08-23T00:00:00Z</time></trkpt>
<trkpt lat="37.796104000" lon="-121.978570000"><ele>130.3</ele><time>2026-08-23T00:00:00Z</time></trkpt>
<trkpt lat="37.796013000" lon="-121.978570000"><ele>130.3</ele><time>2026-08-23T00:00:00Z</time></trkpt>
<trkpt lat="37.795925000" lon="-121.978550000"><ele>130.3</ele><time>2026-08-23T00:00:00Z</time></trkpt>
<trkpt lat="37.795840000" lon="-121.978540000"><ele>130.3</ele><time>2026-08-23T00:00:00Z</time></trkpt>
<trkpt lat="37.795770000" lon="-121.978485000"><ele>130.3</ele><time>2026-08-23T00:00:00Z</time></trkpt>
<trkpt lat="37.795680000" lon="-121.978460000"><ele>130.3</ele><time>2026-08-23T00:00:00Z</time></trkpt>
<trkpt lat="37.795643000" lon="-121.978370000"><ele>130.3</ele><time>2026-08-23T00:00:00Z</time></trkpt>
<trkpt lat="37.795734000" lon="-121.978380000"><ele>130.3</ele><time>2026-08-23T00:00:00Z</time></trkpt>
<trkpt lat="37.795822000" lon="-121.978424000"><ele>130.2</ele><time>2026-08-23T00:00:00Z</time></trkpt>
<trkpt lat="37.795910000" lon="-121.978460000"><ele>130.1</ele><time>2026-08-23T00:00:00Z</time></trkpt>
<trkpt lat="37.796005000" lon="-121.978480000"><ele>130.0</ele><time>2026-08-23T00:00:00Z</time></trkpt>
<trkpt lat="37.796090000" lon="-121.978485000"><ele>130.0</ele><time>2026-08-23T00:00:00Z</time></trkpt>
<trkpt lat="37.796177000" lon="-121.978510000"><ele>130.0</ele><time>2026-08-23T00:00:00Z</time></trkpt>
<trkpt lat="37.796265000" lon="-121.978510000"><ele>130.0</ele><time>2026-08-23T00:00:00Z</time></trkpt>
<trkpt lat="37.796350000" lon="-121.978500000"><ele>130.0</ele><time>2026-08-23T00:00:00Z</time></trkpt>
<trkpt lat="37.796430000" lon="-121.978485000"><ele>130.0</ele><time>2026-08-23T00:00:00Z</time></trkpt>
<trkpt lat="37.796467000" lon="-121.978380000"><ele>130.0</ele><time>2026-08-23T00:00:00Z</time></trkpt>
<trkpt lat="37.796470000" lon="-121.978264000"><ele>130.0</ele><time>2026-08-23T00:00:00Z</time></trkpt>
<trkpt lat="37.796470000" lon="-121.978160000"><ele>130.0</ele><time>2026-08-23T00:00:00Z</time></trkpt>
<trkpt lat="37.796455000" lon="-121.978040000"><ele>130.0</ele><time>2026-08-23T00:00:00Z</time></trkpt>
<trkpt lat="37.796440000" lon="-121.977936000"><ele>130.0</ele><time>2026-08-23T00:00:00Z</time></trkpt>
<trkpt lat="37.796436000" lon="-121.977830000"><ele>130.0</ele><time>2026-08-23T00:00:00Z</time></trkpt>
<trkpt lat="37.796470000" lon="-121.977730000"><ele>130.0</ele><time>2026-08-23T00:00:00Z</time></trkpt>
<trkpt lat="37.796550000" lon="-121.977715000"><ele>130.0</ele><time>2026-08-23T00:00:00Z</time></trkpt>
<trkpt lat="37.796640000" lon="-121.977710000"><ele>130.0</ele><time>2026-08-23T00:00:00Z</time></trkpt>
<trkpt lat="37.796726000" lon="-121.977730000"><ele>129.9</ele><time>2026-08-23T00:00:00Z</time></trkpt>
<trkpt lat="37.796814000" lon="-121.977750000"><ele>129.8</ele><time>2026-08-23T00:00:00Z</time></trkpt>
<trkpt lat="37.796900000" lon="-121.977776000"><ele>129.7</ele><time>2026-08-23T00:00:00Z</time></trkpt>
<trkpt lat="37.796993000" lon="-121.977800000"><ele>129.6</ele><time>2026-08-23T00:00:00Z</time></trkpt>
<trkpt lat="37.797080000" lon="-121.977830000"><ele>129.5</ele><time>2026-08-23T00:00:00Z</time></trkpt>
<trkpt lat="37.797170000" lon="-121.977844000"><ele>129.5</ele><time>2026-08-23T00:00:00Z</time></trkpt>
<trkpt lat="37.797253000" lon="-121.977844000"><ele>129.5</ele><time>2026-08-23T00:00:00Z</time></trkpt>
<trkpt lat="37.797333000" lon="-121.977850000"><ele>129.5</ele><time>2026-08-23T00:00:00Z</time></trkpt>
<trkpt lat="37.797417000" lon="-121.977840000"><ele>129.4</ele><time>2026-08-23T00:00:00Z</time></trkpt>
<trkpt lat="37.797510000" lon="-121.977820000"><ele>129.3</ele><time>2026-08-23T00:00:00Z</time></trkpt>
<trkpt lat="37.797592000" lon="-121.977800000"><ele>129.2</ele><time>2026-08-23T00:00:00Z</time></trkpt>
<trkpt lat="37.797680000" lon="-121.977780000"><ele>129.2</ele><time>2026-08-23T00:00:00Z</time></trkpt>
<trkpt lat="37.797768000" lon="-121.977760000"><ele>129.2</ele><time>2026-08-23T00:00:00Z</time></trkpt>
<trkpt lat="37.797855000" lon="-121.977745000"><ele>129.2</ele><time>2026-08-23T00:00:00Z</time></trkpt>
<trkpt lat="37.797947000" lon="-121.977750000"><ele>129.2</ele><time>2026-08-23T00:00:00Z</time></trkpt>
<trkpt lat="37.798030000" lon="-121.977730000"><ele>129.2</ele><time>2026-08-23T00:00:00Z</time></trkpt>
<trkpt lat="37.798110000" lon="-121.977730000"><ele>129.2</ele><time>2026-08-23T00:00:00Z</time></trkpt>
<trkpt lat="37.798195000" lon="-121.977720000"><ele>129.0</ele><time>2026-08-23T00:00:00Z</time></trkpt>
<trkpt lat="37.798275000" lon="-121.977715000"><ele>128.8</ele><time>2026-08-23T00:00:00Z</time></trkpt>
<trkpt lat="37.798367000" lon="-121.977700000"><ele>128.7</ele><time>2026-08-23T00:00:00Z</time></trkpt>
<trkpt lat="37.798454000" lon="-121.977680000"><ele>128.6</ele><time>2026-08-23T00:00:00Z</time></trkpt>
<trkpt lat="37.798542000" lon="-121.977660000"><ele>128.5</ele><time>2026-08-23T00:00:00Z</time></trkpt>
<trkpt lat="37.798634000" lon="-121.977630000"><ele>128.5</ele><time>2026-08-23T00:00:00Z</time></trkpt>
<trkpt lat="37.798717000" lon="-121.977585000"><ele>128.5</ele><time>2026-08-23T00:00:00Z</time></trkpt>
<trkpt lat="37.798750000" lon="-121.977486000"><ele>128.4</ele><time>2026-08-23T00:00:00Z</time></trkpt>
<trkpt lat="37.798737000" lon="-121.977380000"><ele>128.3</ele><time>2026-08-23T00:00:00Z</time></trkpt>
<trkpt lat="37.798725000" lon="-121.977270000"><ele>128.2</ele><time>2026-08-23T00:00:00Z</time></trkpt>
<trkpt lat="37.798700000" lon="-121.977170000"><ele>128.1</ele><time>2026-08-23T00:00:00Z</time></trkpt>
<trkpt lat="37.798622000" lon="-121.977135000"><ele>128.2</ele><time>2026-08-23T00:00:00Z</time></trkpt>
<trkpt lat="37.798542000" lon="-121.977170000"><ele>128.3</ele><time>2026-08-23T00:00:00Z</time></trkpt>
<trkpt lat="37.798466000" lon="-121.977200000"><ele>128.4</ele><time>2026-08-23T00:00:00Z</time></trkpt>
<trkpt lat="37.798378000" lon="-121.977180000"><ele>128.5</ele><time>2026-08-23T00:00:00Z</time></trkpt>
<trkpt lat="37.798298000" lon="-121.977180000"><ele>128.5</ele><time>2026-08-23T00:00:00Z</time></trkpt>
<trkpt lat="37.798210000" lon="-121.977165000"><ele>128.6</ele><time>2026-08-23T00:00:00Z</time></trkpt>
<trkpt lat="37.798126000" lon="-121.977196000"><ele>128.6</ele><time>2026-08-23T00:00:00Z</time></trkpt>
<trkpt lat="37.798190000" lon="-121.977140000"><ele>128.6</ele><time>2026-08-23T00:00:00Z</time></trkpt>
<trkpt lat="37.798264000" lon="-121.977090000"><ele>128.7</ele><time>2026-08-23T00:00:00Z</time></trkpt>
<trkpt lat="37.798347000" lon="-121.977066000"><ele>128.7</ele><time>2026-08-23T00:00:00Z</time></trkpt>
<trkpt lat="37.798428000" lon="-121.977090000"><ele>128.7</ele><time>2026-08-23T00:00:00Z</time></trkpt>
<trkpt lat="37.798515000" lon="-121.977135000"><ele>128.6</ele><time>2026-08-23T00:00:00Z</time></trkpt>
<trkpt lat="37.798590000" lon="-121.977170000"><ele>128.5</ele><time>2026-08-23T00:00:00Z</time></trkpt>
<trkpt lat="37.798664000" lon="-121.977130000"><ele>128.5</ele><time>2026-08-23T00:00:00Z</time></trkpt>
<trkpt lat="37.798725000" lon="-121.977200000"><ele>128.5</ele><time>2026-08-23T00:00:00Z</time></trkpt>
<trkpt lat="37.798730000" lon="-121.977320000"><ele>128.5</ele><time>2026-08-23T00:00:00Z</time></trkpt>
<trkpt lat="37.798733000" lon="-121.977430000"><ele>128.5</ele><time>2026-08-23T00:00:00Z</time></trkpt>
<trkpt lat="37.798737000" lon="-121.977550000"><ele>128.5</ele><time>2026-08-23T00:00:00Z</time></trkpt>
<trkpt lat="37.798805000" lon="-121.977615000"><ele>128.5</ele><time>2026-08-23T00:00:00Z</time></trkpt>
<trkpt lat="37.798878000" lon="-121.977680000"><ele>128.5</ele><time>2026-08-23T00:00:00Z</time></trkpt>
<trkpt lat="37.798965000" lon="-121.977710000"><ele>128.6</ele><time>2026-08-23T00:00:00Z</time></trkpt>
<trkpt lat="37.799057000" lon="-121.977700000"><ele>128.7</ele><time>2026-08-23T00:00:00Z</time></trkpt>
<trkpt lat="37.799140000" lon="-121.977680000"><ele>128.8</ele><time>2026-08-23T00:00:00Z</time></trkpt>
<trkpt lat="37.799236000" lon="-121.977660000"><ele>128.8</ele><time>2026-08-23T00:00:00Z</time></trkpt>
<trkpt lat="37.799328000" lon="-121.977670000"><ele>128.8</ele><time>2026-08-23T00:00:00Z</time></trkpt>
<trkpt lat="37.799420000" lon="-121.977680000"><ele>128.7</ele><time>2026-08-23T00:00:00Z</time></trkpt>
<trkpt lat="37.799477000" lon="-121.977760000"><ele>128.6</ele><time>2026-08-23T00:00:00Z</time></trkpt>
<trkpt lat="37.799520000" lon="-121.977850000"><ele>128.5</ele><time>2026-08-23T00:00:00Z</time></trkpt>
<trkpt lat="37.799510000" lon="-121.977960000"><ele>128.5</ele><time>2026-08-23T00:00:00Z</time></trkpt>
<trkpt lat="37.799507000" lon="-121.978070000"><ele>128.4</ele><time>2026-08-23T00:00:00Z</time></trkpt>
<trkpt lat="37.799500000" lon="-121.978170000"><ele>128.3</ele><time>2026-08-23T00:00:00Z</time></trkpt>
<trkpt lat="37.799496000" lon="-121.978294000"><ele>128.2</ele><time>2026-08-23T00:00:00Z</time></trkpt>
<trkpt lat="37.799488000" lon="-121.978410000"><ele>128.1</ele><time>2026-08-23T00:00:00Z</time></trkpt>
<trkpt lat="37.799484000" lon="-121.978520000"><ele>127.9</ele><time>2026-08-23T00:00:00Z</time></trkpt>
<trkpt lat="37.799484000" lon="-121.978630000"><ele>127.8</ele><time>2026-08-23T00:00:00Z</time></trkpt>
<trkpt lat="37.799484000" lon="-121.978740000"><ele>127.7</ele><time>2026-08-23T00:00:00Z</time></trkpt>
<trkpt lat="37.799473000" lon="-121.978836000"><ele>127.6</ele><time>2026-08-23T00:00:00Z</time></trkpt>
<trkpt lat="37.799458000" lon="-121.978950000"><ele>127.5</ele><time>2026-08-23T00:00:00Z</time></trkpt>
<trkpt lat="37.799460000" lon="-121.979065000"><ele>127.5</ele><time>2026-08-23T00:00:00Z</time></trkpt>
<trkpt lat="37.799458000" lon="-121.979170000"><ele>127.4</ele><time>2026-08-23T00:00:00Z</time></trkpt>
<trkpt lat="37.799450000" lon="-121.979280000"><ele>127.3</ele><time>2026-08-23T00:00:00Z</time></trkpt>
<trkpt lat="37.799423000" lon="-121.979380000"><ele>127.2</ele><time>2026-08-23T00:00:00Z</time></trkpt>
<trkpt lat="37.799408000" lon="-121.979490000"><ele>127.1</ele><time>2026-08-23T00:00:00Z</time></trkpt>
<trkpt lat="37.799390000" lon="-121.979600000"><ele>127.0</ele><time>2026-08-23T00:00:00Z</time></trkpt>
<trkpt lat="37.799362000" lon="-121.979700000"><ele>127.0</ele><time>2026-08-23T00:00:00Z</time></trkpt>
<trkpt lat="37.799328000" lon="-121.979800000"><ele>127.1</ele><time>2026-08-23T00:00:00Z</time></trkpt>
<trkpt lat="37.799294000" lon="-121.979890000"><ele>127.2</ele><time>2026-08-23T00:00:00Z</time></trkpt>
<trkpt lat="37.799232000" lon="-121.979965000"><ele>127.2</ele><time>2026-08-23T00:00:00Z</time></trkpt>
<trkpt lat="37.799160000" lon="-121.980010000"><ele>127.2</ele><time>2026-08-23T00:00:00Z</time></trkpt>
<trkpt lat="37.799076000" lon="-121.980020000"><ele>127.2</ele><time>2026-08-23T00:00:00Z</time></trkpt>
<trkpt lat="37.798992000" lon="-121.979965000"><ele>127.3</ele><time>2026-08-23T00:00:00Z</time></trkpt>
<trkpt lat="37.798958000" lon="-121.979940000"><ele>127.3</ele><time>2026-08-23T00:00:00Z</time></trkpt>
</trkseg>
</trk>
</gpx>
