<?xml version="1.0" encoding="UTF-8"?>
<gpx
  version="1.1"
  creator="Runkeeper - http://www.runkeeper.com"
  xmlns:xsi="http://www.w3.org/2001/XMLSchema-instance"
  xmlns="http://www.topografix.com/GPX/1/1"
  xsi:schemaLocation="http://www.topografix.com/GPX/1/1 http://www.topografix.com/GPX/1/1/gpx.xsd"
  xmlns:gpxtpx="http://www.garmin.com/xmlschemas/TrackPointExtension/v1">
<trk>
  <name><![CDATA[Walking 8/16/26]]></name>
  <time>2026-08-16T00:00:00Z</time>
<trkseg>
<trkpt lat="37.812540000" lon="-121.973330000"><ele>127.7</ele><time>2026-08-16T00:00:00Z</time></trkpt>
<trkpt lat="37.812450000" lon="-121.973340000"><ele>127.7</ele><time>2026-08-16T00:00:00Z</time></trkpt>
<trkpt lat="37.812370000" lon="-121.973320000"><ele>127.9</ele><time>2026-08-16T00:00:00Z</time></trkpt>
<trkpt lat="37.812283000" lon="-121.973280000"><ele>128.0</ele><time>2026-08-16T00:00:00Z</time></trkpt>
<trkpt lat="37.812225000" lon="-121.973190000"><ele>128.1</ele><time>2026-08-16T00:00:00Z</time></trkpt>
<trkpt lat="37.812180000" lon="-121.973090000"><ele>128.3</ele><time>2026-08-16T00:00:00Z</time></trkpt>
<trkpt lat="37.812115000" lon="-121.973010000"><ele>128.5</ele><time>2026-08-16T00:00:00Z</time></trkpt>
<trkpt lat="37.812088000" lon="-121.972900000"><ele>128.9</ele><time>2026-08-16T00:00:00Z</time></trkpt>
<trkpt lat="37.812070000" lon="-121.972786000"><ele>129.2</ele><time>2026-08-16T00:00:00Z</time></trkpt>
<trkpt lat="37.812060000" lon="-121.972680000"><ele>129.5</ele><time>2026-08-16T00:00:00Z</time></trkpt>
<trkpt lat="37.812070000" lon="-121.972560000"><ele>129.7</ele><time>2026-08-16T00:00:00Z</time></trkpt>
<trkpt lat="37.812077000" lon="-121.972450000"><ele>130.1</ele><time>2026-08-16T00:00:00Z</time></trkpt>
<trkpt lat="37.812090000" lon="-121.972340000"><ele>130.5</ele><time>2026-08-16T00:00:00Z</time></trkpt>
<trkpt lat="37.812088000" lon="-121.972230000"><ele>130.9</ele><time>2026-08-16T00:00:00Z</time></trkpt>
<trkpt lat="37.812084000" lon="-121.972115000"><ele>131.4</ele><time>2026-08-16T00:00:00Z</time></trkpt>
<trkpt lat="37.812090000" lon="-121.972000000"><ele>131.9</ele><time>2026-08-16T00:00:00Z</time></trkpt>
<trkpt lat="37.812103000" lon="-121.971890000"><ele>132.4</ele><time>2026-08-16T00:00:00Z</time></trkpt>
<trkpt lat="37.812107000" lon="-121.971780000"><ele>132.9</ele><time>2026-08-16T00:00:00Z</time></trkpt>
<trkpt lat="37.812107000" lon="-121.971660000"><ele>133.4</ele><time>2026-08-16T00:00:00Z</time></trkpt>
<trkpt lat="37.812103000" lon="-121.971550000"><ele>133.8</ele><time>2026-08-16T00:00:00Z</time></trkpt>
<trkpt lat="37.812090000" lon="-121.971430000"><ele>134.4</ele><time>2026-08-16T00:00:00Z</time></trkpt>
<trkpt lat="37.812084000" lon="-121.971310000"><ele>134.9</ele><time>2026-08-16T00:00:00Z</time></trkpt>
<trkpt lat="37.812073000" lon="-121.971210000"><ele>135.4</ele><time>2026-08-16T00:00:00Z</time></trkpt>
<trkpt lat="37.812054000" lon="-121.971100000"><ele>135.7</ele><time>2026-08-16T00:00:00Z</time></trkpt>
<trkpt lat="37.812040000" lon="-121.970990000"><ele>136.1</ele><time>2026-08-16T00:00:00Z</time></trkpt>
<trkpt lat="37.812020000" lon="-121.970894000"><ele>136.4</ele><time>2026-08-16T00:00:00Z</time></trkpt>
<trkpt lat="37.811996000" lon="-121.970780000"><ele>136.6</ele><time>2026-08-16T00:00:00Z</time></trkpt>
<trkpt lat="37.811974000" lon="-121.970670000"><ele>136.9</ele><time>2026-08-16T00:00:00Z</time></trkpt>
<trkpt lat="37.811950000" lon="-121.970560000"><ele>137.1</ele><time>2026-08-16T00:00:00Z</time></trkpt>
<trkpt lat="37.811920000" lon="-121.970440000"><ele>137.3</ele><time>2026-08-16T00:00:00Z</time></trkpt>
<trkpt lat="37.811897000" lon="-121.970345000"><ele>137.5</ele><time>2026-08-16T00:00:00Z</time></trkpt>
<trkpt lat="37.811874000" lon="-121.970220000"><ele>137.5</ele><time>2026-08-16T00:00:00Z</time></trkpt>
<trkpt lat="37.811840000" lon="-121.970116000"><ele>137.6</ele><time>2026-08-16T00:00:00Z</time></trkpt>
<trkpt lat="37.811764000" lon="-121.970080000"><ele>137.7</ele><time>2026-08-16T00:00:00Z</time></trkpt>
<trkpt lat="37.811780000" lon="-121.969970000"><ele>137.9</ele><time>2026-08-16T00:00:00Z</time></trkpt>
<trkpt lat="37.811740000" lon="-121.969864000"><ele>138.1</ele><time>2026-08-16T00:00:00Z</time></trkpt>
<trkpt lat="37.811690000" lon="-121.969780000"><ele>138.3</ele><time>2026-08-16T00:00:00Z</time></trkpt>
<trkpt lat="37.811650000" lon="-121.969680000"><ele>138.4</ele><time>2026-08-16T00:00:00Z</time></trkpt>
<trkpt lat="37.811604000" lon="-121.969590000"><ele>138.5</ele><time>2026-08-16T00:00:00Z</time></trkpt>
<trkpt lat="37.811550000" lon="-121.969505000"><ele>138.6</ele><time>2026-08-16T00:00:00Z</time></trkpt>
<trkpt lat="37.811504000" lon="-121.969406000"><ele>138.8</ele><time>2026-08-16T00:00:00Z</time></trkpt>
<trkpt lat="37.811460000" lon="-121.969315000"><ele>139.1</ele><time>2026-08-16T00:00:00Z</time></trkpt>
<trkpt lat="37.811417000" lon="-121.969220000"><ele>139.4</ele><time>2026-08-16T00:00:00Z</time></trkpt>
<trkpt lat="37.811370000" lon="-121.969130000"><ele>139.7</ele><time>2026-08-16T00:00:00Z</time></trkpt>
<trkpt lat="37.811320000" lon="-121.969025000"><ele>140.1</ele><time>2026-08-16T00:00:00Z</time></trkpt>
<trkpt lat="37.811280000" lon="-121.968925000"><ele>140.4</ele><time>2026-08-16T00:00:00Z</time></trkpt>
<trkpt lat="37.811237000" lon="-121.968834000"><ele>140.6</ele><time>2026-08-16T00:00:00Z</time></trkpt>
<trkpt lat="37.811200000" lon="-121.968735000"><ele>141.0</ele><time>2026-08-16T00:00:00Z</time></trkpt>
<trkpt lat="37.811165000" lon="-121.968636000"><ele>141.4</ele><time>2026-08-16T00:00:00Z</time></trkpt>
<trkpt lat="37.811127000" lon="-121.968530000"><ele>141.7</ele><time>2026-08-16T00:00:00Z</time></trkpt>
<trkpt lat="37.811092000" lon="-121.968420000"><ele>142.0</ele><time>2026-08-16T00:00:00Z</time></trkpt>
<trkpt lat="37.811066000" lon="-121.968310000"><ele>142.3</ele><time>2026-08-16T00:00:00Z</time></trkpt>
<trkpt lat="37.811035000" lon="-121.968190000"><ele>142.5</ele><time>2026-08-16T00:00:00Z</time></trkpt>
<trkpt lat="37.811010000" lon="-121.968094000"><ele>142.6</ele><time>2026-08-16T00:00:00Z</time></trkpt>
<trkpt lat="37.810986000" lon="-121.967980000"><ele>142.7</ele><time>2026-08-16T00:00:00Z</time></trkpt>
<trkpt lat="37.810970000" lon="-121.967870000"><ele>142.8</ele><time>2026-08-16T00:00:00Z</time></trkpt>
<trkpt lat="37.810970000" lon="-121.967766000"><ele>142.9</ele><time>2026-08-16T00:00:00Z</time></trkpt>
<trkpt lat="37.810966000" lon="-121.967660000"><ele>143.0</ele><time>2026-08-16T00:00:00Z</time></trkpt>
<trkpt lat="37.810966000" lon="-121.967550000"><ele>143.1</ele><time>2026-08-16T00:00:00Z</time></trkpt>
<trkpt lat="37.810963000" lon="-121.967430000"><ele>143.2</ele><time>2026-08-16T00:00:00Z</time></trkpt>
<trkpt lat="37.810940000" lon="-121.967320000"><ele>143.3</ele><time>2026-08-16T00:00:00Z</time></trkpt>
<trkpt lat="37.810930000" lon="-121.967210000"><ele>143.5</ele><time>2026-08-16T00:00:00Z</time></trkpt>
<trkpt lat="37.810925000" lon="-121.967100000"><ele>143.6</ele><time>2026-08-16T00:00:00Z</time></trkpt>
<trkpt lat="37.810920000" lon="-121.966990000"><ele>143.8</ele><time>2026-08-16T00:00:00Z</time></trkpt>
<trkpt lat="37.810917000" lon="-121.966866000"><ele>144.0</ele><time>2026-08-16T00:00:00Z</time></trkpt>
<trkpt lat="37.810910000" lon="-121.966750000"><ele>144.3</ele><time>2026-08-16T00:00:00Z</time></trkpt>
<trkpt lat="37.810910000" lon="-121.966640000"><ele>144.5</ele><time>2026-08-16T00:00:00Z</time></trkpt>
<trkpt lat="37.810890000" lon="-121.966530000"><ele>144.8</ele><time>2026-08-16T00:00:00Z</time></trkpt>
<trkpt lat="37.810880000" lon="-121.966430000"><ele>145.1</ele><time>2026-08-16T00:00:00Z</time></trkpt>
<trkpt lat="37.810867000" lon="-121.966320000"><ele>145.3</ele><time>2026-08-16T00:00:00Z</time></trkpt>
<trkpt lat="37.810852000" lon="-121.966200000"><ele>145.5</ele><time>2026-08-16T00:00:00Z</time></trkpt>
<trkpt lat="37.810837000" lon="-121.966100000"><ele>145.8</ele><time>2026-08-16T00:00:00Z</time></trkpt>
<trkpt lat="37.810814000" lon="-121.965996000"><ele>146.1</ele><time>2026-08-16T00:00:00Z</time></trkpt>
<trkpt lat="37.810795000" lon="-121.965880000"><ele>146.4</ele><time>2026-08-16T00:00:00Z</time></trkpt>
<trkpt lat="37.810772000" lon="-121.965770000"><ele>146.7</ele><time>2026-08-16T00:00:00Z</time></trkpt>
<trkpt lat="37.810757000" lon="-121.965645000"><ele>147.2</ele><time>2026-08-16T00:00:00Z</time></trkpt>
<trkpt lat="37.810730000" lon="-121.965540000"><ele>147.5</ele><time>2026-08-16T00:00:00Z</time></trkpt>
<trkpt lat="37.810707000" lon="-121.965430000"><ele>148.0</ele><time>2026-08-16T00:00:00Z</time></trkpt>
<trkpt lat="37.810684000" lon="-121.965320000"><ele>148.5</ele><time>2026-08-16T00:00:00Z</time></trkpt>
<trkpt lat="37.810665000" lon="-121.965210000"><ele>149.2</ele><time>2026-08-16T00:00:00Z</time></trkpt>
<trkpt lat="37.810630000" lon="-121.965100000"><ele>149.9</ele><time>2026-08-16T00:00:00Z</time></trkpt>
<trkpt lat="37.810590000" lon="-121.965010000"><ele>150.5</ele><time>2026-08-16T00:00:00Z</time></trkpt>
<trkpt lat="37.810550000" lon="-121.964910000"><ele>151.3</ele><time>2026-08-16T00:00:00Z</time></trkpt>
<trkpt lat="37.810510000" lon="-121.964806000"><ele>152.0</ele><time>2026-08-16T00:00:00Z</time></trkpt>
<trkpt lat="37.810474000" lon="-121.964700000"><ele>152.7</ele><time>2026-08-16T00:00:00Z</time></trkpt>
<trkpt lat="37.810430000" lon="-121.964600000"><ele>153.5</ele><time>2026-08-16T00:00:00Z</time></trkpt>
<trkpt lat="37.810390000" lon="-121.964500000"><ele>154.3</ele><time>2026-08-16T00:00:00Z</time></trkpt>
<trkpt lat="37.810345000" lon="-121.964386000"><ele>155.2</ele><time>2026-08-16T00:00:00Z</time></trkpt>
<trkpt lat="37.810303000" lon="-121.964280000"><ele>156.0</ele><time>2026-08-16T00:00:00Z</time></trkpt>
<trkpt lat="37.810260000" lon="-121.964180000"><ele>156.8</ele><time>2026-08-16T00:00:00Z</time></trkpt>
<trkpt lat="37.810220000" lon="-121.964070000"><ele>157.5</ele><time>2026-08-16T00:00:00Z</time></trkpt>
<trkpt lat="37.810177000" lon="-121.963974000"><ele>158.3</ele><time>2026-08-16T00:00:00Z</time></trkpt>
<trkpt lat="37.810143000" lon="-121.963875000"><ele>159.1</ele><time>2026-08-16T00:00:00Z</time></trkpt>
<trkpt lat="37.810100000" lon="-121.963776000"><ele>159.9</ele><time>2026-08-16T00:00:00Z</time></trkpt>
<trkpt lat="37.810070000" lon="-121.963680000"><ele>160.7</ele><time>2026-08-16T00:00:00Z</time></trkpt>
<trkpt lat="37.810040000" lon="-121.963570000"><ele>161.5</ele><time>2026-08-16T00:00:00Z</time></trkpt>
<trkpt lat="37.810013000" lon="-121.963455000"><ele>162.4</ele><time>2026-08-16T00:00:00Z</time></trkpt>
<trkpt lat="37.809994000" lon="-121.963350000"><ele>163.0</ele><time>2026-08-16T00:00:00Z</time></trkpt>
<trkpt lat="37.809982000" lon="-121.963230000"><ele>163.6</ele><time>2026-08-16T00:00:00Z</time></trkpt>
<trkpt lat="37.809963000" lon="-121.963104000"><ele>164.3</ele><time>2026-08-16T00:00:00Z</time></trkpt>
<trkpt lat="37.809948000" lon="-121.962990000"><ele>164.9</ele><time>2026-08-16T00:00:00Z</time></trkpt>
<trkpt lat="37.809925000" lon="-121.962880000"><ele>165.6</ele><time>2026-08-16T00:00:00Z</time></trkpt>
<trkpt lat="37.809860000" lon="-121.962820000"><ele>166.4</ele><time>2026-08-16T00:00:00Z</time></trkpt>
<trkpt lat="37.809765000" lon="-121.962830000"><ele>167.1</ele><time>2026-08-16T00:00:00Z</time></trkpt>
<trkpt lat="37.809685000" lon="-121.962840000"><ele>167.7</ele><time>2026-08-16T00:00:00Z</time></trkpt>
<trkpt lat="37.809600000" lon="-121.962830000"><ele>168.3</ele><time>2026-08-16T00:00:00Z</time></trkpt>
<trkpt lat="37.809510000" lon="-121.962845000"><ele>168.9</ele><time>2026-08-16T00:00:00Z</time></trkpt>
<trkpt lat="37.809414000" lon="-121.962840000"><ele>169.5</ele><time>2026-08-16T00:00:00Z</time></trkpt>
<trkpt lat="37.809326000" lon="-121.962850000"><ele>170.0</ele><time>2026-08-16T00:00:00Z</time></trkpt>
<trkpt lat="37.809230000" lon="-121.962875000"><ele>170.5</ele><time>2026-08-16T00:00:00Z</time></trkpt>
<trkpt lat="37.809162000" lon="-121.962950000"><ele>170.8</ele><time>2026-08-16T00:00:00Z</time></trkpt>
<trkpt lat="37.809086000" lon="-121.963020000"><ele>171.1</ele><time>2026-08-16T00:00:00Z</time></trkpt>
<trkpt lat="37.809135000" lon="-121.962930000"><ele>171.2</ele><time>2026-08-16T00:00:00Z</time></trkpt>
<trkpt lat="37.809190000" lon="-121.962845000"><ele>171.2</ele><time>2026-08-16T00:00:00Z</time></trkpt>
<trkpt lat="37.809147000" lon="-121.962944000"><ele>171.0</ele><time>2026-08-16T00:00:00Z</time></trkpt>
<trkpt lat="37.809230000" lon="-121.962920000"><ele>170.7</ele><time>2026-08-16T00:00:00Z</time></trkpt>
<trkpt lat="37.809307000" lon="-121.962870000"><ele>170.4</ele><time>2026-08-16T00:00:00Z</time></trkpt>
<trkpt lat="37.809390000" lon="-121.962814000"><ele>169.9</ele><time>2026-08-16T00:00:00Z</time></trkpt>
<trkpt lat="37.809470000" lon="-121.962780000"><ele>169.5</ele><time>2026-08-16T00:00:00Z</time></trkpt>
<trkpt lat="37.809570000" lon="-121.962760000"><ele>169.0</ele><time>2026-08-16T00:00:00Z</time></trkpt>
<trkpt lat="37.809650000" lon="-121.962740000"><ele>168.5</ele><time>2026-08-16T00:00:00Z</time></trkpt>
<trkpt lat="37.809734000" lon="-121.962700000"><ele>168.3</ele><time>2026-08-16T00:00:00Z</time></trkpt>
<trkpt lat="37.809820000" lon="-121.962685000"><ele>168.2</ele><time>2026-08-16T00:00:00Z</time></trkpt>
<trkpt lat="37.809895000" lon="-121.962620000"><ele>168.3</ele><time>2026-08-16T00:00:00Z</time></trkpt>
<trkpt lat="37.809975000" lon="-121.962585000"><ele>168.5</ele><time>2026-08-16T00:00:00Z</time></trkpt>
<trkpt lat="37.810005000" lon="-121.962490000"><ele>168.7</ele><time>2026-08-16T00:00:00Z</time></trkpt>
<trkpt lat="37.810028000" lon="-121.962390000"><ele>169.3</ele><time>2026-08-16T00:00:00Z</time></trkpt>
<trkpt lat="37.810024000" lon="-121.962270000"><ele>170.0</ele><time>2026-08-16T00:00:00Z</time></trkpt>
<trkpt lat="37.810028000" lon="-121.962160000"><ele>170.9</ele><time>2026-08-16T00:00:00Z</time></trkpt>
<trkpt lat="37.810024000" lon="-121.962050000"><ele>172.0</ele><time>2026-08-16T00:00:00Z</time></trkpt>
<trkpt lat="37.810024000" lon="-121.961945000"><ele>173.0</ele><time>2026-08-16T00:00:00Z</time></trkpt>
<trkpt lat="37.810017000" lon="-121.961830000"><ele>173.8</ele><time>2026-08-16T00:00:00Z</time></trkpt>
<trkpt lat="37.810005000" lon="-121.961720000"><ele>174.5</ele><time>2026-08-16T00:00:00Z</time></trkpt>
<trkpt lat="37.809986000" lon="-121.961610000"><ele>174.7</ele><time>2026-08-16T00:00:00Z</time></trkpt>
<trkpt lat="37.809950000" lon="-121.961500000"><ele>174.8</ele><time>2026-08-16T00:00:00Z</time></trkpt>
<trkpt lat="37.810017000" lon="-121.961586000"><ele>174.7</ele><time>2026-08-16T00:00:00Z</time></trkpt>
<trkpt lat="37.810028000" lon="-121.961700000"><ele>174.6</ele><time>2026-08-16T00:00:00Z</time></trkpt>
<trkpt lat="37.810043000" lon="-121.961810000"><ele>174.2</ele><time>2026-08-16T00:00:00Z</time></trkpt>
<trkpt lat="37.810043000" lon="-121.961914000"><ele>173.5</ele><time>2026-08-16T00:00:00Z</time></trkpt>
<trkpt lat="37.810055000" lon="-121.962030000"><ele>172.6</ele><time>2026-08-16T00:00:00Z</time></trkpt>
<trkpt lat="37.810066000" lon="-121.962135000"><ele>171.5</ele><time>2026-08-16T00:00:00Z</time></trkpt>
<trkpt lat="37.810074000" lon="-121.962234000"><ele>170.4</ele><time>2026-08-16T00:00:00Z</time></trkpt>
<trkpt lat="37.810066000" lon="-121.962340000"><ele>169.5</ele><time>2026-08-16T00:00:00Z</time></trkpt>
<trkpt lat="37.810060000" lon="-121.962450000"><ele>168.5</ele><time>2026-08-16T00:00:00Z</time></trkpt>
<trkpt lat="37.810043000" lon="-121.962550000"><ele>167.8</ele><time>2026-08-16T00:00:00Z</time></trkpt>
<trkpt lat="37.810005000" lon="-121.962654000"><ele>167.1</ele><time>2026-08-16T00:00:00Z</time></trkpt>
<trkpt lat="37.810000000" lon="-121.962760000"><ele>166.4</ele><time>2026-08-16T00:00:00Z</time></trkpt>
<trkpt lat="37.810010000" lon="-121.962880000"><ele>165.5</ele><time>2026-08-16T00:00:00Z</time></trkpt>
<trkpt lat="37.810050000" lon="-121.962970000"><ele>164.8</ele><time>2026-08-16T00:00:00Z</time></trkpt>
<trkpt lat="37.810062000" lon="-121.963090000"><ele>164.2</ele><time>2026-08-16T00:00:00Z</time></trkpt>
<trkpt lat="37.810080000" lon="-121.963200000"><ele>163.5</ele><time>2026-08-16T00:00:00Z</time></trkpt>
<trkpt lat="37.810085000" lon="-121.963310000"><ele>162.9</ele><time>2026-08-16T00:00:00Z</time></trkpt>
<trkpt lat="37.810093000" lon="-121.963420000"><ele>162.2</ele><time>2026-08-16T00:00:00Z</time></trkpt>
<trkpt lat="37.810127000" lon="-121.963530000"><ele>161.4</ele><time>2026-08-16T00:00:00Z</time></trkpt>
<trkpt lat="37.810158000" lon="-121.963630000"><ele>160.5</ele><time>2026-08-16T00:00:00Z</time></trkpt>
<trkpt lat="37.810196000" lon="-121.963745000"><ele>159.7</ele><time>2026-08-16T00:00:00Z</time></trkpt>
<trkpt lat="37.810226000" lon="-121.963850000"><ele>158.9</ele><time>2026-08-16T00:00:00Z</time></trkpt>
<trkpt lat="37.810257000" lon="-121.963950000"><ele>158.1</ele><time>2026-08-16T00:00:00Z</time></trkpt>
<trkpt lat="37.810290000" lon="-121.964050000"><ele>157.3</ele><time>2026-08-16T00:00:00Z</time></trkpt>
<trkpt lat="37.810340000" lon="-121.964140000"><ele>156.5</ele><time>2026-08-16T00:00:00Z</time></trkpt>
<trkpt lat="37.810375000" lon="-121.964250000"><ele>155.7</ele><time>2026-08-16T00:00:00Z</time></trkpt>
<trkpt lat="37.810425000" lon="-121.964350000"><ele>154.9</ele><time>2026-08-16T00:00:00Z</time></trkpt>
<trkpt lat="37.810463000" lon="-121.964450000"><ele>154.1</ele><time>2026-08-16T00:00:00Z</time></trkpt>
<trkpt lat="37.810505000" lon="-121.964554000"><ele>153.4</ele><time>2026-08-16T00:00:00Z</time></trkpt>
<trkpt lat="37.810530000" lon="-121.964650000"><ele>152.6</ele><time>2026-08-16T00:00:00Z</time></trkpt>
<trkpt lat="37.810560000" lon="-121.964750000"><ele>152.0</ele><time>2026-08-16T00:00:00Z</time></trkpt>
<trkpt lat="37.810604000" lon="-121.964840000"><ele>151.3</ele><time>2026-08-16T00:00:00Z</time></trkpt>
<trkpt lat="37.810654000" lon="-121.964935000"><ele>150.6</ele><time>2026-08-16T00:00:00Z</time></trkpt>
<trkpt lat="37.810690000" lon="-121.965030000"><ele>150.0</ele><time>2026-08-16T00:00:00Z</time></trkpt>
<trkpt lat="37.810730000" lon="-121.965126000"><ele>149.5</ele><time>2026-08-16T00:00:00Z</time></trkpt>
<trkpt lat="37.810757000" lon="-121.965225000"><ele>148.9</ele><time>2026-08-16T00:00:00Z</time></trkpt>
<trkpt lat="37.810776000" lon="-121.965324000"><ele>148.4</ele><time>2026-08-16T00:00:00Z</time></trkpt>
<trkpt lat="37.810814000" lon="-121.965416000"><ele>147.9</ele><time>2026-08-16T00:00:00Z</time></trkpt>
<trkpt lat="37.810818000" lon="-121.965520000"><ele>147.5</ele><time>2026-08-16T00:00:00Z</time></trkpt>
<trkpt lat="37.810837000" lon="-121.965620000"><ele>147.2</ele><time>2026-08-16T00:00:00Z</time></trkpt>
<trkpt lat="37.810852000" lon="-121.965720000"><ele>147.0</ele><time>2026-08-16T00:00:00Z</time></trkpt>
<trkpt lat="37.810883000" lon="-121.965836000"><ele>146.8</ele><time>2026-08-16T00:00:00Z</time></trkpt>
<trkpt lat="37.810913000" lon="-121.965935000"><ele>146.8</ele><time>2026-08-16T00:00:00Z</time></trkpt>
<trkpt lat="37.810930000" lon="-121.966034000"><ele>146.9</ele><time>2026-08-16T00:00:00Z</time></trkpt>
<trkpt lat="37.810970000" lon="-121.966140000"><ele>147.1</ele><time>2026-08-16T00:00:00Z</time></trkpt>
<trkpt lat="37.811058000" lon="-121.966140000"><ele>147.4</ele><time>2026-08-16T00:00:00Z</time></trkpt>
<trkpt lat="37.811150000" lon="-121.966120000"><ele>147.6</ele><time>2026-08-16T00:00:00Z</time></trkpt>
<trkpt lat="37.811245000" lon="-121.966110000"><ele>148.0</ele><time>2026-08-16T00:00:00Z</time></trkpt>
<trkpt lat="37.811330000" lon="-121.966100000"><ele>148.3</ele><time>2026-08-16T00:00:00Z</time></trkpt>
<trkpt lat="37.811413000" lon="-121.966095000"><ele>148.5</ele><time>2026-08-16T00:00:00Z</time></trkpt>
<trkpt lat="37.811497000" lon="-121.966090000"><ele>148.7</ele><time>2026-08-16T00:00:00Z</time></trkpt>
<trkpt lat="37.811558000" lon="-121.966160000"><ele>148.7</ele><time>2026-08-16T00:00:00Z</time></trkpt>
<trkpt lat="37.811466000" lon="-121.966190000"><ele>148.7</ele><time>2026-08-16T00:00:00Z</time></trkpt>
<trkpt lat="37.811382000" lon="-121.966190000"><ele>148.5</ele><time>2026-08-16T00:00:00Z</time></trkpt>
<trkpt lat="37.811295000" lon="-121.966194000"><ele>148.3</ele><time>2026-08-16T00:00:00Z</time></trkpt>
<trkpt lat="37.811207000" lon="-121.966200000"><ele>148.0</ele><time>2026-08-16T00:00:00Z</time></trkpt>
<trkpt lat="37.811115000" lon="-121.966220000"><ele>147.6</ele><time>2026-08-16T00:00:00Z</time></trkpt>
<trkpt lat="37.811030000" lon="-121.966230000"><ele>147.2</ele><time>2026-08-16T00:00:00Z</time></trkpt>
<trkpt lat="37.810970000" lon="-121.966300000"><ele>146.6</ele><time>2026-08-16T00:00:00Z</time></trkpt>
<trkpt lat="37.810970000" lon="-121.966410000"><ele>146.1</ele><time>2026-08-16T00:00:00Z</time></trkpt>
<trkpt lat="37.810980000" lon="-121.966520000"><ele>145.5</ele><time>2026-08-16T00:00:00Z</time></trkpt>
<trkpt lat="37.810993000" lon="-121.966630000"><ele>145.0</ele><time>2026-08-16T00:00:00Z</time></trkpt>
<trkpt lat="37.810997000" lon="-121.966736000"><ele>144.5</ele><time>2026-08-16T00:00:00Z</time></trkpt>
<trkpt lat="37.811010000" lon="-121.966840000"><ele>144.1</ele><time>2026-08-16T00:00:00Z</time></trkpt>
<trkpt lat="37.811020000" lon="-121.966965000"><ele>143.7</ele><time>2026-08-16T00:00:00Z</time></trkpt>
<trkpt lat="37.811030000" lon="-121.967080000"><ele>143.4</ele><time>2026-08-16T00:00:00Z</time></trkpt>
<trkpt lat="37.811016000" lon="-121.967190000"><ele>143.0</ele><time>2026-08-16T00:00:00Z</time></trkpt>
<trkpt lat="37.811035000" lon="-121.967300000"><ele>142.7</ele><time>2026-08-16T00:00:00Z</time></trkpt>
<trkpt lat="37.811108000" lon="-121.967354000"><ele>142.5</ele><time>2026-08-16T00:00:00Z</time></trkpt>
<trkpt lat="37.811200000" lon="-121.967354000"><ele>142.5</ele><time>2026-08-16T00:00:00Z</time></trkpt>
<trkpt lat="37.811290000" lon="-121.967360000"><ele>142.7</ele><time>2026-08-16T00:00:00Z</time></trkpt>
<trkpt lat="37.811382000" lon="-121.967330000"><ele>143.0</ele><time>2026-08-16T00:00:00Z</time></trkpt>
<trkpt lat="37.811474000" lon="-121.967320000"><ele>143.5</ele><time>2026-08-16T00:00:00Z</time></trkpt>
<trkpt lat="37.811560000" lon="-121.967330000"><ele>144.0</ele><time>2026-08-16T00:00:00Z</time></trkpt>
<trkpt lat="37.811657000" lon="-121.967330000"><ele>144.5</ele><time>2026-08-16T00:00:00Z</time></trkpt>
<trkpt lat="37.811752000" lon="-121.967320000"><ele>145.1</ele><time>2026-08-16T00:00:00Z</time></trkpt>
<trkpt lat="37.811836000" lon="-121.967316000"><ele>145.5</ele><time>2026-08-16T00:00:00Z</time></trkpt>
<trkpt lat="37.811928000" lon="-121.967300000"><ele>145.9</ele><time>2026-08-16T00:00:00Z</time></trkpt>
<trkpt lat="37.812020000" lon="-121.967285000"><ele>146.1</ele><time>2026-08-16T00:00:00Z</time></trkpt>
<trkpt lat="37.812103000" lon="-121.967230000"><ele>146.3</ele><time>2026-08-16T00:00:00Z</time></trkpt>
<trkpt lat="37.812065000" lon="-121.967330000"><ele>146.3</ele><time>2026-08-16T00:00:00Z</time></trkpt>
<trkpt lat="37.811985000" lon="-121.967340000"><ele>146.1</ele><time>2026-08-16T00:00:00Z</time></trkpt>
<trkpt lat="37.811886000" lon="-121.967354000"><ele>145.8</ele><time>2026-08-16T00:00:00Z</time></trkpt>
<trkpt lat="37.811800000" lon="-121.967380000"><ele>145.5</ele><time>2026-08-16T00:00:00Z</time></trkpt>
<trkpt lat="37.811718000" lon="-121.967390000"><ele>145.0</ele><time>2026-08-16T00:00:00Z</time></trkpt>
<trkpt lat="37.811626000" lon="-121.967400000"><ele>144.5</ele><time>2026-08-16T00:00:00Z</time></trkpt>
<trkpt lat="37.811535000" lon="-121.967410000"><ele>144.1</ele><time>2026-08-16T00:00:00Z</time></trkpt>
<trkpt lat="37.811447000" lon="-121.967415000"><ele>143.7</ele><time>2026-08-16T00:00:00Z</time></trkpt>
<trkpt lat="37.811363000" lon="-121.967415000"><ele>143.5</ele><time>2026-08-16T00:00:00Z</time></trkpt>
<trkpt lat="37.811275000" lon="-121.967420000"><ele>143.3</ele><time>2026-08-16T00:00:00Z</time></trkpt>
<trkpt lat="37.811195000" lon="-121.967450000"><ele>143.1</ele><time>2026-08-16T00:00:00Z</time></trkpt>
<trkpt lat="37.811100000" lon="-121.967470000"><ele>143.0</ele><time>2026-08-16T00:00:00Z</time></trkpt>
<trkpt lat="37.811012000" lon="-121.967510000"><ele>143.0</ele><time>2026-08-16T00:00:00Z</time></trkpt>
<trkpt lat="37.811012000" lon="-121.967610000"><ele>143.0</ele><time>2026-08-16T00:00:00Z</time></trkpt>
<trkpt lat="37.811030000" lon="-121.967730000"><ele>142.9</ele><time>2026-08-16T00:00:00Z</time></trkpt>
<trkpt lat="37.811047000" lon="-121.967840000"><ele>142.8</ele><time>2026-08-16T00:00:00Z</time></trkpt>
<trkpt lat="37.811073000" lon="-121.967960000"><ele>142.7</ele><time>2026-08-16T00:00:00Z</time></trkpt>
<trkpt lat="37.811096000" lon="-121.968070000"><ele>142.6</ele><time>2026-08-16T00:00:00Z</time></trkpt>
<trkpt lat="37.811115000" lon="-121.968185000"><ele>142.5</ele><time>2026-08-16T00:00:00Z</time></trkpt>
<trkpt lat="37.811150000" lon="-121.968300000"><ele>142.2</ele><time>2026-08-16T00:00:00Z</time></trkpt>
<trkpt lat="37.811180000" lon="-121.968410000"><ele>141.9</ele><time>2026-08-16T00:00:00Z</time></trkpt>
<trkpt lat="37.811222000" lon="-121.968500000"><ele>141.6</ele><time>2026-08-16T00:00:00Z</time></trkpt>
<trkpt lat="37.811260000" lon="-121.968590000"><ele>141.4</ele><time>2026-08-16T00:00:00Z</time></trkpt>
<trkpt lat="37.811306000" lon="-121.968700000"><ele>141.1</ele><time>2026-08-16T00:00:00Z</time></trkpt>
<trkpt lat="37.811344000" lon="-121.968796000"><ele>140.8</ele><time>2026-08-16T00:00:00Z</time></trkpt>
<trkpt lat="37.811382000" lon="-121.968895000"><ele>140.7</ele><time>2026-08-16T00:00:00Z</time></trkpt>
<trkpt lat="37.811440000" lon="-121.968960000"><ele>140.7</ele><time>2026-08-16T00:00:00Z</time></trkpt>
<trkpt lat="37.811520000" lon="-121.968956000"><ele>140.7</ele><time>2026-08-16T00:00:00Z</time></trkpt>
<trkpt lat="37.811592000" lon="-121.968890000"><ele>140.6</ele><time>2026-08-16T00:00:00Z</time></trkpt>
<trkpt lat="37.811676000" lon="-121.968834000"><ele>140.5</ele><time>2026-08-16T00:00:00Z</time></trkpt>
<trkpt lat="37.811745000" lon="-121.968765000"><ele>140.5</ele><time>2026-08-16T00:00:00Z</time></trkpt>
<trkpt lat="37.811813000" lon="-121.968700000"><ele>140.5</ele><time>2026-08-16T00:00:00Z</time></trkpt>
<trkpt lat="37.811817000" lon="-121.968800000"><ele>140.5</ele><time>2026-08-16T00:00:00Z</time></trkpt>
<trkpt lat="37.811750000" lon="-121.968860000"><ele>140.5</ele><time>2026-08-16T00:00:00Z</time></trkpt>
<trkpt lat="37.811676000" lon="-121.968920000"><ele>140.5</ele><time>2026-08-16T00:00:00Z</time></trkpt>
<trkpt lat="37.811596000" lon="-121.968980000"><ele>140.3</ele><time>2026-08-16T00:00:00Z</time></trkpt>
<trkpt lat="37.811516000" lon="-121.969030000"><ele>140.0</ele><time>2026-08-16T00:00:00Z</time></trkpt>
<trkpt lat="37.811493000" lon="-121.969130000"><ele>139.6</ele><time>2026-08-16T00:00:00Z</time></trkpt>
<trkpt lat="37.811540000" lon="-121.969230000"><ele>139.3</ele><time>2026-08-16T00:00:00Z</time></trkpt>
<trkpt lat="37.811596000" lon="-121.969320000"><ele>139.0</ele><time>2026-08-16T00:00:00Z</time></trkpt>
<trkpt lat="37.811638000" lon="-121.969430000"><ele>138.8</ele><time>2026-08-16T00:00:00Z</time></trkpt>
<trkpt lat="37.811695000" lon="-121.969530000"><ele>138.6</ele><time>2026-08-16T00:00:00Z</time></trkpt>
<trkpt lat="37.811745000" lon="-121.969630000"><ele>138.5</ele><time>2026-08-16T00:00:00Z</time></trkpt>
<trkpt lat="37.811787000" lon="-121.969710000"><ele>138.2</ele><time>2026-08-16T00:00:00Z</time></trkpt>
<trkpt lat="37.811825000" lon="-121.969800000"><ele>137.9</ele><time>2026-08-16T00:00:00Z</time></trkpt>
<trkpt lat="37.811860000" lon="-121.969900000"><ele>137.7</ele><time>2026-08-16T00:00:00Z</time></trkpt>
<trkpt lat="37.811897000" lon="-121.969990000"><ele>137.6</ele><time>2026-08-16T00:00:00Z</time></trkpt>
<trkpt lat="37.811928000" lon="-121.970100000"><ele>137.5</ele><time>2026-08-16T00:00:00Z</time></trkpt>
<trkpt lat="37.811954000" lon="-121.970200000"><ele>137.5</ele><time>2026-08-16T00:00:00Z</time></trkpt>
<trkpt lat="37.811980000" lon="-121.970314000"><ele>137.4</ele><time>2026-08-16T00:00:00Z</time></trkpt>
<trkpt lat="37.812020000" lon="-121.970420000"><ele>137.2</ele><time>2026-08-16T00:00:00Z</time></trkpt>
<trkpt lat="37.812050000" lon="-121.970535000"><ele>137.0</ele><time>2026-08-16T00:00:00Z</time></trkpt>
<trkpt lat="37.812070000" lon="-121.970640000"><ele>136.8</ele><time>2026-08-16T00:00:00Z</time></trkpt>
<trkpt lat="37.812088000" lon="-121.970740000"><ele>136.5</ele><time>2026-08-16T00:00:00Z</time></trkpt>
<trkpt lat="37.812103000" lon="-121.970860000"><ele>136.4</ele><time>2026-08-16T00:00:00Z</time></trkpt>
<trkpt lat="37.812126000" lon="-121.970980000"><ele>136.1</ele><time>2026-08-16T00:00:00Z</time></trkpt>
<trkpt lat="37.812140000" lon="-121.971100000"><ele>135.7</ele><time>2026-08-16T00:00:00Z</time></trkpt>
<trkpt lat="37.812157000" lon="-121.971210000"><ele>135.4</ele><time>2026-08-16T00:00:00Z</time></trkpt>
<trkpt lat="37.812172000" lon="-121.971310000"><ele>134.9</ele><time>2026-08-16T00:00:00Z</time></trkpt>
<trkpt lat="37.812180000" lon="-121.971420000"><ele>134.5</ele><time>2026-08-16T00:00:00Z</time></trkpt>
<trkpt lat="37.812190000" lon="-121.971530000"><ele>133.9</ele><time>2026-08-16T00:00:00Z</time></trkpt>
<trkpt lat="37.812187000" lon="-121.971634000"><ele>133.5</ele><time>2026-08-16T00:00:00Z</time></trkpt>
<trkpt lat="37.812145000" lon="-121.971725000"><ele>133.0</ele><time>2026-08-16T00:00:00Z</time></trkpt>
<trkpt lat="37.812130000" lon="-121.971830000"><ele>132.5</ele><time>2026-08-16T00:00:00Z</time></trkpt>
<trkpt lat="37.812115000" lon="-121.971940000"><ele>132.0</ele><time>2026-08-16T00:00:00Z</time></trkpt>
<trkpt lat="37.812088000" lon="-121.972040000"><ele>131.5</ele><time>2026-08-16T00:00:00Z</time></trkpt>
<trkpt lat="37.812077000" lon="-121.972145000"><ele>131.1</ele><time>2026-08-16T00:00:00Z</time></trkpt>
<trkpt lat="37.812077000" lon="-121.972260000"><ele>130.7</ele><time>2026-08-16T00:00:00Z</time></trkpt>
<trkpt lat="37.812070000" lon="-121.972370000"><ele>130.4</ele><time>2026-08-16T00:00:00Z</time></trkpt>
<trkpt lat="37.812060000" lon="-121.972470000"><ele>130.0</ele><time>2026-08-16T00:00:00Z</time></trkpt>
<trkpt lat="37.812054000" lon="-121.972580000"><ele>129.6</ele><time>2026-08-16T00:00:00Z</time></trkpt>
<trkpt lat="37.812046000" lon="-121.972680000"><ele>129.4</ele><time>2026-08-16T00:00:00Z</time></trkpt>
<trkpt lat="37.812060000" lon="-121.972800000"><ele>129.1</ele><time>2026-08-16T00:00:00Z</time></trkpt>
<trkpt lat="37.812090000" lon="-121.972916000"><ele>128.8</ele><time>2026-08-16T00:00:00Z</time></trkpt>
<trkpt lat="37.812130000" lon="-121.973015000"><ele>128.5</ele><time>2026-08-16T00:00:00Z</time></trkpt>
<trkpt lat="37.812180000" lon="-121.973100000"><ele>128.3</ele><time>2026-08-16T00:00:00Z</time></trkpt>
<trkpt lat="37.812250000" lon="-121.973180000"><ele>128.1</ele><time>2026-08-16T00:00:00Z</time></trkpt>
<trkpt lat="37.812320000" lon="-121.973250000"><ele>128.0</ele><time>2026-08-16T00:00:00Z</time></trkpt>
<trkpt lat="37.812405000" lon="-121.973305000"><ele>127.9</ele><time>2026-08-16T00:00:00Z</time></trkpt>
<trkpt lat="37.812490000" lon="-121.973340000"><ele>127.7</ele><time>2026-08-16T00:00:00Z</time></trkpt>
<trkpt lat="37.812454000" lon="-121.973370000"><ele>127.7</ele><time>2026-08-16T00:00:00Z</time></trkpt>
</trkseg>
</trk>
</gpx>
