<?xml version="1.0" encoding="UTF-8"?>
<gpx
  version="1.1"
  creator="Runkeeper - http://www.runkeeper.com"
  xmlns:xsi="http://www.w3.org/2001/XMLSchema-instance"
  xmlns="http://www.topografix.com/GPX/1/1"
  xsi:schemaLocation="http://www.topografix.com/GPX/1/1 http://www.topografix.com/GPX/1/1/gpx.xsd"
  xmlns:gpxtpx="http://www.garmin.com/xmlschemas/TrackPointExtension/v1">
<trk>
  <name><![CDATA[Walking 7/27/26]]></name>
  <time>2026-07-28T00:00:00Z</time>
<trkseg>
<trkpt lat="37.821050000" lon="-121.980150000"><ele>121.0</ele><time>2026-07-28T00:00:00Z</time></trkpt>
<trkpt lat="37.821083000" lon="-121.980250000"><ele>121.0</ele><time>2026-07-28T00:00:00Z</time></trkpt>
<trkpt lat="37.821110000" lon="-121.980360000"><ele>121.0</ele><time>2026-07-28T00:00:00Z</time></trkpt>
<trkpt lat="37.821144000" lon="-121.980460000"><ele>120.9</ele><time>2026-07-28T00:00:00Z</time></trkpt>
<trkpt lat="37.821200000" lon="-121.980545000"><ele>120.8</ele><time>2026-07-28T00:00:00Z</time></trkpt>
<trkpt lat="37.821243000" lon="-121.980630000"><ele>120.7</ele><time>2026-07-28T00:00:00Z</time></trkpt>
<trkpt lat="37.821270000" lon="-121.980736000"><ele>120.6</ele><time>2026-07-28T00:00:00Z</time></trkpt>
<trkpt lat="37.821304000" lon="-121.980835000"><ele>120.5</ele><time>2026-07-28T00:00:00Z</time></trkpt>
<trkpt lat="37.821320000" lon="-121.980940000"><ele>120.4</ele><time>2026-07-28T00:00:00Z</time></trkpt>
<trkpt lat="37.821270000" lon="-121.981040000"><ele>120.2</ele><time>2026-07-28T00:00:00Z</time></trkpt>
<trkpt lat="37.821198000" lon="-121.981110000"><ele>120.0</ele><time>2026-07-28T00:00:00Z</time></trkpt>
<trkpt lat="37.821117000" lon="-121.981170000"><ele>119.8</ele><time>2026-07-28T00:00:00Z</time></trkpt>
<trkpt lat="37.821033000" lon="-121.981224000"><ele>119.7</ele><time>2026-07-28T00:00:00Z</time></trkpt>
<trkpt lat="37.820957000" lon="-121.981270000"><ele>119.6</ele><time>2026-07-28T00:00:00Z</time></trkpt>
<trkpt lat="37.820877000" lon="-121.981330000"><ele>119.7</ele><time>2026-07-28T00:00:00Z</time></trkpt>
<trkpt lat="37.820797000" lon="-121.981390000"><ele>119.9</ele><time>2026-07-28T00:00:00Z</time></trkpt>
<trkpt lat="37.820720000" lon="-121.981445000"><ele>120.1</ele><time>2026-07-28T00:00:00Z</time></trkpt>
<trkpt lat="37.820630000" lon="-121.981430000"><ele>120.4</ele><time>2026-07-28T00:00:00Z</time></trkpt>
<trkpt lat="37.820545000" lon="-121.981410000"><ele>120.6</ele><time>2026-07-28T00:00:00Z</time></trkpt>
<trkpt lat="37.820465000" lon="-121.981360000"><ele>121.1</ele><time>2026-07-28T00:00:00Z</time></trkpt>
<trkpt lat="37.820410000" lon="-121.981270000"><ele>121.5</ele><time>2026-07-28T00:00:00Z</time></trkpt>
<trkpt lat="37.820370000" lon="-121.981180000"><ele>122.1</ele><time>2026-07-28T00:00:00Z</time></trkpt>
<trkpt lat="37.820310000" lon="-121.981090000"><ele>122.6</ele><time>2026-07-28T00:00:00Z</time></trkpt>
<trkpt lat="37.820260000" lon="-121.981000000"><ele>123.1</ele><time>2026-07-28T00:00:00Z</time></trkpt>
<trkpt lat="37.820200000" lon="-121.980920000"><ele>123.5</ele><time>2026-07-28T00:00:00Z</time></trkpt>
<trkpt lat="37.820170000" lon="-121.980810000"><ele>123.9</ele><time>2026-07-28T00:00:00Z</time></trkpt>
<trkpt lat="37.820140000" lon="-121.980705000"><ele>124.3</ele><time>2026-07-28T00:00:00Z</time></trkpt>
<trkpt lat="37.820110000" lon="-121.980610000"><ele>124.6</ele><time>2026-07-28T00:00:00Z</time></trkpt>
<trkpt lat="37.820065000" lon="-121.980510000"><ele>124.9</ele><time>2026-07-28T00:00:00Z</time></trkpt>
<trkpt lat="37.820026000" lon="-121.980415000"><ele>125.2</ele><time>2026-07-28T00:00:00Z</time></trkpt>
<trkpt lat="37.819984000" lon="-121.980316000"><ele>125.4</ele><time>2026-07-28T00:00:00Z</time></trkpt>
<trkpt lat="37.819946000" lon="-121.980210000"><ele>125.5</ele><time>2026-07-28T00:00:00Z</time></trkpt>
<trkpt lat="37.819912000" lon="-121.980110000"><ele>125.7</ele><time>2026-07-28T00:00:00Z</time></trkpt>
<trkpt lat="37.819885000" lon="-121.979996000"><ele>125.9</ele><time>2026-07-28T00:00:00Z</time></trkpt>
<trkpt lat="37.819862000" lon="-121.979890000"><ele>126.2</ele><time>2026-07-28T00:00:00Z</time></trkpt>
<trkpt lat="37.819836000" lon="-121.979780000"><ele>126.5</ele><time>2026-07-28T00:00:00Z</time></trkpt>
<trkpt lat="37.819817000" lon="-121.979675000"><ele>126.7</ele><time>2026-07-28T00:00:00Z</time></trkpt>
<trkpt lat="37.819794000" lon="-121.979560000"><ele>126.9</ele><time>2026-07-28T00:00:00Z</time></trkpt>
<trkpt lat="37.819780000" lon="-121.979454000"><ele>127.1</ele><time>2026-07-28T00:00:00Z</time></trkpt>
<trkpt lat="37.819767000" lon="-121.979340000"><ele>127.4</ele><time>2026-07-28T00:00:00Z</time></trkpt>
<trkpt lat="37.819756000" lon="-121.979225000"><ele>127.7</ele><time>2026-07-28T00:00:00Z</time></trkpt>
<trkpt lat="37.819733000" lon="-121.979126000"><ele>128.2</ele><time>2026-07-28T00:00:00Z</time></trkpt>
<trkpt lat="37.819725000" lon="-121.979030000"><ele>128.6</ele><time>2026-07-28T00:00:00Z</time></trkpt>
<trkpt lat="37.819710000" lon="-121.978910000"><ele>129.0</ele><time>2026-07-28T00:00:00Z</time></trkpt>
<trkpt lat="37.819695000" lon="-121.978806000"><ele>129.5</ele><time>2026-07-28T00:00:00Z</time></trkpt>
<trkpt lat="37.819680000" lon="-121.978700000"><ele>129.8</ele><time>2026-07-28T00:00:00Z</time></trkpt>
<trkpt lat="37.819660000" lon="-121.978580000"><ele>130.3</ele><time>2026-07-28T00:00:00Z</time></trkpt>
<trkpt lat="37.819653000" lon="-121.978460000"><ele>130.7</ele><time>2026-07-28T00:00:00Z</time></trkpt>
<trkpt lat="37.819637000" lon="-121.978350000"><ele>131.2</ele><time>2026-07-28T00:00:00Z</time></trkpt>
<trkpt lat="37.819626000" lon="-121.978250000"><ele>131.6</ele><time>2026-07-28T00:00:00Z</time></trkpt>
<trkpt lat="37.819620000" lon="-121.978130000"><ele>132.1</ele><time>2026-07-28T00:00:00Z</time></trkpt>
<trkpt lat="37.819614000" lon="-121.978004000"><ele>132.5</ele><time>2026-07-28T00:00:00Z</time></trkpt>
<trkpt lat="37.819607000" lon="-121.977890000"><ele>132.8</ele><time>2026-07-28T00:00:00Z</time></trkpt>
<trkpt lat="37.819614000" lon="-121.977776000"><ele>133.3</ele><time>2026-07-28T00:00:00Z</time></trkpt>
<trkpt lat="37.819614000" lon="-121.977670000"><ele>133.7</ele><time>2026-07-28T00:00:00Z</time></trkpt>
<trkpt lat="37.819614000" lon="-121.977554000"><ele>134.2</ele><time>2026-07-28T00:00:00Z</time></trkpt>
<trkpt lat="37.819620000" lon="-121.977450000"><ele>134.7</ele><time>2026-07-28T00:00:00Z</time></trkpt>
<trkpt lat="37.819620000" lon="-121.977330000"><ele>135.2</ele><time>2026-07-28T00:00:00Z</time></trkpt>
<trkpt lat="37.819607000" lon="-121.977220000"><ele>135.6</ele><time>2026-07-28T00:00:00Z</time></trkpt>
<trkpt lat="37.819610000" lon="-121.977110000"><ele>136.1</ele><time>2026-07-28T00:00:00Z</time></trkpt>
<trkpt lat="37.819600000" lon="-121.977000000"><ele>136.5</ele><time>2026-07-28T00:00:00Z</time></trkpt>
<trkpt lat="37.819590000" lon="-121.976875000"><ele>137.0</ele><time>2026-07-28T00:00:00Z</time></trkpt>
<trkpt lat="37.819584000" lon="-121.976760000"><ele>137.5</ele><time>2026-07-28T00:00:00Z</time></trkpt>
<trkpt lat="37.819570000" lon="-121.976650000"><ele>137.8</ele><time>2026-07-28T00:00:00Z</time></trkpt>
<trkpt lat="37.819546000" lon="-121.976524000"><ele>138.2</ele><time>2026-07-28T00:00:00Z</time></trkpt>
<trkpt lat="37.819527000" lon="-121.976425000"><ele>138.5</ele><time>2026-07-28T00:00:00Z</time></trkpt>
<trkpt lat="37.819490000" lon="-121.976320000"><ele>138.7</ele><time>2026-07-28T00:00:00Z</time></trkpt>
<trkpt lat="37.819400000" lon="-121.976326000"><ele>138.8</ele><time>2026-07-28T00:00:00Z</time></trkpt>
<trkpt lat="37.819310000" lon="-121.976330000"><ele>138.8</ele><time>2026-07-28T00:00:00Z</time></trkpt>
<trkpt lat="37.819220000" lon="-121.976340000"><ele>138.8</ele><time>2026-07-28T00:00:00Z</time></trkpt>
<trkpt lat="37.819130000" lon="-121.976330000"><ele>138.8</ele><time>2026-07-28T00:00:00Z</time></trkpt>
<trkpt lat="37.819030000" lon="-121.976326000"><ele>138.8</ele><time>2026-07-28T00:00:00Z</time></trkpt>
<trkpt lat="37.818940000" lon="-121.976310000"><ele>138.8</ele><time>2026-07-28T00:00:00Z</time></trkpt>
<trkpt lat="37.818855000" lon="-121.976280000"><ele>138.8</ele><time>2026-07-28T00:00:00Z</time></trkpt>
<trkpt lat="37.818813000" lon="-121.976190000"><ele>138.8</ele><time>2026-07-28T00:00:00Z</time></trkpt>
<trkpt lat="37.818787000" lon="-121.976074000"><ele>138.7</ele><time>2026-07-28T00:00:00Z</time></trkpt>
<trkpt lat="37.818783000" lon="-121.975970000"><ele>138.6</ele><time>2026-07-28T00:00:00Z</time></trkpt>
<trkpt lat="37.818790000" lon="-121.975870000"><ele>138.6</ele><time>2026-07-28T00:00:00Z</time></trkpt>
<trkpt lat="37.818800000" lon="-121.975746000"><ele>138.6</ele><time>2026-07-28T00:00:00Z</time></trkpt>
<trkpt lat="37.818800000" lon="-121.975640000"><ele>138.7</ele><time>2026-07-28T00:00:00Z</time></trkpt>
<trkpt lat="37.818798000" lon="-121.975520000"><ele>138.8</ele><time>2026-07-28T00:00:00Z</time></trkpt>
<trkpt lat="37.818783000" lon="-121.975400000"><ele>138.8</ele><time>2026-07-28T00:00:00Z</time></trkpt>
<trkpt lat="37.818820000" lon="-121.975490000"><ele>138.8</ele><time>2026-07-28T00:00:00Z</time></trkpt>
<trkpt lat="37.818790000" lon="-121.975590000"><ele>138.6</ele><time>2026-07-28T00:00:00Z</time></trkpt>
<trkpt lat="37.818770000" lon="-121.975690000"><ele>138.5</ele><time>2026-07-28T00:00:00Z</time></trkpt>
<trkpt lat="37.818756000" lon="-121.975810000"><ele>138.3</ele><time>2026-07-28T00:00:00Z</time></trkpt>
<trkpt lat="37.818756000" lon="-121.975920000"><ele>138.1</ele><time>2026-07-28T00:00:00Z</time></trkpt>
<trkpt lat="37.818745000" lon="-121.976020000"><ele>137.9</ele><time>2026-07-28T00:00:00Z</time></trkpt>
<trkpt lat="37.818684000" lon="-121.976120000"><ele>137.7</ele><time>2026-07-28T00:00:00Z</time></trkpt>
<trkpt lat="37.818592000" lon="-121.976110000"><ele>137.5</ele><time>2026-07-28T00:00:00Z</time></trkpt>
<trkpt lat="37.818512000" lon="-121.976100000"><ele>137.4</ele><time>2026-07-28T00:00:00Z</time></trkpt>
<trkpt lat="37.818428000" lon="-121.976074000"><ele>137.2</ele><time>2026-07-28T00:00:00Z</time></trkpt>
<trkpt lat="37.818344000" lon="-121.976070000"><ele>137.2</ele><time>2026-07-28T00:00:00Z</time></trkpt>
<trkpt lat="37.818260000" lon="-121.976060000"><ele>137.2</ele><time>2026-07-28T00:00:00Z</time></trkpt>
<trkpt lat="37.818180000" lon="-121.976050000"><ele>137.4</ele><time>2026-07-28T00:00:00Z</time></trkpt>
<trkpt lat="37.818100000" lon="-121.976030000"><ele>137.5</ele><time>2026-07-28T00:00:00Z</time></trkpt>
<trkpt lat="37.818020000" lon="-121.976006000"><ele>137.7</ele><time>2026-07-28T00:00:00Z</time></trkpt>
<trkpt lat="37.817980000" lon="-121.975900000"><ele>137.9</ele><time>2026-07-28T00:00:00Z</time></trkpt>
<trkpt lat="37.817997000" lon="-121.975784000"><ele>138.1</ele><time>2026-07-28T00:00:00Z</time></trkpt>
<trkpt lat="37.818010000" lon="-121.975680000"><ele>138.3</ele><time>2026-07-28T00:00:00Z</time></trkpt>
<trkpt lat="37.818024000" lon="-121.975555000"><ele>138.5</ele><time>2026-07-28T00:00:00Z</time></trkpt>
<trkpt lat="37.818027000" lon="-121.975430000"><ele>138.6</ele><time>2026-07-28T00:00:00Z</time></trkpt>
<trkpt lat="37.818027000" lon="-121.975320000"><ele>138.8</ele><time>2026-07-28T00:00:00Z</time></trkpt>
<trkpt lat="37.818024000" lon="-121.975204000"><ele>138.9</ele><time>2026-07-28T00:00:00Z</time></trkpt>
<trkpt lat="37.818016000" lon="-121.975090000"><ele>138.9</ele><time>2026-07-28T00:00:00Z</time></trkpt>
<trkpt lat="37.818016000" lon="-121.974970000"><ele>138.8</ele><time>2026-07-28T00:00:00Z</time></trkpt>
<trkpt lat="37.818012000" lon="-121.974850000"><ele>138.7</ele><time>2026-07-28T00:00:00Z</time></trkpt>
<trkpt lat="37.818010000" lon="-121.974750000"><ele>138.6</ele><time>2026-07-28T00:00:00Z</time></trkpt>
<trkpt lat="37.818010000" lon="-121.974650000"><ele>138.5</ele><time>2026-07-28T00:00:00Z</time></trkpt>
<trkpt lat="37.818000000" lon="-121.974530000"><ele>138.5</ele><time>2026-07-28T00:00:00Z</time></trkpt>
<trkpt lat="37.817997000" lon="-121.974420000"><ele>138.4</ele><time>2026-07-28T00:00:00Z</time></trkpt>
<trkpt lat="37.818016000" lon="-121.974320000"><ele>138.3</ele><time>2026-07-28T00:00:00Z</time></trkpt>
<trkpt lat="37.818100000" lon="-121.974290000"><ele>138.2</ele><time>2026-07-28T00:00:00Z</time></trkpt>
<trkpt lat="37.818188000" lon="-121.974280000"><ele>138.1</ele><time>2026-07-28T00:00:00Z</time></trkpt>
<trkpt lat="37.818283000" lon="-121.974270000"><ele>138.0</ele><time>2026-07-28T00:00:00Z</time></trkpt>
<trkpt lat="37.818367000" lon="-121.974266000"><ele>138.0</ele><time>2026-07-28T00:00:00Z</time></trkpt>
<trkpt lat="37.818455000" lon="-121.974290000"><ele>138.0</ele><time>2026-07-28T00:00:00Z</time></trkpt>
<trkpt lat="37.818542000" lon="-121.974270000"><ele>138.0</ele><time>2026-07-28T00:00:00Z</time></trkpt>
<trkpt lat="37.818615000" lon="-121.974236000"><ele>138.0</ele><time>2026-07-28T00:00:00Z</time></trkpt>
<trkpt lat="37.818527000" lon="-121.974200000"><ele>137.9</ele><time>2026-07-28T00:00:00Z</time></trkpt>
<trkpt lat="37.818436000" lon="-121.974210000"><ele>137.8</ele><time>2026-07-28T00:00:00Z</time></trkpt>
<trkpt lat="37.818344000" lon="-121.974210000"><ele>137.7</ele><time>2026-07-28T00:00:00Z</time></trkpt>
<trkpt lat="37.818256000" lon="-121.974230000"><ele>137.6</ele><time>2026-07-28T00:00:00Z</time></trkpt>
<trkpt lat="37.818160000" lon="-121.974220000"><ele>137.5</ele><time>2026-07-28T00:00:00Z</time></trkpt>
<trkpt lat="37.818073000" lon="-121.974230000"><ele>137.5</ele><time>2026-07-28T00:00:00Z</time></trkpt>
<trkpt lat="37.817978000" lon="-121.974205000"><ele>137.3</ele><time>2026-07-28T00:00:00Z</time></trkpt>
<trkpt lat="37.817944000" lon="-121.974090000"><ele>137.1</ele><time>2026-07-28T00:00:00Z</time></trkpt>
<trkpt lat="37.817917000" lon="-121.973980000"><ele>136.9</ele><time>2026-07-28T00:00:00Z</time></trkpt>
<trkpt lat="37.817890000" lon="-121.973880000"><ele>136.6</ele><time>2026-07-28T00:00:00Z</time></trkpt>
<trkpt lat="37.817856000" lon="-121.973780000"><ele>136.4</ele><time>2026-07-28T00:00:00Z</time></trkpt>
<trkpt lat="37.817810000" lon="-121.973670000"><ele>136.3</ele><time>2026-07-28T00:00:00Z</time></trkpt>
<trkpt lat="37.817770000" lon="-121.973590000"><ele>136.2</ele><time>2026-07-28T00:00:00Z</time></trkpt>
<trkpt lat="37.817722000" lon="-121.973490000"><ele>136.2</ele><time>2026-07-28T00:00:00Z</time></trkpt>
<trkpt lat="37.817753000" lon="-121.973390000"><ele>136.2</ele><time>2026-07-28T00:00:00Z</time></trkpt>
<trkpt lat="37.817825000" lon="-121.973330000"><ele>136.1</ele><time>2026-07-28T00:00:00Z</time></trkpt>
<trkpt lat="37.817898000" lon="-121.973280000"><ele>136.0</ele><time>2026-07-28T00:00:00Z</time></trkpt>
<trkpt lat="37.817974000" lon="-121.973240000"><ele>136.0</ele><time>2026-07-28T00:00:00Z</time></trkpt>
<trkpt lat="37.818060000" lon="-121.973190000"><ele>136.0</ele><time>2026-07-28T00:00:00Z</time></trkpt>
<trkpt lat="37.818153000" lon="-121.973160000"><ele>135.9</ele><time>2026-07-28T00:00:00Z</time></trkpt>
<trkpt lat="37.818070000" lon="-121.973114000"><ele>135.9</ele><time>2026-07-28T00:00:00Z</time></trkpt>
<trkpt lat="37.817993000" lon="-121.973150000"><ele>135.8</ele><time>2026-07-28T00:00:00Z</time></trkpt>
<trkpt lat="37.817917000" lon="-121.973190000"><ele>135.6</ele><time>2026-07-28T00:00:00Z</time></trkpt>
<trkpt lat="37.817840000" lon="-121.973230000"><ele>135.5</ele><time>2026-07-28T00:00:00Z</time></trkpt>
<trkpt lat="37.817757000" lon="-121.973280000"><ele>135.2</ele><time>2026-07-28T00:00:00Z</time></trkpt>
<trkpt lat="37.817673000" lon="-121.973310000"><ele>134.8</ele><time>2026-07-28T00:00:00Z</time></trkpt>
<trkpt lat="37.817604000" lon="-121.973260000"><ele>134.5</ele><time>2026-07-28T00:00:00Z</time></trkpt>
<trkpt lat="37.817554000" lon="-121.973175000"><ele>134.0</ele><time>2026-07-28T00:00:00Z</time></trkpt>
<trkpt lat="37.817497000" lon="-121.973100000"><ele>133.5</ele><time>2026-07-28T00:00:00Z</time></trkpt>
<trkpt lat="37.817430000" lon="-121.973030000"><ele>133.1</ele><time>2026-07-28T00:00:00Z</time></trkpt>
<trkpt lat="37.817364000" lon="-121.972950000"><ele>132.7</ele><time>2026-07-28T00:00:00Z</time></trkpt>
<trkpt lat="37.817295000" lon="-121.972885000"><ele>132.4</ele><time>2026-07-28T00:00:00Z</time></trkpt>
<trkpt lat="37.817215000" lon="-121.972824000"><ele>132.2</ele><time>2026-07-28T00:00:00Z</time></trkpt>
<trkpt lat="37.817150000" lon="-121.972760000"><ele>132.0</ele><time>2026-07-28T00:00:00Z</time></trkpt>
<trkpt lat="37.817080000" lon="-121.972694000"><ele>131.8</ele><time>2026-07-28T00:00:00Z</time></trkpt>
<trkpt lat="37.817047000" lon="-121.972595000"><ele>131.6</ele><time>2026-07-28T00:00:00Z</time></trkpt>
<trkpt lat="37.817097000" lon="-121.972496000"><ele>131.5</ele><time>2026-07-28T00:00:00Z</time></trkpt>
<trkpt lat="37.817173000" lon="-121.972440000"><ele>131.5</ele><time>2026-07-28T00:00:00Z</time></trkpt>
<trkpt lat="37.817245000" lon="-121.972374000"><ele>131.6</ele><time>2026-07-28T00:00:00Z</time></trkpt>
<trkpt lat="37.817307000" lon="-121.972305000"><ele>131.7</ele><time>2026-07-28T00:00:00Z</time></trkpt>
<trkpt lat="37.817380000" lon="-121.972230000"><ele>131.8</ele><time>2026-07-28T00:00:00Z</time></trkpt>
<trkpt lat="37.817450000" lon="-121.972180000"><ele>131.8</ele><time>2026-07-28T00:00:00Z</time></trkpt>
<trkpt lat="37.817520000" lon="-121.972130000"><ele>131.8</ele><time>2026-07-28T00:00:00Z</time></trkpt>
<trkpt lat="37.817570000" lon="-121.972046000"><ele>131.7</ele><time>2026-07-28T00:00:00Z</time></trkpt>
<trkpt lat="37.817493000" lon="-121.972100000"><ele>131.6</ele><time>2026-07-28T00:00:00Z</time></trkpt>
<trkpt lat="37.817425000" lon="-121.972160000"><ele>131.5</ele><time>2026-07-28T00:00:00Z</time></trkpt>
<trkpt lat="37.817350000" lon="-121.972230000"><ele>131.4</ele><time>2026-07-28T00:00:00Z</time></trkpt>
<trkpt lat="37.817276000" lon="-121.972300000"><ele>131.2</ele><time>2026-07-28T00:00:00Z</time></trkpt>
<trkpt lat="37.817196000" lon="-121.972370000"><ele>131.0</ele><time>2026-07-28T00:00:00Z</time></trkpt>
<trkpt lat="37.817127000" lon="-121.972420000"><ele>130.8</ele><time>2026-07-28T00:00:00Z</time></trkpt>
<trkpt lat="37.817055000" lon="-121.972496000"><ele>130.6</ele><time>2026-07-28T00:00:00Z</time></trkpt>
<trkpt lat="37.816980000" lon="-121.972560000"><ele>130.5</ele><time>2026-07-28T00:00:00Z</time></trkpt>
<trkpt lat="37.816902000" lon="-121.972500000"><ele>130.4</ele><time>2026-07-28T00:00:00Z</time></trkpt>
<trkpt lat="37.816833000" lon="-121.972430000"><ele>130.3</ele><time>2026-07-28T00:00:00Z</time></trkpt>
<trkpt lat="37.816765000" lon="-121.972360000"><ele>130.1</ele><time>2026-07-28T00:00:00Z</time></trkpt>
<trkpt lat="37.816677000" lon="-121.972330000"><ele>129.9</ele><time>2026-07-28T00:00:00Z</time></trkpt>
<trkpt lat="37.816605000" lon="-121.972260000"><ele>129.7</ele><time>2026-07-28T00:00:00Z</time></trkpt>
<trkpt lat="37.816532000" lon="-121.972190000"><ele>129.7</ele><time>2026-07-28T00:00:00Z</time></trkpt>
<trkpt lat="37.816463000" lon="-121.972115000"><ele>129.7</ele><time>2026-07-28T00:00:00Z</time></trkpt>
<trkpt lat="37.816390000" lon="-121.972030000"><ele>129.8</ele><time>2026-07-28T00:00:00Z</time></trkpt>
<trkpt lat="37.816350000" lon="-121.971924000"><ele>129.9</ele><time>2026-07-28T00:00:00Z</time></trkpt>
<trkpt lat="37.816395000" lon="-121.971820000"><ele>130.0</ele><time>2026-07-28T00:00:00Z</time></trkpt>
<trkpt lat="37.816444000" lon="-121.971725000"><ele>130.1</ele><time>2026-07-28T00:00:00Z</time></trkpt>
<trkpt lat="37.816505000" lon="-121.971640000"><ele>130.2</ele><time>2026-07-28T00:00:00Z</time></trkpt>
<trkpt lat="37.816563000" lon="-121.971540000"><ele>130.4</ele><time>2026-07-28T00:00:00Z</time></trkpt>
<trkpt lat="37.816612000" lon="-121.971466000"><ele>130.6</ele><time>2026-07-28T00:00:00Z</time></trkpt>
<trkpt lat="37.816670000" lon="-121.971375000"><ele>130.9</ele><time>2026-07-28T00:00:00Z</time></trkpt>
<trkpt lat="37.816720000" lon="-121.971290000"><ele>131.2</ele><time>2026-07-28T00:00:00Z</time></trkpt>
<trkpt lat="37.816776000" lon="-121.971210000"><ele>131.4</ele><time>2026-07-28T00:00:00Z</time></trkpt>
<trkpt lat="37.816826000" lon="-121.971115000"><ele>131.5</ele><time>2026-07-28T00:00:00Z</time></trkpt>
<trkpt lat="37.816880000" lon="-121.971020000"><ele>131.5</ele><time>2026-07-28T00:00:00Z</time></trkpt>
<trkpt lat="37.816914000" lon="-121.970920000"><ele>131.5</ele><time>2026-07-28T00:00:00Z</time></trkpt>
<trkpt lat="37.816837000" lon="-121.970970000"><ele>131.5</ele><time>2026-07-28T00:00:00Z</time></trkpt>
<trkpt lat="37.816800000" lon="-121.971070000"><ele>131.5</ele><time>2026-07-28T00:00:00Z</time></trkpt>
<trkpt lat="37.816750000" lon="-121.971170000"><ele>131.5</ele><time>2026-07-28T00:00:00Z</time></trkpt>
<trkpt lat="37.816685000" lon="-121.971260000"><ele>131.3</ele><time>2026-07-28T00:00:00Z</time></trkpt>
<trkpt lat="37.816640000" lon="-121.971344000"><ele>131.1</ele><time>2026-07-28T00:00:00Z</time></trkpt>
<trkpt lat="37.816586000" lon="-121.971420000"><ele>130.8</ele><time>2026-07-28T00:00:00Z</time></trkpt>
<trkpt lat="37.816532000" lon="-121.971504000"><ele>130.5</ele><time>2026-07-28T00:00:00Z</time></trkpt>
<trkpt lat="37.816486000" lon="-121.971590000"><ele>130.3</ele><time>2026-07-28T00:00:00Z</time></trkpt>
<trkpt lat="37.816437000" lon="-121.971670000"><ele>130.1</ele><time>2026-07-28T00:00:00Z</time></trkpt>
<trkpt lat="37.816380000" lon="-121.971760000"><ele>130.0</ele><time>2026-07-28T00:00:00Z</time></trkpt>
<trkpt lat="37.816303000" lon="-121.971825000"><ele>129.9</ele><time>2026-07-28T00:00:00Z</time></trkpt>
<trkpt lat="37.816223000" lon="-121.971790000"><ele>129.8</ele><time>2026-07-28T00:00:00Z</time></trkpt>
<trkpt lat="37.816150000" lon="-121.971710000"><ele>129.7</ele><time>2026-07-28T00:00:00Z</time></trkpt>
<trkpt lat="37.816082000" lon="-121.971650000"><ele>129.6</ele><time>2026-07-28T00:00:00Z</time></trkpt>
<trkpt lat="37.816013000" lon="-121.971565000"><ele>129.6</ele><time>2026-07-28T00:00:00Z</time></trkpt>
<trkpt lat="37.815933000" lon="-121.971510000"><ele>129.6</ele><time>2026-07-28T00:00:00Z</time></trkpt>
<trkpt lat="37.815860000" lon="-121.971450000"><ele>129.7</ele><time>2026-07-28T00:00:00Z</time></trkpt>
<trkpt lat="37.815784000" lon="-121.971380000"><ele>129.8</ele><time>2026-07-28T00:00:00Z</time></trkpt>
<trkpt lat="37.815723000" lon="-121.971310000"><ele>130.0</ele><time>2026-07-28T00:00:00Z</time></trkpt>
<trkpt lat="37.815660000" lon="-121.971250000"><ele>130.2</ele><time>2026-07-28T00:00:00Z</time></trkpt>
<trkpt lat="37.815605000" lon="-121.971150000"><ele>130.2</ele><time>2026-07-28T00:00:00Z</time></trkpt>
<trkpt lat="37.815643000" lon="-121.971050000"><ele>130.2</ele><time>2026-07-28T00:00:00Z</time></trkpt>
<trkpt lat="37.815680000" lon="-121.970940000"><ele>130.3</ele><time>2026-07-28T00:00:00Z</time></trkpt>
<trkpt lat="37.815727000" lon="-121.970856000"><ele>130.4</ele><time>2026-07-28T00:00:00Z</time></trkpt>
<trkpt lat="37.815773000" lon="-121.970764000"><ele>130.5</ele><time>2026-07-28T00:00:00Z</time></trkpt>
<trkpt lat="37.815830000" lon="-121.970670000"><ele>130.5</ele><time>2026-07-28T00:00:00Z</time></trkpt>
<trkpt lat="37.815870000" lon="-121.970580000"><ele>130.6</ele><time>2026-07-28T00:00:00Z</time></trkpt>
<trkpt lat="37.815914000" lon="-121.970490000"><ele>130.7</ele><time>2026-07-28T00:00:00Z</time></trkpt>
<trkpt lat="37.815968000" lon="-121.970406000"><ele>130.8</ele><time>2026-07-28T00:00:00Z</time></trkpt>
<trkpt lat="37.816017000" lon="-121.970300000"><ele>130.8</ele><time>2026-07-28T00:00:00Z</time></trkpt>
<trkpt lat="37.816067000" lon="-121.970210000"><ele>130.8</ele><time>2026-07-28T00:00:00Z</time></trkpt>
<trkpt lat="37.816120000" lon="-121.970116000"><ele>130.9</ele><time>2026-07-28T00:00:00Z</time></trkpt>
<trkpt lat="37.816170000" lon="-121.970020000"><ele>131.0</ele><time>2026-07-28T00:00:00Z</time></trkpt>
<trkpt lat="37.816220000" lon="-121.969930000"><ele>131.0</ele><time>2026-07-28T00:00:00Z</time></trkpt>
<trkpt lat="37.816265000" lon="-121.969830000"><ele>131.0</ele><time>2026-07-28T00:00:00Z</time></trkpt>
<trkpt lat="37.816326000" lon="-121.969750000"><ele>131.0</ele><time>2026-07-28T00:00:00Z</time></trkpt>
<trkpt lat="37.816254000" lon="-121.969810000"><ele>131.0</ele><time>2026-07-28T00:00:00Z</time></trkpt>
<trkpt lat="37.816210000" lon="-121.969900000"><ele>131.0</ele><time>2026-07-28T00:00:00Z</time></trkpt>
<trkpt lat="37.816170000" lon="-121.970000000"><ele>131.0</ele><time>2026-07-28T00:00:00Z</time></trkpt>
<trkpt lat="37.816120000" lon="-121.970090000"><ele>130.9</ele><time>2026-07-28T00:00:00Z</time></trkpt>
<trkpt lat="37.816082000" lon="-121.970184000"><ele>130.8</ele><time>2026-07-28T00:00:00Z</time></trkpt>
<trkpt lat="37.816032000" lon="-121.970270000"><ele>130.8</ele><time>2026-07-28T00:00:00Z</time></trkpt>
<trkpt lat="37.815983000" lon="-121.970370000"><ele>130.8</ele><time>2026-07-28T00:00:00Z</time></trkpt>
<trkpt lat="37.815930000" lon="-121.970450000"><ele>130.7</ele><time>2026-07-28T00:00:00Z</time></trkpt>
<trkpt lat="37.815872000" lon="-121.970535000"><ele>130.6</ele><time>2026-07-28T00:00:00Z</time></trkpt>
<trkpt lat="37.815826000" lon="-121.970640000"><ele>130.5</ele><time>2026-07-28T00:00:00Z</time></trkpt>
<trkpt lat="37.815784000" lon="-121.970740000"><ele>130.5</ele><time>2026-07-28T00:00:00Z</time></trkpt>
<trkpt lat="37.815730000" lon="-121.970840000"><ele>130.4</ele><time>2026-07-28T00:00:00Z</time></trkpt>
<trkpt lat="37.815685000" lon="-121.970924000"><ele>130.3</ele><time>2026-07-28T00:00:00Z</time></trkpt>
<trkpt lat="37.815628000" lon="-121.971020000"><ele>130.2</ele><time>2026-07-28T00:00:00Z</time></trkpt>
<trkpt lat="37.815550000" lon="-121.971085000"><ele>130.2</ele><time>2026-07-28T00:00:00Z</time></trkpt>
<trkpt lat="37.815468000" lon="-121.971054000"><ele>130.2</ele><time>2026-07-28T00:00:00Z</time></trkpt>
<trkpt lat="37.815407000" lon="-121.970985000"><ele>130.2</ele><time>2026-07-28T00:00:00Z</time></trkpt>
<trkpt lat="37.815340000" lon="-121.970900000"><ele>130.2</ele><time>2026-07-28T00:00:00Z</time></trkpt>
<trkpt lat="37.815260000" lon="-121.970825000"><ele>130.2</ele><time>2026-07-28T00:00:00Z</time></trkpt>
<trkpt lat="37.815193000" lon="-121.970740000"><ele>130.2</ele><time>2026-07-28T00:00:00Z</time></trkpt>
<trkpt lat="37.815200000" lon="-121.970630000"><ele>130.3</ele><time>2026-07-28T00:00:00Z</time></trkpt>
<trkpt lat="37.815250000" lon="-121.970530000"><ele>130.4</ele><time>2026-07-28T00:00:00Z</time></trkpt>
<trkpt lat="37.815308000" lon="-121.970430000"><ele>130.5</ele><time>2026-07-28T00:00:00Z</time></trkpt>
<trkpt lat="37.815353000" lon="-121.970340000"><ele>130.5</ele><time>2026-07-28T00:00:00Z</time></trkpt>
<trkpt lat="37.815400000" lon="-121.970245000"><ele>130.6</ele><time>2026-07-28T00:00:00Z</time></trkpt>
<trkpt lat="37.815453000" lon="-121.970146000"><ele>130.7</ele><time>2026-07-28T00:00:00Z</time></trkpt>
<trkpt lat="37.815495000" lon="-121.970055000"><ele>130.8</ele><time>2026-07-28T00:00:00Z</time></trkpt>
<trkpt lat="37.815548000" lon="-121.969960000"><ele>130.8</ele><time>2026-07-28T00:00:00Z</time></trkpt>
<trkpt lat="37.815605000" lon="-121.969870000"><ele>130.8</ele><time>2026-07-28T00:00:00Z</time></trkpt>
<trkpt lat="37.815655000" lon="-121.969770000"><ele>130.9</ele><time>2026-07-28T00:00:00Z</time></trkpt>
<trkpt lat="37.815716000" lon="-121.969680000"><ele>131.0</ele><time>2026-07-28T00:00:00Z</time></trkpt>
<trkpt lat="37.815760000" lon="-121.969574000"><ele>131.0</ele><time>2026-07-28T00:00:00Z</time></trkpt>
<trkpt lat="37.815810000" lon="-121.969475000"><ele>131.0</ele><time>2026-07-28T00:00:00Z</time></trkpt>
<trkpt lat="37.815845000" lon="-121.969376000"><ele>131.0</ele><time>2026-07-28T00:00:00Z</time></trkpt>
<trkpt lat="37.815884000" lon="-121.969284000"><ele>131.0</ele><time>2026-07-28T00:00:00Z</time></trkpt>
<trkpt lat="37.815918000" lon="-121.969185000"><ele>131.0</ele><time>2026-07-28T00:00:00Z</time></trkpt>
<trkpt lat="37.815964000" lon="-121.969090000"><ele>131.0</ele><time>2026-07-28T00:00:00Z</time></trkpt>
<trkpt lat="37.816017000" lon="-121.969000000"><ele>131.0</ele><time>2026-07-28T00:00:00Z</time></trkpt>
<trkpt lat="37.816067000" lon="-121.968900000"><ele>130.9</ele><time>2026-07-28T00:00:00Z</time></trkpt>
<trkpt lat="37.816100000" lon="-121.968800000"><ele>130.9</ele><time>2026-07-28T00:00:00Z</time></trkpt>
<trkpt lat="37.816124000" lon="-121.968700000"><ele>130.9</ele><time>2026-07-28T00:00:00Z</time></trkpt>
<trkpt lat="37.816200000" lon="-121.968660000"><ele>130.9</ele><time>2026-07-28T00:00:00Z</time></trkpt>
<trkpt lat="37.816265000" lon="-121.968580000"><ele>130.9</ele><time>2026-07-28T00:00:00Z</time></trkpt>
<trkpt lat="37.816353000" lon="-121.968630000"><ele>130.9</ele><time>2026-07-28T00:00:00Z</time></trkpt>
<trkpt lat="37.816420000" lon="-121.968690000"><ele>130.9</ele><time>2026-07-28T00:00:00Z</time></trkpt>
<trkpt lat="37.816490000" lon="-121.968750000"><ele>130.9</ele><time>2026-07-28T00:00:00Z</time></trkpt>
<trkpt lat="37.816550000" lon="-121.968840000"><ele>131.0</ele><time>2026-07-28T00:00:00Z</time></trkpt>
<trkpt lat="37.816620000" lon="-121.968925000"><ele>131.1</ele><time>2026-07-28T00:00:00Z</time></trkpt>
<trkpt lat="37.816673000" lon="-121.969025000"><ele>131.2</ele><time>2026-07-28T00:00:00Z</time></trkpt>
<trkpt lat="37.816700000" lon="-121.969124000"><ele>131.3</ele><time>2026-07-28T00:00:00Z</time></trkpt>
<trkpt lat="37.816727000" lon="-121.969215000"><ele>131.3</ele><time>2026-07-28T00:00:00Z</time></trkpt>
<trkpt lat="37.816753000" lon="-121.969320000"><ele>131.4</ele><time>2026-07-28T00:00:00Z</time></trkpt>
<trkpt lat="37.816757000" lon="-121.969430000"><ele>131.5</ele><time>2026-07-28T00:00:00Z</time></trkpt>
<trkpt lat="37.816788000" lon="-121.969520000"><ele>131.5</ele><time>2026-07-28T00:00:00Z</time></trkpt>
<trkpt lat="37.816830000" lon="-121.969630000"><ele>131.6</ele><time>2026-07-28T00:00:00Z</time></trkpt>
<trkpt lat="37.816860000" lon="-121.969730000"><ele>131.7</ele><time>2026-07-28T00:00:00Z</time></trkpt>
<trkpt lat="37.816890000" lon="-121.969820000"><ele>131.8</ele><time>2026-07-28T00:00:00Z</time></trkpt>
<trkpt lat="37.816930000" lon="-121.969920000"><ele>131.8</ele><time>2026-07-28T00:00:00Z</time></trkpt>
<trkpt lat="37.816970000" lon="-121.970024000"><ele>131.9</ele><time>2026-07-28T00:00:00Z</time></trkpt>
<trkpt lat="37.817020000" lon="-121.970120000"><ele>132.0</ele><time>2026-07-28T00:00:00Z</time></trkpt>
<trkpt lat="37.817097000" lon="-121.970190000"><ele>132.2</ele><time>2026-07-28T00:00:00Z</time></trkpt>
<trkpt lat="37.817146000" lon="-121.970290000"><ele>132.3</ele><time>2026-07-28T00:00:00Z</time></trkpt>
<trkpt lat="37.817196000" lon="-121.970400000"><ele>132.3</ele><time>2026-07-28T00:00:00Z</time></trkpt>
<trkpt lat="37.817250000" lon="-121.970500000"><ele>132.4</ele><time>2026-07-28T00:00:00Z</time></trkpt>
<trkpt lat="37.817300000" lon="-121.970600000"><ele>132.5</ele><time>2026-07-28T00:00:00Z</time></trkpt>
<trkpt lat="37.817350000" lon="-121.970695000"><ele>132.5</ele><time>2026-07-28T00:00:00Z</time></trkpt>
<trkpt lat="37.817413000" lon="-121.970790000"><ele>132.5</ele><time>2026-07-28T00:00:00Z</time></trkpt>
<trkpt lat="37.817467000" lon="-121.970890000"><ele>132.5</ele><time>2026-07-28T00:00:00Z</time></trkpt>
<trkpt lat="37.817520000" lon="-121.970985000"><ele>132.5</ele><time>2026-07-28T00:00:00Z</time></trkpt>
<trkpt lat="37.817570000" lon="-121.971085000"><ele>132.5</ele><time>2026-07-28T00:00:00Z</time></trkpt>
<trkpt lat="37.817616000" lon="-121.971176000"><ele>132.5</ele><time>2026-07-28T00:00:00Z</time></trkpt>
<trkpt lat="37.817665000" lon="-121.971275000"><ele>132.5</ele><time>2026-07-28T00:00:00Z</time></trkpt>
<trkpt lat="37.817722000" lon="-121.971360000"><ele>132.5</ele><time>2026-07-28T00:00:00Z</time></trkpt>
<trkpt lat="37.817772000" lon="-121.971466000"><ele>132.5</ele><time>2026-07-28T00:00:00Z</time></trkpt>
<trkpt lat="37.817818000" lon="-121.971560000"><ele>132.4</ele><time>2026-07-28T00:00:00Z</time></trkpt>
<trkpt lat="37.817870000" lon="-121.971650000"><ele>132.4</ele><time>2026-07-28T00:00:00Z</time></trkpt>
<trkpt lat="37.817920000" lon="-121.971730000"><ele>132.4</ele><time>2026-07-28T00:00:00Z</time></trkpt>
<trkpt lat="37.817963000" lon="-121.971825000"><ele>132.5</ele><time>2026-07-28T00:00:00Z</time></trkpt>
<trkpt lat="37.818024000" lon="-121.971920000"><ele>132.7</ele><time>2026-07-28T00:00:00Z</time></trkpt>
<trkpt lat="37.818070000" lon="-121.972010000"><ele>133.0</ele><time>2026-07-28T00:00:00Z</time></trkpt>
<trkpt lat="37.818123000" lon="-121.972110000"><ele>133.2</ele><time>2026-07-28T00:00:00Z</time></trkpt>
<trkpt lat="37.818172000" lon="-121.972190000"><ele>133.5</ele><time>2026-07-28T00:00:00Z</time></trkpt>
<trkpt lat="37.818222000" lon="-121.972275000"><ele>133.8</ele><time>2026-07-28T00:00:00Z</time></trkpt>
<trkpt lat="37.818268000" lon="-121.972360000"><ele>134.2</ele><time>2026-07-28T00:00:00Z</time></trkpt>
<trkpt lat="37.818330000" lon="-121.972440000"><ele>134.6</ele><time>2026-07-28T00:00:00Z</time></trkpt>
<trkpt lat="37.818382000" lon="-121.972540000"><ele>135.2</ele><time>2026-07-28T00:00:00Z</time></trkpt>
<trkpt lat="37.818436000" lon="-121.972640000"><ele>135.6</ele><time>2026-07-28T00:00:00Z</time></trkpt>
<trkpt lat="37.818490000" lon="-121.972730000"><ele>136.2</ele><time>2026-07-28T00:00:00Z</time></trkpt>
<trkpt lat="37.818550000" lon="-121.972820000"><ele>136.6</ele><time>2026-07-28T00:00:00Z</time></trkpt>
<trkpt lat="37.818600000" lon="-121.972916000"><ele>137.2</ele><time>2026-07-28T00:00:00Z</time></trkpt>
<trkpt lat="37.818650000" lon="-121.973015000"><ele>137.6</ele><time>2026-07-28T00:00:00Z</time></trkpt>
<trkpt lat="37.818703000" lon="-121.973110000"><ele>138.1</ele><time>2026-07-28T00:00:00Z</time></trkpt>
<trkpt lat="37.818756000" lon="-121.973206000"><ele>138.5</ele><time>2026-07-28T00:00:00Z</time></trkpt>
<trkpt lat="37.818810000" lon="-121.973305000"><ele>139.0</ele><time>2026-07-28T00:00:00Z</time></trkpt>
<trkpt lat="37.818860000" lon="-121.973400000"><ele>139.5</ele><time>2026-07-28T00:00:00Z</time></trkpt>
<trkpt lat="37.818905000" lon="-121.973495000"><ele>139.9</ele><time>2026-07-28T00:00:00Z</time></trkpt>
<trkpt lat="37.818954000" lon="-121.973590000"><ele>140.3</ele><time>2026-07-28T00:00:00Z</time></trkpt>
<trkpt lat="37.819004000" lon="-121.973690000"><ele>140.6</ele><time>2026-07-28T00:00:00Z</time></trkpt>
<trkpt lat="37.819046000" lon="-121.973800000"><ele>140.9</ele><time>2026-07-28T00:00:00Z</time></trkpt>
<trkpt lat="37.819080000" lon="-121.973915000"><ele>141.2</ele><time>2026-07-28T00:00:00Z</time></trkpt>
<trkpt lat="37.819115000" lon="-121.974010000"><ele>141.4</ele><time>2026-07-28T00:00:00Z</time></trkpt>
<trkpt lat="37.819140000" lon="-121.974120000"><ele>141.6</ele><time>2026-07-28T00:00:00Z</time></trkpt>
<trkpt lat="37.819183000" lon="-121.974230000"><ele>141.9</ele><time>2026-07-28T00:00:00Z</time></trkpt>
<trkpt lat="37.819220000" lon="-121.974340000"><ele>142.1</ele><time>2026-07-28T00:00:00Z</time></trkpt>
<trkpt lat="37.819244000" lon="-121.974460000"><ele>142.3</ele><time>2026-07-28T00:00:00Z</time></trkpt>
<trkpt lat="37.819267000" lon="-121.974556000"><ele>142.5</ele><time>2026-07-28T00:00:00Z</time></trkpt>
<trkpt lat="37.819280000" lon="-121.974660000"><ele>142.5</ele><time>2026-07-28T00:00:00Z</time></trkpt>
<trkpt lat="37.819286000" lon="-121.974770000"><ele>142.6</ele><time>2026-07-28T00:00:00Z</time></trkpt>
<trkpt lat="37.819313000" lon="-121.974870000"><ele>142.6</ele><time>2026-07-28T00:00:00Z</time></trkpt>
<trkpt lat="37.819320000" lon="-121.974976000"><ele>142.6</ele><time>2026-07-28T00:00:00Z</time></trkpt>
<trkpt lat="37.819336000" lon="-121.975090000"><ele>142.6</ele><time>2026-07-28T00:00:00Z</time></trkpt>
<trkpt lat="37.819355000" lon="-121.975200000"><ele>142.5</ele><time>2026-07-28T00:00:00Z</time></trkpt>
<trkpt lat="37.819378000" lon="-121.975310000"><ele>142.4</ele><time>2026-07-28T00:00:00Z</time></trkpt>
<trkpt lat="37.819393000" lon="-121.975420000"><ele>142.1</ele><time>2026-07-28T00:00:00Z</time></trkpt>
<trkpt lat="37.819410000" lon="-121.975530000"><ele>141.7</ele><time>2026-07-28T00:00:00Z</time></trkpt>
<trkpt lat="37.819420000" lon="-121.975650000"><ele>141.4</ele><time>2026-07-28T00:00:00Z</time></trkpt>
<trkpt lat="37.819430000" lon="-121.975760000"><ele>140.9</ele><time>2026-07-28T00:00:00Z</time></trkpt>
<trkpt lat="37.819443000" lon="-121.975876000"><ele>140.4</ele><time>2026-07-28T00:00:00Z</time></trkpt>
<trkpt lat="37.819460000" lon="-121.975990000"><ele>139.7</ele><time>2026-07-28T00:00:00Z</time></trkpt>
<trkpt lat="37.819477000" lon="-121.976100000"><ele>139.2</ele><time>2026-07-28T00:00:00Z</time></trkpt>
<trkpt lat="37.819496000" lon="-121.976210000"><ele>138.6</ele><time>2026-07-28T00:00:00Z</time></trkpt>
<trkpt lat="37.819588000" lon="-121.976250000"><ele>138.1</ele><time>2026-07-28T00:00:00Z</time></trkpt>
<trkpt lat="37.819668000" lon="-121.976280000"><ele>137.5</ele><time>2026-07-28T00:00:00Z</time></trkpt>
<trkpt lat="37.819714000" lon="-121.976370000"><ele>137.0</ele><time>2026-07-28T00:00:00Z</time></trkpt>
<trkpt lat="37.819717000" lon="-121.976480000"><ele>136.5</ele><time>2026-07-28T00:00:00Z</time></trkpt>
<trkpt lat="37.819730000" lon="-121.976585000"><ele>136.1</ele><time>2026-07-28T00:00:00Z</time></trkpt>
<trkpt lat="37.819725000" lon="-121.976700000"><ele>135.6</ele><time>2026-07-28T00:00:00Z</time></trkpt>
<trkpt lat="37.819736000" lon="-121.976810000"><ele>135.2</ele><time>2026-07-28T00:00:00Z</time></trkpt>
<trkpt lat="37.819736000" lon="-121.976920000"><ele>134.7</ele><time>2026-07-28T00:00:00Z</time></trkpt>
<trkpt lat="37.819736000" lon="-121.977036000"><ele>134.3</ele><time>2026-07-28T00:00:00Z</time></trkpt>
<trkpt lat="37.819740000" lon="-121.977140000"><ele>133.8</ele><time>2026-07-28T00:00:00Z</time></trkpt>
<trkpt lat="37.819740000" lon="-121.977260000"><ele>133.4</ele><time>2026-07-28T00:00:00Z</time></trkpt>
<trkpt lat="37.819748000" lon="-121.977370000"><ele>132.8</ele><time>2026-07-28T00:00:00Z</time></trkpt>
<trkpt lat="37.819763000" lon="-121.977486000"><ele>132.4</ele><time>2026-07-28T00:00:00Z</time></trkpt>
<trkpt lat="37.819767000" lon="-121.977610000"><ele>131.8</ele><time>2026-07-28T00:00:00Z</time></trkpt>
<trkpt lat="37.819750000" lon="-121.977710000"><ele>131.3</ele><time>2026-07-28T00:00:00Z</time></trkpt>
<trkpt lat="37.819780000" lon="-121.977810000"><ele>130.8</ele><time>2026-07-28T00:00:00Z</time></trkpt>
<trkpt lat="37.819770000" lon="-121.977930000"><ele>130.4</ele><time>2026-07-28T00:00:00Z</time></trkpt>
<trkpt lat="37.819763000" lon="-121.978040000"><ele>129.9</ele><time>2026-07-28T00:00:00Z</time></trkpt>
<trkpt lat="37.819770000" lon="-121.978150000"><ele>129.5</ele><time>2026-07-28T00:00:00Z</time></trkpt>
<trkpt lat="37.819770000" lon="-121.978260000"><ele>129.3</ele><time>2026-07-28T00:00:00Z</time></trkpt>
<trkpt lat="37.819780000" lon="-121.978370000"><ele>128.9</ele><time>2026-07-28T00:00:00Z</time></trkpt>
<trkpt lat="37.819790000" lon="-121.978480000"><ele>128.5</ele><time>2026-07-28T00:00:00Z</time></trkpt>
<trkpt lat="37.819805000" lon="-121.978584000"><ele>128.3</ele><time>2026-07-28T00:00:00Z</time></trkpt>
<trkpt lat="37.819830000" lon="-121.978700000"><ele>128.0</ele><time>2026-07-28T00:00:00Z</time></trkpt>
<trkpt lat="37.819847000" lon="-121.978806000"><ele>127.7</ele><time>2026-07-28T00:00:00Z</time></trkpt>
<trkpt lat="37.819860000" lon="-121.978920000"><ele>127.5</ele><time>2026-07-28T00:00:00Z</time></trkpt>
<trkpt lat="37.819866000" lon="-121.979034000"><ele>127.1</ele><time>2026-07-28T00:00:00Z</time></trkpt>
<trkpt lat="37.819880000" lon="-121.979150000"><ele>126.7</ele><time>2026-07-28T00:00:00Z</time></trkpt>
<trkpt lat="37.819890000" lon="-121.979260000"><ele>126.5</ele><time>2026-07-28T00:00:00Z</time></trkpt>
<trkpt lat="37.819912000" lon="-121.979370000"><ele>126.2</ele><time>2026-07-28T00:00:00Z</time></trkpt>
<trkpt lat="37.819946000" lon="-121.979485000"><ele>125.9</ele><time>2026-07-28T00:00:00Z</time></trkpt>
<trkpt lat="37.819960000" lon="-121.979590000"><ele>125.7</ele><time>2026-07-28T00:00:00Z</time></trkpt>
<trkpt lat="37.819977000" lon="-121.979700000"><ele>125.5</ele><time>2026-07-28T00:00:00Z</time></trkpt>
<trkpt lat="37.819996000" lon="-121.979810000"><ele>125.2</ele><time>2026-07-28T00:00:00Z</time></trkpt>
<trkpt lat="37.820026000" lon="-121.979910000"><ele>124.9</ele><time>2026-07-28T00:00:00Z</time></trkpt>
<trkpt lat="37.820060000" lon="-121.980010000"><ele>124.7</ele><time>2026-07-28T00:00:00Z</time></trkpt>
<trkpt lat="37.820090000" lon="-121.980110000"><ele>124.5</ele><time>2026-07-28T00:00:00Z</time></trkpt>
<trkpt lat="37.820120000" lon="-121.980210000"><ele>124.2</ele><time>2026-07-28T00:00:00Z</time></trkpt>
<trkpt lat="37.820156000" lon="-121.980310000"><ele>123.9</ele><time>2026-07-28T00:00:00Z</time></trkpt>
<trkpt lat="37.820190000" lon="-121.980415000"><ele>123.6</ele><time>2026-07-28T00:00:00Z</time></trkpt>
<trkpt lat="37.820230000" lon="-121.980530000"><ele>123.4</ele><time>2026-07-28T00:00:00Z</time></trkpt>
<trkpt lat="37.820280000" lon="-121.980620000"><ele>123.0</ele><time>2026-07-28T00:00:00Z</time></trkpt>
<trkpt lat="37.820320000" lon="-121.980710000"><ele>122.6</ele><time>2026-07-28T00:00:00Z</time></trkpt>
<trkpt lat="37.820370000" lon="-121.980804000"><ele>122.3</ele><time>2026-07-28T00:00:00Z</time></trkpt>
<trkpt lat="37.820408000" lon="-121.980900000"><ele>121.9</ele><time>2026-07-28T00:00:00Z</time></trkpt>
<trkpt lat="37.820454000" lon="-121.980995000"><ele>121.5</ele><time>2026-07-28T00:00:00Z</time></trkpt>
<trkpt lat="37.820490000" lon="-121.981094000"><ele>121.1</ele><time>2026-07-28T00:00:00Z</time></trkpt>
<trkpt lat="37.820530000" lon="-121.981186000"><ele>120.7</ele><time>2026-07-28T00:00:00Z</time></trkpt>
<trkpt lat="37.820570000" lon="-121.981280000"><ele>120.5</ele><time>2026-07-28T00:00:00Z</time></trkpt>
<trkpt lat="37.820600000" lon="-121.981384000"><ele>120.3</ele><time>2026-07-28T00:00:00Z</time></trkpt>
<trkpt lat="37.820650000" lon="-121.981470000"><ele>120.1</ele><time>2026-07-28T00:00:00Z</time></trkpt>
<trkpt lat="37.820732000" lon="-121.981415000"><ele>119.9</ele><time>2026-07-28T00:00:00Z</time></trkpt>
<trkpt lat="37.820805000" lon="-121.981350000"><ele>119.8</ele><time>2026-07-28T00:00:00Z</time></trkpt>
<trkpt lat="37.820880000" lon="-121.981290000"><ele>119.7</ele><time>2026-07-28T00:00:00Z</time></trkpt>
<trkpt lat="37.820953000" lon="-121.981240000"><ele>119.7</ele><time>2026-07-28T00:00:00Z</time></trkpt>
<trkpt lat="37.821026000" lon="-121.981180000"><ele>119.8</ele><time>2026-07-28T00:00:00Z</time></trkpt>
<trkpt lat="37.821095000" lon="-121.981120000"><ele>119.9</ele><time>2026-07-28T00:00:00Z</time></trkpt>
<trkpt lat="37.821167000" lon="-121.981070000"><ele>120.1</ele><time>2026-07-28T00:00:00Z</time></trkpt>
<trkpt lat="37.821240000" lon="-121.981010000"><ele>120.3</ele><time>2026-07-28T00:00:00Z</time></trkpt>
<trkpt lat="37.821300000" lon="-121.980940000"><ele>120.5</ele><time>2026-07-28T00:00:00Z</time></trkpt>
<trkpt lat="37.821285000" lon="-121.980820000"><ele>120.5</ele><time>2026-07-28T00:00:00Z</time></trkpt>
<trkpt lat="37.821247000" lon="-121.980730000"><ele>120.6</ele><time>2026-07-28T00:00:00Z</time></trkpt>
<trkpt lat="37.821210000" lon="-121.980640000"><ele>120.8</ele><time>2026-07-28T00:00:00Z</time></trkpt>
<trkpt lat="37.821163000" lon="-121.980540000"><ele>121.0</ele><time>2026-07-28T00:00:00Z</time></trkpt>
<trkpt lat="37.821120000" lon="-121.980446000"><ele>121.2</ele><time>2026-07-28T00:00:00Z</time></trkpt>
<trkpt lat="37.821070000" lon="-121.980340000"><ele>121.3</ele><time>2026-07-28T00:00:00Z</time></trkpt>
<trkpt lat="37.821037000" lon="-121.980250000"><ele>121.4</ele><time>2026-07-28T00:00:00Z</time></trkpt>
<trkpt lat="37.820960000" lon="-121.980210000"><ele>121.4</ele><time>2026-07-28T00:00:00Z</time></trkpt>
<trkpt lat="37.820890000" lon="-121.980270000"><ele>121.4</ele><time>2026-07-28T00:00:00Z</time></trkpt>
<trkpt lat="37.820820000" lon="-121.980350000"><ele>121.5</ele><time>2026-07-28T00:00:00Z</time></trkpt>
<trkpt lat="37.820797000" lon="-121.980446000"><ele>121.6</ele><time>2026-07-28T00:00:00Z</time></trkpt>
<trkpt lat="37.820740000" lon="-121.980440000"><ele>121.7</ele><time>2026-07-28T00:00:00Z</time></trkpt>
</trkseg>
</trk>
</gpx>
