<?xml version="1.0" encoding="UTF-8"?>
<gpx
  version="1.1"
  creator="Runkeeper - http://www.runkeeper.com"
  xmlns:xsi="http://www.w3.org/2001/XMLSchema-instance"
  xmlns="http://www.topografix.com/GPX/1/1"
  xsi:schemaLocation="http://www.topografix.com/GPX/1/1 http://www.topografix.com/GPX/1/1/gpx.xsd"
  xmlns:gpxtpx="http://www.garmin.com/xmlschemas/TrackPointExtension/v1">
<trk>
  <name><![CDATA[Walking 8/6/26]]></name>
  <time>2026-08-07T00:00:00Z</time>
<trkseg>
<trkpt lat="37.810093000" lon="-121.929054000"><ele>196.5</ele><time>2026-08-07T00:00:00Z</time></trkpt>
<trkpt lat="37.810177000" lon="-121.929020000"><ele>196.7</ele><time>2026-08-07T00:00:00Z</time></trkpt>
<trkpt lat="37.810270000" lon="-121.929050000"><ele>197.0</ele><time>2026-08-07T00:00:00Z</time></trkpt>
<trkpt lat="37.810352000" lon="-121.929090000"><ele>197.2</ele><time>2026-08-07T00:00:00Z</time></trkpt>
<trkpt lat="37.810425000" lon="-121.929146000"><ele>197.4</ele><time>2026-08-07T00:00:00Z</time></trkpt>
<trkpt lat="37.810500000" lon="-121.929210000"><ele>197.5</ele><time>2026-08-07T00:00:00Z</time></trkpt>
<trkpt lat="37.810577000" lon="-121.929276000"><ele>198.0</ele><time>2026-08-07T00:00:00Z</time></trkpt>
<trkpt lat="37.810658000" lon="-121.929290000"><ele>198.4</ele><time>2026-08-07T00:00:00Z</time></trkpt>
<trkpt lat="37.810730000" lon="-121.929370000"><ele>198.7</ele><time>2026-08-07T00:00:00Z</time></trkpt>
<trkpt lat="37.810787000" lon="-121.929440000"><ele>199.0</ele><time>2026-08-07T00:00:00Z</time></trkpt>
<trkpt lat="37.810867000" lon="-121.929500000"><ele>199.3</ele><time>2026-08-07T00:00:00Z</time></trkpt>
<trkpt lat="37.810932000" lon="-121.929570000"><ele>199.5</ele><time>2026-08-07T00:00:00Z</time></trkpt>
<trkpt lat="37.811005000" lon="-121.929630000"><ele>199.6</ele><time>2026-08-07T00:00:00Z</time></trkpt>
<trkpt lat="37.811096000" lon="-121.929640000"><ele>199.6</ele><time>2026-08-07T00:00:00Z</time></trkpt>
<trkpt lat="37.811160000" lon="-121.929700000"><ele>199.6</ele><time>2026-08-07T00:00:00Z</time></trkpt>
<trkpt lat="37.811220000" lon="-121.929790000"><ele>199.6</ele><time>2026-08-07T00:00:00Z</time></trkpt>
<trkpt lat="37.811287000" lon="-121.929840000"><ele>199.6</ele><time>2026-08-07T00:00:00Z</time></trkpt>
<trkpt lat="37.811363000" lon="-121.929900000"><ele>199.5</ele><time>2026-08-07T00:00:00Z</time></trkpt>
<trkpt lat="37.811436000" lon="-121.929970000"><ele>199.5</ele><time>2026-08-07T00:00:00Z</time></trkpt>
<trkpt lat="37.811497000" lon="-121.930040000"><ele>199.5</ele><time>2026-08-07T00:00:00Z</time></trkpt>
<trkpt lat="37.811560000" lon="-121.930100000"><ele>199.5</ele><time>2026-08-07T00:00:00Z</time></trkpt>
<trkpt lat="37.811634000" lon="-121.930160000"><ele>199.6</ele><time>2026-08-07T00:00:00Z</time></trkpt>
<trkpt lat="37.811714000" lon="-121.930230000"><ele>199.7</ele><time>2026-08-07T00:00:00Z</time></trkpt>
<trkpt lat="37.811800000" lon="-121.930275000"><ele>199.8</ele><time>2026-08-07T00:00:00Z</time></trkpt>
<trkpt lat="37.811870000" lon="-121.930320000"><ele>200.0</ele><time>2026-08-07T00:00:00Z</time></trkpt>
<trkpt lat="37.811950000" lon="-121.930360000"><ele>200.3</ele><time>2026-08-07T00:00:00Z</time></trkpt>
<trkpt lat="37.812027000" lon="-121.930405000"><ele>200.5</ele><time>2026-08-07T00:00:00Z</time></trkpt>
<trkpt lat="37.812107000" lon="-121.930450000"><ele>200.9</ele><time>2026-08-07T00:00:00Z</time></trkpt>
<trkpt lat="37.812190000" lon="-121.930504000"><ele>201.3</ele><time>2026-08-07T00:00:00Z</time></trkpt>
<trkpt lat="37.812267000" lon="-121.930560000"><ele>201.5</ele><time>2026-08-07T00:00:00Z</time></trkpt>
<trkpt lat="37.812344000" lon="-121.930600000"><ele>201.8</ele><time>2026-08-07T00:00:00Z</time></trkpt>
<trkpt lat="37.812428000" lon="-121.930650000"><ele>202.3</ele><time>2026-08-07T00:00:00Z</time></trkpt>
<trkpt lat="37.812510000" lon="-121.930700000"><ele>202.5</ele><time>2026-08-07T00:00:00Z</time></trkpt>
<trkpt lat="37.812584000" lon="-121.930750000"><ele>202.9</ele><time>2026-08-07T00:00:00Z</time></trkpt>
<trkpt lat="37.812668000" lon="-121.930800000"><ele>203.3</ele><time>2026-08-07T00:00:00Z</time></trkpt>
<trkpt lat="37.812740000" lon="-121.930855000"><ele>203.7</ele><time>2026-08-07T00:00:00Z</time></trkpt>
<trkpt lat="37.812843000" lon="-121.930880000"><ele>204.2</ele><time>2026-08-07T00:00:00Z</time></trkpt>
<trkpt lat="37.812904000" lon="-121.930954000"><ele>204.6</ele><time>2026-08-07T00:00:00Z</time></trkpt>
<trkpt lat="37.812980000" lon="-121.931000000"><ele>205.0</ele><time>2026-08-07T00:00:00Z</time></trkpt>
<trkpt lat="37.813065000" lon="-121.931030000"><ele>205.5</ele><time>2026-08-07T00:00:00Z</time></trkpt>
<trkpt lat="37.813150000" lon="-121.931076000"><ele>206.0</ele><time>2026-08-07T00:00:00Z</time></trkpt>
<trkpt lat="37.813230000" lon="-121.931130000"><ele>206.5</ele><time>2026-08-07T00:00:00Z</time></trkpt>
<trkpt lat="37.813300000" lon="-121.931180000"><ele>206.8</ele><time>2026-08-07T00:00:00Z</time></trkpt>
<trkpt lat="37.813374000" lon="-121.931230000"><ele>207.2</ele><time>2026-08-07T00:00:00Z</time></trkpt>
<trkpt lat="37.813450000" lon="-121.931270000"><ele>207.5</ele><time>2026-08-07T00:00:00Z</time></trkpt>
<trkpt lat="37.813526000" lon="-121.931300000"><ele>207.7</ele><time>2026-08-07T00:00:00Z</time></trkpt>
<trkpt lat="37.813606000" lon="-121.931340000"><ele>208.0</ele><time>2026-08-07T00:00:00Z</time></trkpt>
<trkpt lat="37.813683000" lon="-121.931380000"><ele>208.2</ele><time>2026-08-07T00:00:00Z</time></trkpt>
<trkpt lat="37.813770000" lon="-121.931390000"><ele>208.3</ele><time>2026-08-07T00:00:00Z</time></trkpt>
<trkpt lat="37.813858000" lon="-121.931410000"><ele>208.4</ele><time>2026-08-07T00:00:00Z</time></trkpt>
<trkpt lat="37.813946000" lon="-121.931430000"><ele>208.4</ele><time>2026-08-07T00:00:00Z</time></trkpt>
<trkpt lat="37.814022000" lon="-121.931470000"><ele>208.3</ele><time>2026-08-07T00:00:00Z</time></trkpt>
<trkpt lat="37.814102000" lon="-121.931526000"><ele>208.3</ele><time>2026-08-07T00:00:00Z</time></trkpt>
<trkpt lat="37.814180000" lon="-121.931595000"><ele>208.4</ele><time>2026-08-07T00:00:00Z</time></trkpt>
<trkpt lat="37.814250000" lon="-121.931656000"><ele>208.5</ele><time>2026-08-07T00:00:00Z</time></trkpt>
<trkpt lat="37.814327000" lon="-121.931720000"><ele>208.7</ele><time>2026-08-07T00:00:00Z</time></trkpt>
<trkpt lat="37.814410000" lon="-121.931780000"><ele>208.9</ele><time>2026-08-07T00:00:00Z</time></trkpt>
<trkpt lat="37.814495000" lon="-121.931816000"><ele>209.0</ele><time>2026-08-07T00:00:00Z</time></trkpt>
<trkpt lat="37.814587000" lon="-121.931840000"><ele>209.2</ele><time>2026-08-07T00:00:00Z</time></trkpt>
<trkpt lat="37.814680000" lon="-121.931870000"><ele>209.5</ele><time>2026-08-07T00:00:00Z</time></trkpt>
<trkpt lat="37.814754000" lon="-121.931910000"><ele>210.0</ele><time>2026-08-07T00:00:00Z</time></trkpt>
<trkpt lat="37.814835000" lon="-121.931940000"><ele>210.5</ele><time>2026-08-07T00:00:00Z</time></trkpt>
<trkpt lat="37.814922000" lon="-121.931960000"><ele>210.9</ele><time>2026-08-07T00:00:00Z</time></trkpt>
<trkpt lat="37.815014000" lon="-121.931980000"><ele>211.3</ele><time>2026-08-07T00:00:00Z</time></trkpt>
<trkpt lat="37.815105000" lon="-121.932010000"><ele>211.7</ele><time>2026-08-07T00:00:00Z</time></trkpt>
<trkpt lat="37.815186000" lon="-121.932020000"><ele>212.2</ele><time>2026-08-07T00:00:00Z</time></trkpt>
<trkpt lat="37.815273000" lon="-121.932060000"><ele>212.6</ele><time>2026-08-07T00:00:00Z</time></trkpt>
<trkpt lat="37.815360000" lon="-121.932100000"><ele>213.0</ele><time>2026-08-07T00:00:00Z</time></trkpt>
<trkpt lat="37.815445000" lon="-121.932130000"><ele>213.5</ele><time>2026-08-07T00:00:00Z</time></trkpt>
<trkpt lat="37.815530000" lon="-121.932150000"><ele>213.8</ele><time>2026-08-07T00:00:00Z</time></trkpt>
<trkpt lat="37.815605000" lon="-121.932100000"><ele>214.1</ele><time>2026-08-07T00:00:00Z</time></trkpt>
<trkpt lat="37.815697000" lon="-121.932110000"><ele>214.3</ele><time>2026-08-07T00:00:00Z</time></trkpt>
<trkpt lat="37.815780000" lon="-121.932150000"><ele>214.5</ele><time>2026-08-07T00:00:00Z</time></trkpt>
<trkpt lat="37.815872000" lon="-121.932150000"><ele>214.7</ele><time>2026-08-07T00:00:00Z</time></trkpt>
<trkpt lat="37.815956000" lon="-121.932150000"><ele>215.0</ele><time>2026-08-07T00:00:00Z</time></trkpt>
<trkpt lat="37.816040000" lon="-121.932144000"><ele>215.3</ele><time>2026-08-07T00:00:00Z</time></trkpt>
<trkpt lat="37.816124000" lon="-121.932144000"><ele>215.5</ele><time>2026-08-07T00:00:00Z</time></trkpt>
<trkpt lat="37.816216000" lon="-121.932144000"><ele>215.6</ele><time>2026-08-07T00:00:00Z</time></trkpt>
<trkpt lat="37.816296000" lon="-121.932140000"><ele>215.9</ele><time>2026-08-07T00:00:00Z</time></trkpt>
<trkpt lat="37.816383000" lon="-121.932140000"><ele>216.1</ele><time>2026-08-07T00:00:00Z</time></trkpt>
<trkpt lat="37.816470000" lon="-121.932144000"><ele>216.2</ele><time>2026-08-07T00:00:00Z</time></trkpt>
<trkpt lat="37.816560000" lon="-121.932160000"><ele>216.3</ele><time>2026-08-07T00:00:00Z</time></trkpt>
<trkpt lat="37.816640000" lon="-121.932175000"><ele>216.3</ele><time>2026-08-07T00:00:00Z</time></trkpt>
<trkpt lat="37.816715000" lon="-121.932230000"><ele>216.3</ele><time>2026-08-07T00:00:00Z</time></trkpt>
<trkpt lat="37.816776000" lon="-121.932304000"><ele>216.3</ele><time>2026-08-07T00:00:00Z</time></trkpt>
<trkpt lat="37.816826000" lon="-121.932396000"><ele>216.4</ele><time>2026-08-07T00:00:00Z</time></trkpt>
<trkpt lat="37.816880000" lon="-121.932465000"><ele>216.5</ele><time>2026-08-07T00:00:00Z</time></trkpt>
<trkpt lat="37.816906000" lon="-121.932570000"><ele>216.5</ele><time>2026-08-07T00:00:00Z</time></trkpt>
<trkpt lat="37.816944000" lon="-121.932670000"><ele>216.6</ele><time>2026-08-07T00:00:00Z</time></trkpt>
<trkpt lat="37.816986000" lon="-121.932770000"><ele>216.7</ele><time>2026-08-07T00:00:00Z</time></trkpt>
<trkpt lat="37.817024000" lon="-121.932860000"><ele>216.8</ele><time>2026-08-07T00:00:00Z</time></trkpt>
<trkpt lat="37.817080000" lon="-121.932940000"><ele>216.9</ele><time>2026-08-07T00:00:00Z</time></trkpt>
<trkpt lat="37.817154000" lon="-121.933014000"><ele>216.8</ele><time>2026-08-07T00:00:00Z</time></trkpt>
<trkpt lat="37.817215000" lon="-121.933100000"><ele>216.8</ele><time>2026-08-07T00:00:00Z</time></trkpt>
<trkpt lat="37.817158000" lon="-121.933020000"><ele>216.8</ele><time>2026-08-07T00:00:00Z</time></trkpt>
<trkpt lat="37.817090000" lon="-121.932950000"><ele>216.7</ele><time>2026-08-07T00:00:00Z</time></trkpt>
<trkpt lat="37.817024000" lon="-121.932870000"><ele>216.6</ele><time>2026-08-07T00:00:00Z</time></trkpt>
<trkpt lat="37.816970000" lon="-121.932780000"><ele>216.5</ele><time>2026-08-07T00:00:00Z</time></trkpt>
<trkpt lat="37.816933000" lon="-121.932680000"><ele>216.5</ele><time>2026-08-07T00:00:00Z</time></trkpt>
<trkpt lat="37.816890000" lon="-121.932580000"><ele>216.4</ele><time>2026-08-07T00:00:00Z</time></trkpt>
<trkpt lat="37.816850000" lon="-121.932490000"><ele>216.3</ele><time>2026-08-07T00:00:00Z</time></trkpt>
<trkpt lat="37.816814000" lon="-121.932396000"><ele>216.2</ele><time>2026-08-07T00:00:00Z</time></trkpt>
<trkpt lat="37.816760000" lon="-121.932304000"><ele>216.1</ele><time>2026-08-07T00:00:00Z</time></trkpt>
<trkpt lat="37.816704000" lon="-121.932230000"><ele>216.2</ele><time>2026-08-07T00:00:00Z</time></trkpt>
<trkpt lat="37.816628000" lon="-121.932175000"><ele>216.2</ele><time>2026-08-07T00:00:00Z</time></trkpt>
<trkpt lat="37.816540000" lon="-121.932144000"><ele>216.2</ele><time>2026-08-07T00:00:00Z</time></trkpt>
<trkpt lat="37.816456000" lon="-121.932140000"><ele>216.2</ele><time>2026-08-07T00:00:00Z</time></trkpt>
<trkpt lat="37.816376000" lon="-121.932130000"><ele>216.1</ele><time>2026-08-07T00:00:00Z</time></trkpt>
<trkpt lat="37.816284000" lon="-121.932140000"><ele>215.9</ele><time>2026-08-07T00:00:00Z</time></trkpt>
<trkpt lat="37.816193000" lon="-121.932140000"><ele>215.6</ele><time>2026-08-07T00:00:00Z</time></trkpt>
<trkpt lat="37.816100000" lon="-121.932140000"><ele>215.4</ele><time>2026-08-07T00:00:00Z</time></trkpt>
<trkpt lat="37.816020000" lon="-121.932144000"><ele>215.1</ele><time>2026-08-07T00:00:00Z</time></trkpt>
<trkpt lat="37.815937000" lon="-121.932144000"><ele>214.8</ele><time>2026-08-07T00:00:00Z</time></trkpt>
<trkpt lat="37.815845000" lon="-121.932144000"><ele>214.5</ele><time>2026-08-07T00:00:00Z</time></trkpt>
<trkpt lat="37.815758000" lon="-121.932144000"><ele>214.3</ele><time>2026-08-07T00:00:00Z</time></trkpt>
<trkpt lat="37.815666000" lon="-121.932144000"><ele>214.1</ele><time>2026-08-07T00:00:00Z</time></trkpt>
<trkpt lat="37.815580000" lon="-121.932144000"><ele>213.8</ele><time>2026-08-07T00:00:00Z</time></trkpt>
<trkpt lat="37.815487000" lon="-121.932144000"><ele>213.5</ele><time>2026-08-07T00:00:00Z</time></trkpt>
<trkpt lat="37.815395000" lon="-121.932120000"><ele>213.0</ele><time>2026-08-07T00:00:00Z</time></trkpt>
<trkpt lat="37.815320000" lon="-121.932100000"><ele>212.5</ele><time>2026-08-07T00:00:00Z</time></trkpt>
<trkpt lat="37.815235000" lon="-121.932070000"><ele>212.2</ele><time>2026-08-07T00:00:00Z</time></trkpt>
<trkpt lat="37.815150000" lon="-121.932050000"><ele>211.7</ele><time>2026-08-07T00:00:00Z</time></trkpt>
<trkpt lat="37.815067000" lon="-121.932020000"><ele>211.3</ele><time>2026-08-07T00:00:00Z</time></trkpt>
<trkpt lat="37.814983000" lon="-121.932000000"><ele>210.7</ele><time>2026-08-07T00:00:00Z</time></trkpt>
<trkpt lat="37.814900000" lon="-121.931984000"><ele>210.3</ele><time>2026-08-07T00:00:00Z</time></trkpt>
<trkpt lat="37.814804000" lon="-121.931950000"><ele>209.8</ele><time>2026-08-07T00:00:00Z</time></trkpt>
<trkpt lat="37.814716000" lon="-121.931920000"><ele>209.4</ele><time>2026-08-07T00:00:00Z</time></trkpt>
<trkpt lat="37.814632000" lon="-121.931900000"><ele>209.0</ele><time>2026-08-07T00:00:00Z</time></trkpt>
<trkpt lat="37.814540000" lon="-121.931870000"><ele>208.7</ele><time>2026-08-07T00:00:00Z</time></trkpt>
<trkpt lat="37.814453000" lon="-121.931816000"><ele>208.5</ele><time>2026-08-07T00:00:00Z</time></trkpt>
<trkpt lat="37.814373000" lon="-121.931760000"><ele>208.4</ele><time>2026-08-07T00:00:00Z</time></trkpt>
<trkpt lat="37.814304000" lon="-121.931710000"><ele>208.2</ele><time>2026-08-07T00:00:00Z</time></trkpt>
<trkpt lat="37.814224000" lon="-121.931640000"><ele>208.0</ele><time>2026-08-07T00:00:00Z</time></trkpt>
<trkpt lat="37.814150000" lon="-121.931590000"><ele>207.8</ele><time>2026-08-07T00:00:00Z</time></trkpt>
<trkpt lat="37.814083000" lon="-121.931530000"><ele>207.7</ele><time>2026-08-07T00:00:00Z</time></trkpt>
<trkpt lat="37.814010000" lon="-121.931490000"><ele>207.5</ele><time>2026-08-07T00:00:00Z</time></trkpt>
<trkpt lat="37.813930000" lon="-121.931440000"><ele>207.2</ele><time>2026-08-07T00:00:00Z</time></trkpt>
<trkpt lat="37.813840000" lon="-121.931430000"><ele>207.0</ele><time>2026-08-07T00:00:00Z</time></trkpt>
<trkpt lat="37.813747000" lon="-121.931410000"><ele>206.9</ele><time>2026-08-07T00:00:00Z</time></trkpt>
<trkpt lat="37.813656000" lon="-121.931400000"><ele>206.7</ele><time>2026-08-07T00:00:00Z</time></trkpt>
<trkpt lat="37.813560000" lon="-121.931420000"><ele>206.5</ele><time>2026-08-07T00:00:00Z</time></trkpt>
<trkpt lat="37.813480000" lon="-121.931380000"><ele>206.3</ele><time>2026-08-07T00:00:00Z</time></trkpt>
<trkpt lat="37.813427000" lon="-121.931300000"><ele>206.0</ele><time>2026-08-07T00:00:00Z</time></trkpt>
<trkpt lat="37.813347000" lon="-121.931230000"><ele>205.8</ele><time>2026-08-07T00:00:00Z</time></trkpt>
<trkpt lat="37.813270000" lon="-121.931190000"><ele>205.6</ele><time>2026-08-07T00:00:00Z</time></trkpt>
<trkpt lat="37.813198000" lon="-121.931140000"><ele>205.4</ele><time>2026-08-07T00:00:00Z</time></trkpt>
<trkpt lat="37.813118000" lon="-121.931080000"><ele>205.2</ele><time>2026-08-07T00:00:00Z</time></trkpt>
<trkpt lat="37.813034000" lon="-121.931020000"><ele>205.0</ele><time>2026-08-07T00:00:00Z</time></trkpt>
<trkpt lat="37.812958000" lon="-121.930960000"><ele>204.7</ele><time>2026-08-07T00:00:00Z</time></trkpt>
<trkpt lat="37.812874000" lon="-121.930910000"><ele>204.3</ele><time>2026-08-07T00:00:00Z</time></trkpt>
<trkpt lat="37.812790000" lon="-121.930880000"><ele>203.9</ele><time>2026-08-07T00:00:00Z</time></trkpt>
<trkpt lat="37.812710000" lon="-121.930830000"><ele>203.5</ele><time>2026-08-07T00:00:00Z</time></trkpt>
<trkpt lat="37.812630000" lon="-121.930780000"><ele>203.0</ele><time>2026-08-07T00:00:00Z</time></trkpt>
<trkpt lat="37.812553000" lon="-121.930725000"><ele>202.6</ele><time>2026-08-07T00:00:00Z</time></trkpt>
<trkpt lat="37.812470000" lon="-121.930670000"><ele>202.3</ele><time>2026-08-07T00:00:00Z</time></trkpt>
<trkpt lat="37.812386000" lon="-121.930630000"><ele>201.8</ele><time>2026-08-07T00:00:00Z</time></trkpt>
<trkpt lat="37.812305000" lon="-121.930570000"><ele>201.5</ele><time>2026-08-07T00:00:00Z</time></trkpt>
<trkpt lat="37.812220000" lon="-121.930530000"><ele>201.2</ele><time>2026-08-07T00:00:00Z</time></trkpt>
<trkpt lat="37.812145000" lon="-121.930480000"><ele>200.9</ele><time>2026-08-07T00:00:00Z</time></trkpt>
<trkpt lat="37.812060000" lon="-121.930435000"><ele>200.5</ele><time>2026-08-07T00:00:00Z</time></trkpt>
<trkpt lat="37.811985000" lon="-121.930380000"><ele>200.3</ele><time>2026-08-07T00:00:00Z</time></trkpt>
<trkpt lat="37.811905000" lon="-121.930336000"><ele>200.0</ele><time>2026-08-07T00:00:00Z</time></trkpt>
<trkpt lat="37.811820000" lon="-121.930290000"><ele>199.8</ele><time>2026-08-07T00:00:00Z</time></trkpt>
<trkpt lat="37.811740000" lon="-121.930240000"><ele>199.7</ele><time>2026-08-07T00:00:00Z</time></trkpt>
<trkpt lat="37.811660000" lon="-121.930180000"><ele>199.6</ele><time>2026-08-07T00:00:00Z</time></trkpt>
<trkpt lat="37.811592000" lon="-121.930130000"><ele>199.5</ele><time>2026-08-07T00:00:00Z</time></trkpt>
<trkpt lat="37.811516000" lon="-121.930070000"><ele>199.5</ele><time>2026-08-07T00:00:00Z</time></trkpt>
<trkpt lat="37.811450000" lon="-121.930000000"><ele>199.5</ele><time>2026-08-07T00:00:00Z</time></trkpt>
<trkpt lat="37.811380000" lon="-121.929950000"><ele>199.5</ele><time>2026-08-07T00:00:00Z</time></trkpt>
<trkpt lat="37.811310000" lon="-121.929886000"><ele>199.5</ele><time>2026-08-07T00:00:00Z</time></trkpt>
<trkpt lat="37.811237000" lon="-121.929830000"><ele>199.5</ele><time>2026-08-07T00:00:00Z</time></trkpt>
<trkpt lat="37.811165000" lon="-121.929780000"><ele>199.5</ele><time>2026-08-07T00:00:00Z</time></trkpt>
<trkpt lat="37.811085000" lon="-121.929726000"><ele>199.5</ele><time>2026-08-07T00:00:00Z</time></trkpt>
<trkpt lat="37.811012000" lon="-121.929665000"><ele>199.5</ele><time>2026-08-07T00:00:00Z</time></trkpt>
<trkpt lat="37.810940000" lon="-121.929600000"><ele>199.5</ele><time>2026-08-07T00:00:00Z</time></trkpt>
<trkpt lat="37.810863000" lon="-121.929550000"><ele>199.3</ele><time>2026-08-07T00:00:00Z</time></trkpt>
<trkpt lat="37.810790000" lon="-121.929480000"><ele>199.0</ele><time>2026-08-07T00:00:00Z</time></trkpt>
<trkpt lat="37.810726000" lon="-121.929420000"><ele>198.7</ele><time>2026-08-07T00:00:00Z</time></trkpt>
<trkpt lat="37.810688000" lon="-121.929310000"><ele>198.4</ele><time>2026-08-07T00:00:00Z</time></trkpt>
<trkpt lat="37.810600000" lon="-121.929310000"><ele>198.0</ele><time>2026-08-07T00:00:00Z</time></trkpt>
<trkpt lat="37.810520000" lon="-121.929245000"><ele>197.6</ele><time>2026-08-07T00:00:00Z</time></trkpt>
<trkpt lat="37.810444000" lon="-121.929184000"><ele>197.3</ele><time>2026-08-07T00:00:00Z</time></trkpt>
<trkpt lat="37.810368000" lon="-121.929140000"><ele>196.9</ele><time>2026-08-07T00:00:00Z</time></trkpt>
<trkpt lat="37.810295000" lon="-121.929080000"><ele>196.6</ele><time>2026-08-07T00:00:00Z</time></trkpt>
<trkpt lat="37.810207000" lon="-121.929040000"><ele>196.4</ele><time>2026-08-07T00:00:00Z</time></trkpt>
<trkpt lat="37.810127000" lon="-121.929016000"><ele>196.2</ele><time>2026-08-07T00:00:00Z</time></trkpt>
<trkpt lat="37.810043000" lon="-121.929040000"><ele>196.0</ele><time>2026-08-07T00:00:00Z</time></trkpt>
<trkpt lat="37.810093000" lon="-121.929130000"><ele>195.9</ele><time>2026-08-07T00:00:00Z</time></trkpt>
<trkpt lat="37.810177000" lon="-121.929146000"><ele>195.7</ele><time>2026-08-07T00:00:00Z</time></trkpt>
<trkpt lat="37.810190000" lon="-121.929160000"><ele>195.7</ele><time>2026-08-07T00:00:00Z</time></trkpt>
</trkseg>
</trk>
</gpx>
