<?xml version="1.0" encoding="UTF-8"?>
<gpx
  version="1.1"
  creator="Runkeeper - http://www.runkeeper.com"
  xmlns:xsi="http://www.w3.org/2001/XMLSchema-instance"
  xmlns="http://www.topografix.com/GPX/1/1"
  xsi:schemaLocation="http://www.topografix.com/GPX/1/1 http://www.topografix.com/GPX/1/1/gpx.xsd"
  xmlns:gpxtpx="http://www.garmin.com/xmlschemas/TrackPointExtension/v1">
<trk>
  <name><![CDATA[Walking 9/19/26]]></name>
  <time>2026-09-19T00:00:00Z</time>
<trkseg>
<trkpt lat="37.811874000" lon="-121.995870000"><ele>123.0</ele><time>2026-09-19T00:00:00Z</time></trkpt>
<trkpt lat="37.811935000" lon="-121.995940000"><ele>123.0</ele><time>2026-09-19T00:00:00Z</time></trkpt>
<trkpt lat="37.811943000" lon="-121.996050000"><ele>123.0</ele><time>2026-09-19T00:00:00Z</time></trkpt>
<trkpt lat="37.812027000" lon="-121.996056000"><ele>123.0</ele><time>2026-09-19T00:00:00Z</time></trkpt>
<trkpt lat="37.812035000" lon="-121.995940000"><ele>123.0</ele><time>2026-09-19T00:00:00Z</time></trkpt>
<trkpt lat="37.812004000" lon="-121.996040000"><ele>123.0</ele><time>2026-09-19T00:00:00Z</time></trkpt>
<trkpt lat="37.811920000" lon="-121.996040000"><ele>123.1</ele><time>2026-09-19T00:00:00Z</time></trkpt>
<trkpt lat="37.811836000" lon="-121.996000000"><ele>123.2</ele><time>2026-09-19T00:00:00Z</time></trkpt>
<trkpt lat="37.811745000" lon="-121.996010000"><ele>123.4</ele><time>2026-09-19T00:00:00Z</time></trkpt>
<trkpt lat="37.811657000" lon="-121.996010000"><ele>123.5</ele><time>2026-09-19T00:00:00Z</time></trkpt>
<trkpt lat="37.811590000" lon="-121.996080000"><ele>123.7</ele><time>2026-09-19T00:00:00Z</time></trkpt>
<trkpt lat="37.811527000" lon="-121.996155000"><ele>123.9</ele><time>2026-09-19T00:00:00Z</time></trkpt>
<trkpt lat="37.811490000" lon="-121.996260000"><ele>124.1</ele><time>2026-09-19T00:00:00Z</time></trkpt>
<trkpt lat="37.811504000" lon="-121.996370000"><ele>124.4</ele><time>2026-09-19T00:00:00Z</time></trkpt>
<trkpt lat="37.811530000" lon="-121.996475000"><ele>124.6</ele><time>2026-09-19T00:00:00Z</time></trkpt>
<trkpt lat="37.811558000" lon="-121.996574000"><ele>124.9</ele><time>2026-09-19T00:00:00Z</time></trkpt>
<trkpt lat="37.811607000" lon="-121.996660000"><ele>125.2</ele><time>2026-09-19T00:00:00Z</time></trkpt>
<trkpt lat="37.811653000" lon="-121.996750000"><ele>125.4</ele><time>2026-09-19T00:00:00Z</time></trkpt>
<trkpt lat="37.811703000" lon="-121.996840000"><ele>125.5</ele><time>2026-09-19T00:00:00Z</time></trkpt>
<trkpt lat="37.811756000" lon="-121.996925000"><ele>125.6</ele><time>2026-09-19T00:00:00Z</time></trkpt>
<trkpt lat="37.811820000" lon="-121.996994000"><ele>125.7</ele><time>2026-09-19T00:00:00Z</time></trkpt>
<trkpt lat="37.811880000" lon="-121.997080000"><ele>125.8</ele><time>2026-09-19T00:00:00Z</time></trkpt>
<trkpt lat="37.811924000" lon="-121.997170000"><ele>125.9</ele><time>2026-09-19T00:00:00Z</time></trkpt>
<trkpt lat="37.811985000" lon="-121.997246000"><ele>126.1</ele><time>2026-09-19T00:00:00Z</time></trkpt>
<trkpt lat="37.812050000" lon="-121.997314000"><ele>126.2</ele><time>2026-09-19T00:00:00Z</time></trkpt>
<trkpt lat="37.812103000" lon="-121.997390000"><ele>126.3</ele><time>2026-09-19T00:00:00Z</time></trkpt>
<trkpt lat="37.812138000" lon="-121.997490000"><ele>126.5</ele><time>2026-09-19T00:00:00Z</time></trkpt>
<trkpt lat="37.812187000" lon="-121.997590000"><ele>126.6</ele><time>2026-09-19T00:00:00Z</time></trkpt>
<trkpt lat="37.812233000" lon="-121.997670000"><ele>126.8</ele><time>2026-09-19T00:00:00Z</time></trkpt>
<trkpt lat="37.812237000" lon="-121.997780000"><ele>127.0</ele><time>2026-09-19T00:00:00Z</time></trkpt>
<trkpt lat="37.812220000" lon="-121.997894000"><ele>127.2</ele><time>2026-09-19T00:00:00Z</time></trkpt>
<trkpt lat="37.812214000" lon="-121.998010000"><ele>127.5</ele><time>2026-09-19T00:00:00Z</time></trkpt>
<trkpt lat="37.812244000" lon="-121.998110000"><ele>127.7</ele><time>2026-09-19T00:00:00Z</time></trkpt>
<trkpt lat="37.812230000" lon="-121.998210000"><ele>128.1</ele><time>2026-09-19T00:00:00Z</time></trkpt>
<trkpt lat="37.812206000" lon="-121.998310000"><ele>128.4</ele><time>2026-09-19T00:00:00Z</time></trkpt>
<trkpt lat="37.812190000" lon="-121.998410000"><ele>128.6</ele><time>2026-09-19T00:00:00Z</time></trkpt>
<trkpt lat="37.812170000" lon="-121.998520000"><ele>129.0</ele><time>2026-09-19T00:00:00Z</time></trkpt>
<trkpt lat="37.812153000" lon="-121.998630000"><ele>129.3</ele><time>2026-09-19T00:00:00Z</time></trkpt>
<trkpt lat="37.812145000" lon="-121.998730000"><ele>129.5</ele><time>2026-09-19T00:00:00Z</time></trkpt>
<trkpt lat="37.812122000" lon="-121.998840000"><ele>129.9</ele><time>2026-09-19T00:00:00Z</time></trkpt>
<trkpt lat="37.812103000" lon="-121.998955000"><ele>130.3</ele><time>2026-09-19T00:00:00Z</time></trkpt>
<trkpt lat="37.812090000" lon="-121.999070000"><ele>130.6</ele><time>2026-09-19T00:00:00Z</time></trkpt>
<trkpt lat="37.812084000" lon="-121.999170000"><ele>131.0</ele><time>2026-09-19T00:00:00Z</time></trkpt>
<trkpt lat="37.812060000" lon="-121.999275000"><ele>131.4</ele><time>2026-09-19T00:00:00Z</time></trkpt>
<trkpt lat="37.812042000" lon="-121.999380000"><ele>131.7</ele><time>2026-09-19T00:00:00Z</time></trkpt>
<trkpt lat="37.812000000" lon="-121.999490000"><ele>132.1</ele><time>2026-09-19T00:00:00Z</time></trkpt>
<trkpt lat="37.811977000" lon="-121.999600000"><ele>132.5</ele><time>2026-09-19T00:00:00Z</time></trkpt>
<trkpt lat="37.811947000" lon="-121.999710000"><ele>132.7</ele><time>2026-09-19T00:00:00Z</time></trkpt>
<trkpt lat="37.811905000" lon="-121.999820000"><ele>133.0</ele><time>2026-09-19T00:00:00Z</time></trkpt>
<trkpt lat="37.811886000" lon="-121.999916000"><ele>133.4</ele><time>2026-09-19T00:00:00Z</time></trkpt>
<trkpt lat="37.811836000" lon="-122.000010000"><ele>133.7</ele><time>2026-09-19T00:00:00Z</time></trkpt>
<trkpt lat="37.811802000" lon="-122.000110000"><ele>134.2</ele><time>2026-09-19T00:00:00Z</time></trkpt>
<trkpt lat="37.811780000" lon="-122.000220000"><ele>134.7</ele><time>2026-09-19T00:00:00Z</time></trkpt>
<trkpt lat="37.811756000" lon="-122.000330000"><ele>135.3</ele><time>2026-09-19T00:00:00Z</time></trkpt>
<trkpt lat="37.811745000" lon="-122.000435000"><ele>135.9</ele><time>2026-09-19T00:00:00Z</time></trkpt>
<trkpt lat="37.811718000" lon="-122.000540000"><ele>136.5</ele><time>2026-09-19T00:00:00Z</time></trkpt>
<trkpt lat="37.811695000" lon="-122.000640000"><ele>137.1</ele><time>2026-09-19T00:00:00Z</time></trkpt>
<trkpt lat="37.811665000" lon="-122.000750000"><ele>137.8</ele><time>2026-09-19T00:00:00Z</time></trkpt>
<trkpt lat="37.811640000" lon="-122.000854000"><ele>138.6</ele><time>2026-09-19T00:00:00Z</time></trkpt>
<trkpt lat="37.811626000" lon="-122.000960000"><ele>139.5</ele><time>2026-09-19T00:00:00Z</time></trkpt>
<trkpt lat="37.811665000" lon="-122.001060000"><ele>140.5</ele><time>2026-09-19T00:00:00Z</time></trkpt>
<trkpt lat="37.811750000" lon="-122.001090000"><ele>141.3</ele><time>2026-09-19T00:00:00Z</time></trkpt>
<trkpt lat="37.811830000" lon="-122.001180000"><ele>141.8</ele><time>2026-09-19T00:00:00Z</time></trkpt>
<trkpt lat="37.811916000" lon="-122.001170000"><ele>142.2</ele><time>2026-09-19T00:00:00Z</time></trkpt>
<trkpt lat="37.812008000" lon="-122.001160000"><ele>142.4</ele><time>2026-09-19T00:00:00Z</time></trkpt>
<trkpt lat="37.812020000" lon="-122.001270000"><ele>142.5</ele><time>2026-09-19T00:00:00Z</time></trkpt>
<trkpt lat="37.811947000" lon="-122.001200000"><ele>142.6</ele><time>2026-09-19T00:00:00Z</time></trkpt>
<trkpt lat="37.811863000" lon="-122.001180000"><ele>142.8</ele><time>2026-09-19T00:00:00Z</time></trkpt>
<trkpt lat="37.811787000" lon="-122.001160000"><ele>143.0</ele><time>2026-09-19T00:00:00Z</time></trkpt>
<trkpt lat="37.811703000" lon="-122.001130000"><ele>143.3</ele><time>2026-09-19T00:00:00Z</time></trkpt>
<trkpt lat="37.811615000" lon="-122.001150000"><ele>143.5</ele><time>2026-09-19T00:00:00Z</time></trkpt>
<trkpt lat="37.811570000" lon="-122.001240000"><ele>143.7</ele><time>2026-09-19T00:00:00Z</time></trkpt>
<trkpt lat="37.811546000" lon="-122.001350000"><ele>144.2</ele><time>2026-09-19T00:00:00Z</time></trkpt>
<trkpt lat="37.811527000" lon="-122.001450000"><ele>144.8</ele><time>2026-09-19T00:00:00Z</time></trkpt>
<trkpt lat="37.811510000" lon="-122.001564000"><ele>145.7</ele><time>2026-09-19T00:00:00Z</time></trkpt>
<trkpt lat="37.811485000" lon="-122.001680000"><ele>146.8</ele><time>2026-09-19T00:00:00Z</time></trkpt>
<trkpt lat="37.811450000" lon="-122.001770000"><ele>148.0</ele><time>2026-09-19T00:00:00Z</time></trkpt>
<trkpt lat="37.811405000" lon="-122.001880000"><ele>149.2</ele><time>2026-09-19T00:00:00Z</time></trkpt>
<trkpt lat="37.811344000" lon="-122.001950000"><ele>150.4</ele><time>2026-09-19T00:00:00Z</time></trkpt>
<trkpt lat="37.811290000" lon="-122.002040000"><ele>151.5</ele><time>2026-09-19T00:00:00Z</time></trkpt>
<trkpt lat="37.811234000" lon="-122.002120000"><ele>152.5</ele><time>2026-09-19T00:00:00Z</time></trkpt>
<trkpt lat="37.811190000" lon="-122.002205000"><ele>153.5</ele><time>2026-09-19T00:00:00Z</time></trkpt>
<trkpt lat="37.811140000" lon="-122.002290000"><ele>154.5</ele><time>2026-09-19T00:00:00Z</time></trkpt>
<trkpt lat="37.811085000" lon="-122.002370000"><ele>155.5</ele><time>2026-09-19T00:00:00Z</time></trkpt>
<trkpt lat="37.811028000" lon="-122.002464000"><ele>156.3</ele><time>2026-09-19T00:00:00Z</time></trkpt>
<trkpt lat="37.810963000" lon="-122.002540000"><ele>157.0</ele><time>2026-09-19T00:00:00Z</time></trkpt>
<trkpt lat="37.810898000" lon="-122.002610000"><ele>157.6</ele><time>2026-09-19T00:00:00Z</time></trkpt>
<trkpt lat="37.810820000" lon="-122.002670000"><ele>158.2</ele><time>2026-09-19T00:00:00Z</time></trkpt>
<trkpt lat="37.810757000" lon="-122.002750000"><ele>158.6</ele><time>2026-09-19T00:00:00Z</time></trkpt>
<trkpt lat="37.810688000" lon="-122.002815000"><ele>159.0</ele><time>2026-09-19T00:00:00Z</time></trkpt>
<trkpt lat="37.810616000" lon="-122.002884000"><ele>159.4</ele><time>2026-09-19T00:00:00Z</time></trkpt>
<trkpt lat="37.810547000" lon="-122.002945000"><ele>159.8</ele><time>2026-09-19T00:00:00Z</time></trkpt>
<trkpt lat="37.810470000" lon="-122.002980000"><ele>160.3</ele><time>2026-09-19T00:00:00Z</time></trkpt>
<trkpt lat="37.810400000" lon="-122.003050000"><ele>160.7</ele><time>2026-09-19T00:00:00Z</time></trkpt>
<trkpt lat="37.810314000" lon="-122.003080000"><ele>161.2</ele><time>2026-09-19T00:00:00Z</time></trkpt>
<trkpt lat="37.810230000" lon="-122.003130000"><ele>161.7</ele><time>2026-09-19T00:00:00Z</time></trkpt>
<trkpt lat="37.810146000" lon="-122.003140000"><ele>162.2</ele><time>2026-09-19T00:00:00Z</time></trkpt>
<trkpt lat="37.810060000" lon="-122.003150000"><ele>162.6</ele><time>2026-09-19T00:00:00Z</time></trkpt>
<trkpt lat="37.809963000" lon="-122.003140000"><ele>163.2</ele><time>2026-09-19T00:00:00Z</time></trkpt>
<trkpt lat="37.809883000" lon="-122.003120000"><ele>163.6</ele><time>2026-09-19T00:00:00Z</time></trkpt>
<trkpt lat="37.809790000" lon="-122.003090000"><ele>164.1</ele><time>2026-09-19T00:00:00Z</time></trkpt>
<trkpt lat="37.809710000" lon="-122.003040000"><ele>164.4</ele><time>2026-09-19T00:00:00Z</time></trkpt>
<trkpt lat="37.809647000" lon="-122.002975000"><ele>164.5</ele><time>2026-09-19T00:00:00Z</time></trkpt>
<trkpt lat="37.809563000" lon="-122.002910000"><ele>164.5</ele><time>2026-09-19T00:00:00Z</time></trkpt>
<trkpt lat="37.809510000" lon="-122.002820000"><ele>164.4</ele><time>2026-09-19T00:00:00Z</time></trkpt>
<trkpt lat="37.809452000" lon="-122.002750000"><ele>164.0</ele><time>2026-09-19T00:00:00Z</time></trkpt>
<trkpt lat="37.809395000" lon="-122.002650000"><ele>163.4</ele><time>2026-09-19T00:00:00Z</time></trkpt>
<trkpt lat="37.809360000" lon="-122.002556000"><ele>162.6</ele><time>2026-09-19T00:00:00Z</time></trkpt>
<trkpt lat="37.809330000" lon="-122.002450000"><ele>161.8</ele><time>2026-09-19T00:00:00Z</time></trkpt>
<trkpt lat="37.809296000" lon="-122.002360000"><ele>160.8</ele><time>2026-09-19T00:00:00Z</time></trkpt>
<trkpt lat="37.809310000" lon="-122.002240000"><ele>159.7</ele><time>2026-09-19T00:00:00Z</time></trkpt>
<trkpt lat="37.809345000" lon="-122.002140000"><ele>158.5</ele><time>2026-09-19T00:00:00Z</time></trkpt>
<trkpt lat="37.809400000" lon="-122.002045000"><ele>157.4</ele><time>2026-09-19T00:00:00Z</time></trkpt>
<trkpt lat="37.809450000" lon="-122.001945000"><ele>156.1</ele><time>2026-09-19T00:00:00Z</time></trkpt>
<trkpt lat="37.809500000" lon="-122.001854000"><ele>154.7</ele><time>2026-09-19T00:00:00Z</time></trkpt>
<trkpt lat="37.809566000" lon="-122.001770000"><ele>153.4</ele><time>2026-09-19T00:00:00Z</time></trkpt>
<trkpt lat="37.809624000" lon="-122.001690000"><ele>152.0</ele><time>2026-09-19T00:00:00Z</time></trkpt>
<trkpt lat="37.809690000" lon="-122.001625000"><ele>150.7</ele><time>2026-09-19T00:00:00Z</time></trkpt>
<trkpt lat="37.809760000" lon="-122.001550000"><ele>149.5</ele><time>2026-09-19T00:00:00Z</time></trkpt>
<trkpt lat="37.809837000" lon="-122.001490000"><ele>148.4</ele><time>2026-09-19T00:00:00Z</time></trkpt>
<trkpt lat="37.809910000" lon="-122.001440000"><ele>147.2</ele><time>2026-09-19T00:00:00Z</time></trkpt>
<trkpt lat="37.809998000" lon="-122.001390000"><ele>146.2</ele><time>2026-09-19T00:00:00Z</time></trkpt>
<trkpt lat="37.810085000" lon="-122.001350000"><ele>145.2</ele><time>2026-09-19T00:00:00Z</time></trkpt>
<trkpt lat="37.810177000" lon="-122.001330000"><ele>144.3</ele><time>2026-09-19T00:00:00Z</time></trkpt>
<trkpt lat="37.810270000" lon="-122.001300000"><ele>143.5</ele><time>2026-09-19T00:00:00Z</time></trkpt>
<trkpt lat="37.810356000" lon="-122.001274000"><ele>142.8</ele><time>2026-09-19T00:00:00Z</time></trkpt>
<trkpt lat="37.810432000" lon="-122.001230000"><ele>142.3</ele><time>2026-09-19T00:00:00Z</time></trkpt>
<trkpt lat="37.810513000" lon="-122.001170000"><ele>141.9</ele><time>2026-09-19T00:00:00Z</time></trkpt>
<trkpt lat="37.810585000" lon="-122.001110000"><ele>141.6</ele><time>2026-09-19T00:00:00Z</time></trkpt>
<trkpt lat="37.810660000" lon="-122.001040000"><ele>141.3</ele><time>2026-09-19T00:00:00Z</time></trkpt>
<trkpt lat="37.810738000" lon="-122.000990000"><ele>141.0</ele><time>2026-09-19T00:00:00Z</time></trkpt>
<trkpt lat="37.810818000" lon="-122.000930000"><ele>140.8</ele><time>2026-09-19T00:00:00Z</time></trkpt>
<trkpt lat="37.810898000" lon="-122.000890000"><ele>140.6</ele><time>2026-09-19T00:00:00Z</time></trkpt>
<trkpt lat="37.810986000" lon="-122.000885000"><ele>140.5</ele><time>2026-09-19T00:00:00Z</time></trkpt>
<trkpt lat="37.811080000" lon="-122.000890000"><ele>140.5</ele><time>2026-09-19T00:00:00Z</time></trkpt>
<trkpt lat="37.811172000" lon="-122.000890000"><ele>140.3</ele><time>2026-09-19T00:00:00Z</time></trkpt>
<trkpt lat="37.811256000" lon="-122.000910000"><ele>140.0</ele><time>2026-09-19T00:00:00Z</time></trkpt>
<trkpt lat="37.811337000" lon="-122.000940000"><ele>139.6</ele><time>2026-09-19T00:00:00Z</time></trkpt>
<trkpt lat="37.811428000" lon="-122.000960000"><ele>139.3</ele><time>2026-09-19T00:00:00Z</time></trkpt>
<trkpt lat="37.811520000" lon="-122.000980000"><ele>138.8</ele><time>2026-09-19T00:00:00Z</time></trkpt>
<trkpt lat="37.811560000" lon="-122.000880000"><ele>138.4</ele><time>2026-09-19T00:00:00Z</time></trkpt>
<trkpt lat="37.811570000" lon="-122.000755000"><ele>137.8</ele><time>2026-09-19T00:00:00Z</time></trkpt>
<trkpt lat="37.811592000" lon="-122.000656000"><ele>137.3</ele><time>2026-09-19T00:00:00Z</time></trkpt>
<trkpt lat="37.811592000" lon="-122.000560000"><ele>136.7</ele><time>2026-09-19T00:00:00Z</time></trkpt>
<trkpt lat="37.811620000" lon="-122.000450000"><ele>136.2</ele><time>2026-09-19T00:00:00Z</time></trkpt>
<trkpt lat="37.811640000" lon="-122.000340000"><ele>135.5</ele><time>2026-09-19T00:00:00Z</time></trkpt>
<trkpt lat="37.811665000" lon="-122.000240000"><ele>135.0</ele><time>2026-09-19T00:00:00Z</time></trkpt>
<trkpt lat="37.811690000" lon="-122.000120000"><ele>134.5</ele><time>2026-09-19T00:00:00Z</time></trkpt>
<trkpt lat="37.811718000" lon="-122.000015000"><ele>134.1</ele><time>2026-09-19T00:00:00Z</time></trkpt>
<trkpt lat="37.811745000" lon="-121.999916000"><ele>133.6</ele><time>2026-09-19T00:00:00Z</time></trkpt>
<trkpt lat="37.811756000" lon="-121.999810000"><ele>133.3</ele><time>2026-09-19T00:00:00Z</time></trkpt>
<trkpt lat="37.811787000" lon="-121.999700000"><ele>132.9</ele><time>2026-09-19T00:00:00Z</time></trkpt>
<trkpt lat="37.811832000" lon="-121.999600000"><ele>132.6</ele><time>2026-09-19T00:00:00Z</time></trkpt>
<trkpt lat="37.811867000" lon="-121.999490000"><ele>132.3</ele><time>2026-09-19T00:00:00Z</time></trkpt>
<trkpt lat="37.811890000" lon="-121.999390000"><ele>131.9</ele><time>2026-09-19T00:00:00Z</time></trkpt>
<trkpt lat="37.811910000" lon="-121.999280000"><ele>131.5</ele><time>2026-09-19T00:00:00Z</time></trkpt>
<trkpt lat="37.811920000" lon="-121.999176000"><ele>131.3</ele><time>2026-09-19T00:00:00Z</time></trkpt>
<trkpt lat="37.811935000" lon="-121.999060000"><ele>130.9</ele><time>2026-09-19T00:00:00Z</time></trkpt>
<trkpt lat="37.811954000" lon="-121.998950000"><ele>130.5</ele><time>2026-09-19T00:00:00Z</time></trkpt>
<trkpt lat="37.811980000" lon="-121.998850000"><ele>130.2</ele><time>2026-09-19T00:00:00Z</time></trkpt>
<trkpt lat="37.812070000" lon="-121.998800000"><ele>129.8</ele><time>2026-09-19T00:00:00Z</time></trkpt>
<trkpt lat="37.812120000" lon="-121.998700000"><ele>129.5</ele><time>2026-09-19T00:00:00Z</time></trkpt>
<trkpt lat="37.812140000" lon="-121.998590000"><ele>129.2</ele><time>2026-09-19T00:00:00Z</time></trkpt>
<trkpt lat="37.812153000" lon="-121.998480000"><ele>128.9</ele><time>2026-09-19T00:00:00Z</time></trkpt>
<trkpt lat="37.812170000" lon="-121.998370000"><ele>128.6</ele><time>2026-09-19T00:00:00Z</time></trkpt>
<trkpt lat="37.812187000" lon="-121.998260000"><ele>128.4</ele><time>2026-09-19T00:00:00Z</time></trkpt>
<trkpt lat="37.812200000" lon="-121.998146000"><ele>128.0</ele><time>2026-09-19T00:00:00Z</time></trkpt>
<trkpt lat="37.812220000" lon="-121.998040000"><ele>127.6</ele><time>2026-09-19T00:00:00Z</time></trkpt>
<trkpt lat="37.812233000" lon="-121.997925000"><ele>127.4</ele><time>2026-09-19T00:00:00Z</time></trkpt>
<trkpt lat="37.812250000" lon="-121.997820000"><ele>127.1</ele><time>2026-09-19T00:00:00Z</time></trkpt>
<trkpt lat="37.812237000" lon="-121.997710000"><ele>126.9</ele><time>2026-09-19T00:00:00Z</time></trkpt>
<trkpt lat="37.812218000" lon="-121.997610000"><ele>126.7</ele><time>2026-09-19T00:00:00Z</time></trkpt>
<trkpt lat="37.812170000" lon="-121.997520000"><ele>126.5</ele><time>2026-09-19T00:00:00Z</time></trkpt>
<trkpt lat="37.812138000" lon="-121.997420000"><ele>126.4</ele><time>2026-09-19T00:00:00Z</time></trkpt>
<trkpt lat="37.812073000" lon="-121.997345000"><ele>126.2</ele><time>2026-09-19T00:00:00Z</time></trkpt>
<trkpt lat="37.812016000" lon="-121.997260000"><ele>126.1</ele><time>2026-09-19T00:00:00Z</time></trkpt>
<trkpt lat="37.811947000" lon="-121.997185000"><ele>125.9</ele><time>2026-09-19T00:00:00Z</time></trkpt>
<trkpt lat="37.811905000" lon="-121.997090000"><ele>125.8</ele><time>2026-09-19T00:00:00Z</time></trkpt>
<trkpt lat="37.811867000" lon="-121.997000000"><ele>125.7</ele><time>2026-09-19T00:00:00Z</time></trkpt>
<trkpt lat="37.811800000" lon="-121.996940000"><ele>125.6</ele><time>2026-09-19T00:00:00Z</time></trkpt>
<trkpt lat="37.811733000" lon="-121.996870000"><ele>125.5</ele><time>2026-09-19T00:00:00Z</time></trkpt>
<trkpt lat="37.811670000" lon="-121.996790000"><ele>125.5</ele><time>2026-09-19T00:00:00Z</time></trkpt>
<trkpt lat="37.811607000" lon="-121.996710000"><ele>125.3</ele><time>2026-09-19T00:00:00Z</time></trkpt>
<trkpt lat="37.811554000" lon="-121.996630000"><ele>125.1</ele><time>2026-09-19T00:00:00Z</time></trkpt>
<trkpt lat="37.811497000" lon="-121.996540000"><ele>124.8</ele><time>2026-09-19T00:00:00Z</time></trkpt>
<trkpt lat="37.811460000" lon="-121.996445000"><ele>124.5</ele><time>2026-09-19T00:00:00Z</time></trkpt>
<trkpt lat="37.811474000" lon="-121.996340000"><ele>124.3</ele><time>2026-09-19T00:00:00Z</time></trkpt>
<trkpt lat="37.811535000" lon="-121.996254000"><ele>124.1</ele><time>2026-09-19T00:00:00Z</time></trkpt>
<trkpt lat="37.811596000" lon="-121.996180000"><ele>123.9</ele><time>2026-09-19T00:00:00Z</time></trkpt>
<trkpt lat="37.811660000" lon="-121.996090000"><ele>123.7</ele><time>2026-09-19T00:00:00Z</time></trkpt>
<trkpt lat="37.811730000" lon="-121.996020000"><ele>123.6</ele><time>2026-09-19T00:00:00Z</time></trkpt>
<trkpt lat="37.811787000" lon="-121.995930000"><ele>123.4</ele><time>2026-09-19T00:00:00Z</time></trkpt>
<trkpt lat="37.811848000" lon="-121.995850000"><ele>123.2</ele><time>2026-09-19T00:00:00Z</time></trkpt>
<trkpt lat="37.811930000" lon="-121.995865000"><ele>123.1</ele><time>2026-09-19T00:00:00Z</time></trkpt>
<trkpt lat="37.811943000" lon="-121.995870000"><ele>123.0</ele><time>2026-09-19T00:00:00Z</time></trkpt>
</trkseg>
</trk>
</gpx>
