<?xml version="1.0" encoding="UTF-8"?>
<gpx
  version="1.1"
  creator="Runkeeper - http://www.runkeeper.com"
  xmlns:xsi="http://www.w3.org/2001/XMLSchema-instance"
  xmlns="http://www.topografix.com/GPX/1/1"
  xsi:schemaLocation="http://www.topografix.com/GPX/1/1 http://www.topografix.com/GPX/1/1/gpx.xsd"
  xmlns:gpxtpx="http://www.garmin.com/xmlschemas/TrackPointExtension/v1">
<trk>
  <name><![CDATA[Walking 9/5/26]]></name>
  <time>2026-09-05T00:00:00Z</time>
<trkseg>
<trkpt lat="37.819702000" lon="-122.003520000"><ele>116.0</ele><time>2026-09-05T00:00:00Z</time></trkpt>
<trkpt lat="37.819633000" lon="-122.003450000"><ele>116.1</ele><time>2026-09-05T00:00:00Z</time></trkpt>
<trkpt lat="37.819570000" lon="-122.003370000"><ele>116.2</ele><time>2026-09-05T00:00:00Z</time></trkpt>
<trkpt lat="37.819508000" lon="-122.003300000"><ele>116.3</ele><time>2026-09-05T00:00:00Z</time></trkpt>
<trkpt lat="37.819424000" lon="-122.003280000"><ele>116.4</ele><time>2026-09-05T00:00:00Z</time></trkpt>
<trkpt lat="37.819340000" lon="-122.003320000"><ele>116.5</ele><time>2026-09-05T00:00:00Z</time></trkpt>
<trkpt lat="37.819280000" lon="-122.003395000"><ele>116.7</ele><time>2026-09-05T00:00:00Z</time></trkpt>
<trkpt lat="37.819214000" lon="-122.003460000"><ele>117.0</ele><time>2026-09-05T00:00:00Z</time></trkpt>
<trkpt lat="37.819153000" lon="-122.003530000"><ele>117.3</ele><time>2026-09-05T00:00:00Z</time></trkpt>
<trkpt lat="37.819090000" lon="-122.003610000"><ele>117.5</ele><time>2026-09-05T00:00:00Z</time></trkpt>
<trkpt lat="37.819035000" lon="-122.003685000"><ele>117.8</ele><time>2026-09-05T00:00:00Z</time></trkpt>
<trkpt lat="37.818985000" lon="-122.003770000"><ele>118.2</ele><time>2026-09-05T00:00:00Z</time></trkpt>
<trkpt lat="37.818940000" lon="-122.003860000"><ele>118.5</ele><time>2026-09-05T00:00:00Z</time></trkpt>
<trkpt lat="37.818880000" lon="-122.003940000"><ele>118.7</ele><time>2026-09-05T00:00:00Z</time></trkpt>
<trkpt lat="37.818817000" lon="-122.004010000"><ele>118.9</ele><time>2026-09-05T00:00:00Z</time></trkpt>
<trkpt lat="37.818768000" lon="-122.004105000"><ele>119.1</ele><time>2026-09-05T00:00:00Z</time></trkpt>
<trkpt lat="37.818695000" lon="-122.004160000"><ele>119.2</ele><time>2026-09-05T00:00:00Z</time></trkpt>
<trkpt lat="37.818638000" lon="-122.004240000"><ele>119.3</ele><time>2026-09-05T00:00:00Z</time></trkpt>
<trkpt lat="37.818714000" lon="-122.004210000"><ele>119.3</ele><time>2026-09-05T00:00:00Z</time></trkpt>
<trkpt lat="37.818798000" lon="-122.004196000"><ele>119.3</ele><time>2026-09-05T00:00:00Z</time></trkpt>
<trkpt lat="37.818893000" lon="-122.004170000"><ele>119.2</ele><time>2026-09-05T00:00:00Z</time></trkpt>
<trkpt lat="37.818974000" lon="-122.004190000"><ele>119.1</ele><time>2026-09-05T00:00:00Z</time></trkpt>
<trkpt lat="37.819042000" lon="-122.004260000"><ele>118.9</ele><time>2026-09-05T00:00:00Z</time></trkpt>
<trkpt lat="37.819090000" lon="-122.004340000"><ele>118.6</ele><time>2026-09-05T00:00:00Z</time></trkpt>
<trkpt lat="37.819176000" lon="-122.004350000"><ele>118.4</ele><time>2026-09-05T00:00:00Z</time></trkpt>
<trkpt lat="37.819260000" lon="-122.004360000"><ele>118.2</ele><time>2026-09-05T00:00:00Z</time></trkpt>
<trkpt lat="37.819347000" lon="-122.004380000"><ele>118.0</ele><time>2026-09-05T00:00:00Z</time></trkpt>
<trkpt lat="37.819440000" lon="-122.004370000"><ele>117.7</ele><time>2026-09-05T00:00:00Z</time></trkpt>
<trkpt lat="37.819520000" lon="-122.004340000"><ele>117.5</ele><time>2026-09-05T00:00:00Z</time></trkpt>
<trkpt lat="37.819600000" lon="-122.004350000"><ele>117.2</ele><time>2026-09-05T00:00:00Z</time></trkpt>
<trkpt lat="37.819683000" lon="-122.004364000"><ele>116.8</ele><time>2026-09-05T00:00:00Z</time></trkpt>
<trkpt lat="37.819770000" lon="-122.004370000"><ele>116.5</ele><time>2026-09-05T00:00:00Z</time></trkpt>
<trkpt lat="37.819855000" lon="-122.004380000"><ele>116.2</ele><time>2026-09-05T00:00:00Z</time></trkpt>
<trkpt lat="37.819940000" lon="-122.004390000"><ele>115.8</ele><time>2026-09-05T00:00:00Z</time></trkpt>
<trkpt lat="37.820015000" lon="-122.004425000"><ele>115.6</ele><time>2026-09-05T00:00:00Z</time></trkpt>
<trkpt lat="37.820065000" lon="-122.004340000"><ele>115.5</ele><time>2026-09-05T00:00:00Z</time></trkpt>
<trkpt lat="37.820133000" lon="-122.004265000"><ele>115.3</ele><time>2026-09-05T00:00:00Z</time></trkpt>
<trkpt lat="37.820210000" lon="-122.004230000"><ele>115.2</ele><time>2026-09-05T00:00:00Z</time></trkpt>
<trkpt lat="37.820274000" lon="-122.004295000"><ele>115.2</ele><time>2026-09-05T00:00:00Z</time></trkpt>
<trkpt lat="37.820300000" lon="-122.004395000"><ele>115.1</ele><time>2026-09-05T00:00:00Z</time></trkpt>
<trkpt lat="37.820267000" lon="-122.004490000"><ele>115.0</ele><time>2026-09-05T00:00:00Z</time></trkpt>
<trkpt lat="37.820183000" lon="-122.004470000"><ele>115.0</ele><time>2026-09-05T00:00:00Z</time></trkpt>
<trkpt lat="37.820107000" lon="-122.004440000"><ele>115.1</ele><time>2026-09-05T00:00:00Z</time></trkpt>
<trkpt lat="37.820038000" lon="-122.004370000"><ele>115.3</ele><time>2026-09-05T00:00:00Z</time></trkpt>
<trkpt lat="37.820095000" lon="-122.004295000"><ele>115.4</ele><time>2026-09-05T00:00:00Z</time></trkpt>
<trkpt lat="37.820150000" lon="-122.004220000"><ele>115.4</ele><time>2026-09-05T00:00:00Z</time></trkpt>
<trkpt lat="37.820087000" lon="-122.004295000"><ele>115.4</ele><time>2026-09-05T00:00:00Z</time></trkpt>
<trkpt lat="37.820034000" lon="-122.004380000"><ele>115.3</ele><time>2026-09-05T00:00:00Z</time></trkpt>
<trkpt lat="37.820103000" lon="-122.004450000"><ele>115.1</ele><time>2026-09-05T00:00:00Z</time></trkpt>
<trkpt lat="37.820183000" lon="-122.004456000"><ele>114.9</ele><time>2026-09-05T00:00:00Z</time></trkpt>
<trkpt lat="37.820267000" lon="-122.004486000"><ele>114.8</ele><time>2026-09-05T00:00:00Z</time></trkpt>
<trkpt lat="37.820310000" lon="-122.004390000"><ele>114.7</ele><time>2026-09-05T00:00:00Z</time></trkpt>
<trkpt lat="37.820274000" lon="-122.004280000"><ele>114.6</ele><time>2026-09-05T00:00:00Z</time></trkpt>
<trkpt lat="37.820210000" lon="-122.004230000"><ele>114.5</ele><time>2026-09-05T00:00:00Z</time></trkpt>
<trkpt lat="37.820290000" lon="-122.004240000"><ele>114.3</ele><time>2026-09-05T00:00:00Z</time></trkpt>
<trkpt lat="37.820354000" lon="-122.004320000"><ele>114.2</ele><time>2026-09-05T00:00:00Z</time></trkpt>
<trkpt lat="37.820420000" lon="-122.004395000"><ele>114.0</ele><time>2026-09-05T00:00:00Z</time></trkpt>
<trkpt lat="37.820490000" lon="-122.004460000"><ele>113.8</ele><time>2026-09-05T00:00:00Z</time></trkpt>
<trkpt lat="37.820553000" lon="-122.004540000"><ele>113.7</ele><time>2026-09-05T00:00:00Z</time></trkpt>
<trkpt lat="37.820614000" lon="-122.004616000"><ele>113.6</ele><time>2026-09-05T00:00:00Z</time></trkpt>
<trkpt lat="37.820683000" lon="-122.004684000"><ele>113.5</ele><time>2026-09-05T00:00:00Z</time></trkpt>
<trkpt lat="37.820744000" lon="-122.004760000"><ele>113.3</ele><time>2026-09-05T00:00:00Z</time></trkpt>
<trkpt lat="37.820805000" lon="-122.004840000"><ele>113.1</ele><time>2026-09-05T00:00:00Z</time></trkpt>
<trkpt lat="37.820870000" lon="-122.004906000"><ele>113.0</ele><time>2026-09-05T00:00:00Z</time></trkpt>
<trkpt lat="37.820940000" lon="-122.004980000"><ele>112.9</ele><time>2026-09-05T00:00:00Z</time></trkpt>
<trkpt lat="37.821003000" lon="-122.005066000"><ele>112.8</ele><time>2026-09-05T00:00:00Z</time></trkpt>
<trkpt lat="37.821040000" lon="-122.005160000"><ele>112.7</ele><time>2026-09-05T00:00:00Z</time></trkpt>
<trkpt lat="37.820980000" lon="-122.005240000"><ele>112.8</ele><time>2026-09-05T00:00:00Z</time></trkpt>
<trkpt lat="37.820923000" lon="-122.005320000"><ele>112.9</ele><time>2026-09-05T00:00:00Z</time></trkpt>
<trkpt lat="37.820860000" lon="-122.005394000"><ele>113.0</ele><time>2026-09-05T00:00:00Z</time></trkpt>
<trkpt lat="37.820810000" lon="-122.005480000"><ele>113.1</ele><time>2026-09-05T00:00:00Z</time></trkpt>
<trkpt lat="37.820750000" lon="-122.005560000"><ele>113.4</ele><time>2026-09-05T00:00:00Z</time></trkpt>
<trkpt lat="37.820694000" lon="-122.005646000"><ele>113.6</ele><time>2026-09-05T00:00:00Z</time></trkpt>
<trkpt lat="37.820625000" lon="-122.005720000"><ele>113.9</ele><time>2026-09-05T00:00:00Z</time></trkpt>
<trkpt lat="37.820570000" lon="-122.005806000"><ele>114.1</ele><time>2026-09-05T00:00:00Z</time></trkpt>
<trkpt lat="37.820488000" lon="-122.005830000"><ele>114.3</ele><time>2026-09-05T00:00:00Z</time></trkpt>
<trkpt lat="37.820400000" lon="-122.005844000"><ele>114.5</ele><time>2026-09-05T00:00:00Z</time></trkpt>
<trkpt lat="37.820316000" lon="-122.005830000"><ele>114.6</ele><time>2026-09-05T00:00:00Z</time></trkpt>
<trkpt lat="37.820312000" lon="-122.005714000"><ele>114.7</ele><time>2026-09-05T00:00:00Z</time></trkpt>
<trkpt lat="37.820312000" lon="-122.005600000"><ele>114.8</ele><time>2026-09-05T00:00:00Z</time></trkpt>
<trkpt lat="37.820293000" lon="-122.005486000"><ele>115.0</ele><time>2026-09-05T00:00:00Z</time></trkpt>
<trkpt lat="37.820310000" lon="-122.005600000"><ele>115.2</ele><time>2026-09-05T00:00:00Z</time></trkpt>
<trkpt lat="37.820310000" lon="-122.005710000"><ele>115.3</ele><time>2026-09-05T00:00:00Z</time></trkpt>
<trkpt lat="37.820316000" lon="-122.005810000"><ele>115.4</ele><time>2026-09-05T00:00:00Z</time></trkpt>
<trkpt lat="37.820240000" lon="-122.005870000"><ele>115.5</ele><time>2026-09-05T00:00:00Z</time></trkpt>
<trkpt lat="37.820150000" lon="-122.005875000"><ele>115.7</ele><time>2026-09-05T00:00:00Z</time></trkpt>
<trkpt lat="37.820065000" lon="-122.005880000"><ele>115.9</ele><time>2026-09-05T00:00:00Z</time></trkpt>
<trkpt lat="37.819977000" lon="-122.005875000"><ele>116.2</ele><time>2026-09-05T00:00:00Z</time></trkpt>
<trkpt lat="37.819893000" lon="-122.005880000"><ele>116.5</ele><time>2026-09-05T00:00:00Z</time></trkpt>
<trkpt lat="37.819813000" lon="-122.005880000"><ele>116.7</ele><time>2026-09-05T00:00:00Z</time></trkpt>
<trkpt lat="37.819730000" lon="-122.005880000"><ele>117.1</ele><time>2026-09-05T00:00:00Z</time></trkpt>
<trkpt lat="37.819645000" lon="-122.005900000"><ele>117.4</ele><time>2026-09-05T00:00:00Z</time></trkpt>
<trkpt lat="37.819553000" lon="-122.005890000"><ele>117.7</ele><time>2026-09-05T00:00:00Z</time></trkpt>
<trkpt lat="37.819477000" lon="-122.005920000"><ele>118.1</ele><time>2026-09-05T00:00:00Z</time></trkpt>
<trkpt lat="37.819393000" lon="-122.005940000"><ele>118.5</ele><time>2026-09-05T00:00:00Z</time></trkpt>
<trkpt lat="37.819313000" lon="-122.005974000"><ele>118.8</ele><time>2026-09-05T00:00:00Z</time></trkpt>
<trkpt lat="37.819230000" lon="-122.005974000"><ele>119.3</ele><time>2026-09-05T00:00:00Z</time></trkpt>
<trkpt lat="37.819164000" lon="-122.006050000"><ele>119.7</ele><time>2026-09-05T00:00:00Z</time></trkpt>
<trkpt lat="37.819096000" lon="-122.006100000"><ele>120.2</ele><time>2026-09-05T00:00:00Z</time></trkpt>
<trkpt lat="37.819023000" lon="-122.006165000"><ele>120.6</ele><time>2026-09-05T00:00:00Z</time></trkpt>
<trkpt lat="37.818935000" lon="-122.006170000"><ele>121.2</ele><time>2026-09-05T00:00:00Z</time></trkpt>
<trkpt lat="37.818870000" lon="-122.006240000"><ele>121.6</ele><time>2026-09-05T00:00:00Z</time></trkpt>
<trkpt lat="37.818800000" lon="-122.006320000"><ele>122.2</ele><time>2026-09-05T00:00:00Z</time></trkpt>
<trkpt lat="37.818714000" lon="-122.006355000"><ele>122.7</ele><time>2026-09-05T00:00:00Z</time></trkpt>
<trkpt lat="37.818623000" lon="-122.006370000"><ele>123.5</ele><time>2026-09-05T00:00:00Z</time></trkpt>
<trkpt lat="37.818540000" lon="-122.006380000"><ele>124.3</ele><time>2026-09-05T00:00:00Z</time></trkpt>
<trkpt lat="37.818460000" lon="-122.006400000"><ele>125.1</ele><time>2026-09-05T00:00:00Z</time></trkpt>
<trkpt lat="37.818375000" lon="-122.006410000"><ele>125.9</ele><time>2026-09-05T00:00:00Z</time></trkpt>
<trkpt lat="37.818295000" lon="-122.006440000"><ele>126.9</ele><time>2026-09-05T00:00:00Z</time></trkpt>
<trkpt lat="37.818210000" lon="-122.006485000"><ele>127.9</ele><time>2026-09-05T00:00:00Z</time></trkpt>
<trkpt lat="37.818134000" lon="-122.006516000"><ele>129.1</ele><time>2026-09-05T00:00:00Z</time></trkpt>
<trkpt lat="37.818060000" lon="-122.006584000"><ele>130.2</ele><time>2026-09-05T00:00:00Z</time></trkpt>
<trkpt lat="37.817993000" lon="-122.006650000"><ele>131.4</ele><time>2026-09-05T00:00:00Z</time></trkpt>
<trkpt lat="37.817913000" lon="-122.006710000"><ele>132.6</ele><time>2026-09-05T00:00:00Z</time></trkpt>
<trkpt lat="37.817850000" lon="-122.006770000"><ele>134.0</ele><time>2026-09-05T00:00:00Z</time></trkpt>
<trkpt lat="37.817780000" lon="-122.006840000"><ele>135.3</ele><time>2026-09-05T00:00:00Z</time></trkpt>
<trkpt lat="37.817720000" lon="-122.006910000"><ele>136.5</ele><time>2026-09-05T00:00:00Z</time></trkpt>
<trkpt lat="37.817660000" lon="-122.006990000"><ele>137.6</ele><time>2026-09-05T00:00:00Z</time></trkpt>
<trkpt lat="37.817596000" lon="-122.007065000"><ele>138.8</ele><time>2026-09-05T00:00:00Z</time></trkpt>
<trkpt lat="37.817535000" lon="-122.007150000"><ele>140.0</ele><time>2026-09-05T00:00:00Z</time></trkpt>
<trkpt lat="37.817470000" lon="-122.007230000"><ele>141.2</ele><time>2026-09-05T00:00:00Z</time></trkpt>
<trkpt lat="37.817413000" lon="-122.007324000"><ele>142.4</ele><time>2026-09-05T00:00:00Z</time></trkpt>
<trkpt lat="37.817360000" lon="-122.007400000"><ele>143.5</ele><time>2026-09-05T00:00:00Z</time></trkpt>
<trkpt lat="37.817303000" lon="-122.007490000"><ele>144.7</ele><time>2026-09-05T00:00:00Z</time></trkpt>
<trkpt lat="37.817250000" lon="-122.007576000"><ele>145.8</ele><time>2026-09-05T00:00:00Z</time></trkpt>
<trkpt lat="37.817204000" lon="-122.007670000"><ele>146.8</ele><time>2026-09-05T00:00:00Z</time></trkpt>
<trkpt lat="37.817158000" lon="-122.007770000"><ele>147.8</ele><time>2026-09-05T00:00:00Z</time></trkpt>
<trkpt lat="37.817116000" lon="-122.007870000"><ele>148.9</ele><time>2026-09-05T00:00:00Z</time></trkpt>
<trkpt lat="37.817078000" lon="-122.007970000"><ele>150.1</ele><time>2026-09-05T00:00:00Z</time></trkpt>
<trkpt lat="37.817040000" lon="-122.008064000"><ele>151.3</ele><time>2026-09-05T00:00:00Z</time></trkpt>
<trkpt lat="37.817005000" lon="-122.008160000"><ele>152.4</ele><time>2026-09-05T00:00:00Z</time></trkpt>
<trkpt lat="37.816986000" lon="-122.008270000"><ele>153.5</ele><time>2026-09-05T00:00:00Z</time></trkpt>
<trkpt lat="37.816963000" lon="-122.008380000"><ele>154.4</ele><time>2026-09-05T00:00:00Z</time></trkpt>
<trkpt lat="37.816967000" lon="-122.008500000"><ele>155.3</ele><time>2026-09-05T00:00:00Z</time></trkpt>
<trkpt lat="37.816980000" lon="-122.008606000"><ele>156.0</ele><time>2026-09-05T00:00:00Z</time></trkpt>
<trkpt lat="37.816994000" lon="-122.008705000"><ele>156.5</ele><time>2026-09-05T00:00:00Z</time></trkpt>
<trkpt lat="37.817013000" lon="-122.008820000"><ele>156.9</ele><time>2026-09-05T00:00:00Z</time></trkpt>
<trkpt lat="37.817040000" lon="-122.008930000"><ele>157.2</ele><time>2026-09-05T00:00:00Z</time></trkpt>
<trkpt lat="37.817055000" lon="-122.009030000"><ele>157.3</ele><time>2026-09-05T00:00:00Z</time></trkpt>
<trkpt lat="37.817070000" lon="-122.008930000"><ele>157.0</ele><time>2026-09-05T00:00:00Z</time></trkpt>
<trkpt lat="37.817066000" lon="-122.008810000"><ele>156.5</ele><time>2026-09-05T00:00:00Z</time></trkpt>
<trkpt lat="37.817047000" lon="-122.008705000"><ele>155.9</ele><time>2026-09-05T00:00:00Z</time></trkpt>
<trkpt lat="37.817028000" lon="-122.008590000"><ele>155.1</ele><time>2026-09-05T00:00:00Z</time></trkpt>
<trkpt lat="37.817013000" lon="-122.008480000"><ele>154.2</ele><time>2026-09-05T00:00:00Z</time></trkpt>
<trkpt lat="37.817020000" lon="-122.008354000"><ele>153.3</ele><time>2026-09-05T00:00:00Z</time></trkpt>
<trkpt lat="37.817050000" lon="-122.008250000"><ele>152.4</ele><time>2026-09-05T00:00:00Z</time></trkpt>
<trkpt lat="37.817078000" lon="-122.008150000"><ele>151.4</ele><time>2026-09-05T00:00:00Z</time></trkpt>
<trkpt lat="37.817110000" lon="-122.008050000"><ele>150.3</ele><time>2026-09-05T00:00:00Z</time></trkpt>
<trkpt lat="37.817154000" lon="-122.007965000"><ele>149.1</ele><time>2026-09-05T00:00:00Z</time></trkpt>
<trkpt lat="37.817173000" lon="-122.007860000"><ele>147.8</ele><time>2026-09-05T00:00:00Z</time></trkpt>
<trkpt lat="37.817215000" lon="-122.007770000"><ele>146.7</ele><time>2026-09-05T00:00:00Z</time></trkpt>
<trkpt lat="37.817257000" lon="-122.007675000"><ele>145.7</ele><time>2026-09-05T00:00:00Z</time></trkpt>
<trkpt lat="37.817307000" lon="-122.007590000"><ele>144.6</ele><time>2026-09-05T00:00:00Z</time></trkpt>
<trkpt lat="37.817360000" lon="-122.007510000"><ele>143.5</ele><time>2026-09-05T00:00:00Z</time></trkpt>
<trkpt lat="37.817420000" lon="-122.007430000"><ele>142.3</ele><time>2026-09-05T00:00:00Z</time></trkpt>
<trkpt lat="37.817474000" lon="-122.007350000"><ele>141.0</ele><time>2026-09-05T00:00:00Z</time></trkpt>
<trkpt lat="37.817528000" lon="-122.007270000"><ele>139.7</ele><time>2026-09-05T00:00:00Z</time></trkpt>
<trkpt lat="37.817590000" lon="-122.007180000"><ele>138.5</ele><time>2026-09-05T00:00:00Z</time></trkpt>
<trkpt lat="37.817657000" lon="-122.007100000"><ele>137.4</ele><time>2026-09-05T00:00:00Z</time></trkpt>
<trkpt lat="37.817720000" lon="-122.007030000"><ele>136.1</ele><time>2026-09-05T00:00:00Z</time></trkpt>
<trkpt lat="37.817764000" lon="-122.006935000"><ele>135.0</ele><time>2026-09-05T00:00:00Z</time></trkpt>
<trkpt lat="37.817833000" lon="-122.006870000"><ele>133.8</ele><time>2026-09-05T00:00:00Z</time></trkpt>
<trkpt lat="37.817894000" lon="-122.006800000"><ele>132.5</ele><time>2026-09-05T00:00:00Z</time></trkpt>
<trkpt lat="37.817963000" lon="-122.006720000"><ele>131.3</ele><time>2026-09-05T00:00:00Z</time></trkpt>
<trkpt lat="37.818040000" lon="-122.006670000"><ele>130.2</ele><time>2026-09-05T00:00:00Z</time></trkpt>
<trkpt lat="37.818115000" lon="-122.006610000"><ele>129.1</ele><time>2026-09-05T00:00:00Z</time></trkpt>
<trkpt lat="37.818188000" lon="-122.006550000"><ele>128.1</ele><time>2026-09-05T00:00:00Z</time></trkpt>
<trkpt lat="37.818275000" lon="-122.006530000"><ele>127.1</ele><time>2026-09-05T00:00:00Z</time></trkpt>
<trkpt lat="37.818360000" lon="-122.006520000"><ele>126.2</ele><time>2026-09-05T00:00:00Z</time></trkpt>
<trkpt lat="37.818450000" lon="-122.006490000"><ele>125.5</ele><time>2026-09-05T00:00:00Z</time></trkpt>
<trkpt lat="37.818535000" lon="-122.006485000"><ele>124.8</ele><time>2026-09-05T00:00:00Z</time></trkpt>
<trkpt lat="37.818623000" lon="-122.006450000"><ele>124.1</ele><time>2026-09-05T00:00:00Z</time></trkpt>
<trkpt lat="37.818703000" lon="-122.006420000"><ele>123.4</ele><time>2026-09-05T00:00:00Z</time></trkpt>
<trkpt lat="37.818780000" lon="-122.006386000"><ele>122.7</ele><time>2026-09-05T00:00:00Z</time></trkpt>
<trkpt lat="37.818863000" lon="-122.006340000"><ele>122.2</ele><time>2026-09-05T00:00:00Z</time></trkpt>
<trkpt lat="37.818950000" lon="-122.006294000"><ele>121.6</ele><time>2026-09-05T00:00:00Z</time></trkpt>
<trkpt lat="37.819030000" lon="-122.006240000"><ele>121.1</ele><time>2026-09-05T00:00:00Z</time></trkpt>
<trkpt lat="37.819103000" lon="-122.006180000"><ele>120.5</ele><time>2026-09-05T00:00:00Z</time></trkpt>
<trkpt lat="37.819168000" lon="-122.006100000"><ele>120.1</ele><time>2026-09-05T00:00:00Z</time></trkpt>
<trkpt lat="37.819233000" lon="-122.006035000"><ele>119.6</ele><time>2026-09-05T00:00:00Z</time></trkpt>
<trkpt lat="37.819280000" lon="-122.005936000"><ele>119.2</ele><time>2026-09-05T00:00:00Z</time></trkpt>
<trkpt lat="37.819280000" lon="-122.005830000"><ele>118.8</ele><time>2026-09-05T00:00:00Z</time></trkpt>
<trkpt lat="37.819290000" lon="-122.005714000"><ele>118.6</ele><time>2026-09-05T00:00:00Z</time></trkpt>
<trkpt lat="37.819280000" lon="-122.005610000"><ele>118.5</ele><time>2026-09-05T00:00:00Z</time></trkpt>
<trkpt lat="37.819310000" lon="-122.005510000"><ele>118.5</ele><time>2026-09-05T00:00:00Z</time></trkpt>
<trkpt lat="37.819390000" lon="-122.005460000"><ele>118.5</ele><time>2026-09-05T00:00:00Z</time></trkpt>
<trkpt lat="37.819320000" lon="-122.005520000"><ele>118.5</ele><time>2026-09-05T00:00:00Z</time></trkpt>
<trkpt lat="37.819230000" lon="-122.005550000"><ele>118.5</ele><time>2026-09-05T00:00:00Z</time></trkpt>
<trkpt lat="37.819160000" lon="-122.005480000"><ele>118.6</ele><time>2026-09-05T00:00:00Z</time></trkpt>
<trkpt lat="37.819100000" lon="-122.005420000"><ele>118.7</ele><time>2026-09-05T00:00:00Z</time></trkpt>
<trkpt lat="37.819183000" lon="-122.005370000"><ele>118.7</ele><time>2026-09-05T00:00:00Z</time></trkpt>
<trkpt lat="37.819210000" lon="-122.005270000"><ele>118.7</ele><time>2026-09-05T00:00:00Z</time></trkpt>
<trkpt lat="37.819237000" lon="-122.005160000"><ele>118.7</ele><time>2026-09-05T00:00:00Z</time></trkpt>
<trkpt lat="37.819280000" lon="-122.005050000"><ele>118.6</ele><time>2026-09-05T00:00:00Z</time></trkpt>
<trkpt lat="37.819298000" lon="-122.004944000"><ele>118.5</ele><time>2026-09-05T00:00:00Z</time></trkpt>
<trkpt lat="37.819330000" lon="-122.004840000"><ele>118.4</ele><time>2026-09-05T00:00:00Z</time></trkpt>
<trkpt lat="37.819350000" lon="-122.004730000"><ele>118.2</ele><time>2026-09-05T00:00:00Z</time></trkpt>
<trkpt lat="37.819424000" lon="-122.004680000"><ele>118.0</ele><time>2026-09-05T00:00:00Z</time></trkpt>
<trkpt lat="37.819504000" lon="-122.004616000"><ele>117.7</ele><time>2026-09-05T00:00:00Z</time></trkpt>
<trkpt lat="37.819576000" lon="-122.004555000"><ele>117.5</ele><time>2026-09-05T00:00:00Z</time></trkpt>
<trkpt lat="37.819660000" lon="-122.004500000"><ele>117.2</ele><time>2026-09-05T00:00:00Z</time></trkpt>
<trkpt lat="37.819744000" lon="-122.004480000"><ele>117.0</ele><time>2026-09-05T00:00:00Z</time></trkpt>
<trkpt lat="37.819830000" lon="-122.004490000"><ele>116.9</ele><time>2026-09-05T00:00:00Z</time></trkpt>
<trkpt lat="37.819920000" lon="-122.004500000"><ele>116.8</ele><time>2026-09-05T00:00:00Z</time></trkpt>
<trkpt lat="37.820004000" lon="-122.004470000"><ele>116.6</ele><time>2026-09-05T00:00:00Z</time></trkpt>
<trkpt lat="37.820040000" lon="-122.004380000"><ele>116.4</ele><time>2026-09-05T00:00:00Z</time></trkpt>
<trkpt lat="37.820030000" lon="-122.004360000"><ele>116.3</ele><time>2026-09-05T00:00:00Z</time></trkpt>
</trkseg>
</trk>
</gpx>
