<?xml version="1.0" encoding="UTF-8"?>
<gpx
  version="1.1"
  creator="Runkeeper - http://www.runkeeper.com"
  xmlns:xsi="http://www.w3.org/2001/XMLSchema-instance"
  xmlns="http://www.topografix.com/GPX/1/1"
  xsi:schemaLocation="http://www.topografix.com/GPX/1/1 http://www.topografix.com/GPX/1/1/gpx.xsd"
  xmlns:gpxtpx="http://www.garmin.com/xmlschemas/TrackPointExtension/v1">
<trk>
  <name><![CDATA[Walking 8/1/26]]></name>
  <time>2026-08-02T00:00:00Z</time>
<trkseg>
<trkpt lat="37.815697000" lon="-121.986890000"><ele>118.0</ele><time>2026-08-02T00:00:00Z</time></trkpt>
<trkpt lat="37.815620000" lon="-121.986930000"><ele>118.0</ele><time>2026-08-02T00:00:00Z</time></trkpt>
<trkpt lat="37.815536000" lon="-121.986946000"><ele>118.0</ele><time>2026-08-02T00:00:00Z</time></trkpt>
<trkpt lat="37.815453000" lon="-121.986930000"><ele>118.0</ele><time>2026-08-02T00:00:00Z</time></trkpt>
<trkpt lat="37.815370000" lon="-121.986930000"><ele>118.0</ele><time>2026-08-02T00:00:00Z</time></trkpt>
<trkpt lat="37.815280000" lon="-121.986910000"><ele>118.0</ele><time>2026-08-02T00:00:00Z</time></trkpt>
<trkpt lat="37.815200000" lon="-121.986900000"><ele>118.0</ele><time>2026-08-02T00:00:00Z</time></trkpt>
<trkpt lat="37.815110000" lon="-121.986880000"><ele>118.0</ele><time>2026-08-02T00:00:00Z</time></trkpt>
<trkpt lat="37.815030000" lon="-121.986855000"><ele>118.0</ele><time>2026-08-02T00:00:00Z</time></trkpt>
<trkpt lat="37.814950000" lon="-121.986850000"><ele>118.0</ele><time>2026-08-02T00:00:00Z</time></trkpt>
<trkpt lat="37.814865000" lon="-121.986820000"><ele>118.0</ele><time>2026-08-02T00:00:00Z</time></trkpt>
<trkpt lat="37.814780000" lon="-121.986780000"><ele>118.0</ele><time>2026-08-02T00:00:00Z</time></trkpt>
<trkpt lat="37.814705000" lon="-121.986740000"><ele>118.1</ele><time>2026-08-02T00:00:00Z</time></trkpt>
<trkpt lat="37.814617000" lon="-121.986694000"><ele>118.1</ele><time>2026-08-02T00:00:00Z</time></trkpt>
<trkpt lat="37.814545000" lon="-121.986660000"><ele>118.1</ele><time>2026-08-02T00:00:00Z</time></trkpt>
<trkpt lat="37.814465000" lon="-121.986595000"><ele>118.1</ele><time>2026-08-02T00:00:00Z</time></trkpt>
<trkpt lat="37.814384000" lon="-121.986550000"><ele>118.1</ele><time>2026-08-02T00:00:00Z</time></trkpt>
<trkpt lat="37.814312000" lon="-121.986480000"><ele>118.2</ele><time>2026-08-02T00:00:00Z</time></trkpt>
<trkpt lat="37.814243000" lon="-121.986420000"><ele>118.3</ele><time>2026-08-02T00:00:00Z</time></trkpt>
<trkpt lat="37.814180000" lon="-121.986360000"><ele>118.4</ele><time>2026-08-02T00:00:00Z</time></trkpt>
<trkpt lat="37.814117000" lon="-121.986290000"><ele>118.5</ele><time>2026-08-02T00:00:00Z</time></trkpt>
<trkpt lat="37.814053000" lon="-121.986200000"><ele>118.5</ele><time>2026-08-02T00:00:00Z</time></trkpt>
<trkpt lat="37.813988000" lon="-121.986130000"><ele>118.6</ele><time>2026-08-02T00:00:00Z</time></trkpt>
<trkpt lat="37.813950000" lon="-121.986020000"><ele>118.6</ele><time>2026-08-02T00:00:00Z</time></trkpt>
<trkpt lat="37.813940000" lon="-121.985916000"><ele>118.7</ele><time>2026-08-02T00:00:00Z</time></trkpt>
<trkpt lat="37.813923000" lon="-121.985810000"><ele>118.8</ele><time>2026-08-02T00:00:00Z</time></trkpt>
<trkpt lat="37.813890000" lon="-121.985710000"><ele>118.9</ele><time>2026-08-02T00:00:00Z</time></trkpt>
<trkpt lat="37.813812000" lon="-121.985664000"><ele>119.0</ele><time>2026-08-02T00:00:00Z</time></trkpt>
<trkpt lat="37.813730000" lon="-121.985660000"><ele>119.0</ele><time>2026-08-02T00:00:00Z</time></trkpt>
<trkpt lat="37.813650000" lon="-121.985630000"><ele>119.0</ele><time>2026-08-02T00:00:00Z</time></trkpt>
<trkpt lat="37.813590000" lon="-121.985540000"><ele>119.0</ele><time>2026-08-02T00:00:00Z</time></trkpt>
<trkpt lat="37.813534000" lon="-121.985466000"><ele>119.0</ele><time>2026-08-02T00:00:00Z</time></trkpt>
<trkpt lat="37.813473000" lon="-121.985400000"><ele>119.0</ele><time>2026-08-02T00:00:00Z</time></trkpt>
<trkpt lat="37.813416000" lon="-121.985310000"><ele>119.1</ele><time>2026-08-02T00:00:00Z</time></trkpt>
<trkpt lat="37.813370000" lon="-121.985220000"><ele>119.2</ele><time>2026-08-02T00:00:00Z</time></trkpt>
<trkpt lat="37.813316000" lon="-121.985120000"><ele>119.3</ele><time>2026-08-02T00:00:00Z</time></trkpt>
<trkpt lat="37.813274000" lon="-121.985030000"><ele>119.4</ele><time>2026-08-02T00:00:00Z</time></trkpt>
<trkpt lat="37.813244000" lon="-121.984930000"><ele>119.5</ele><time>2026-08-02T00:00:00Z</time></trkpt>
<trkpt lat="37.813190000" lon="-121.984830000"><ele>119.5</ele><time>2026-08-02T00:00:00Z</time></trkpt>
<trkpt lat="37.813126000" lon="-121.984760000"><ele>119.6</ele><time>2026-08-02T00:00:00Z</time></trkpt>
<trkpt lat="37.813053000" lon="-121.984690000"><ele>119.7</ele><time>2026-08-02T00:00:00Z</time></trkpt>
<trkpt lat="37.812984000" lon="-121.984634000"><ele>119.8</ele><time>2026-08-02T00:00:00Z</time></trkpt>
<trkpt lat="37.812920000" lon="-121.984566000"><ele>119.9</ele><time>2026-08-02T00:00:00Z</time></trkpt>
<trkpt lat="37.812847000" lon="-121.984505000"><ele>120.0</ele><time>2026-08-02T00:00:00Z</time></trkpt>
<trkpt lat="37.812760000" lon="-121.984474000"><ele>120.1</ele><time>2026-08-02T00:00:00Z</time></trkpt>
<trkpt lat="37.812690000" lon="-121.984406000"><ele>120.1</ele><time>2026-08-02T00:00:00Z</time></trkpt>
<trkpt lat="37.812640000" lon="-121.984320000"><ele>120.1</ele><time>2026-08-02T00:00:00Z</time></trkpt>
<trkpt lat="37.812645000" lon="-121.984220000"><ele>120.1</ele><time>2026-08-02T00:00:00Z</time></trkpt>
<trkpt lat="37.812650000" lon="-121.984110000"><ele>120.1</ele><time>2026-08-02T00:00:00Z</time></trkpt>
<trkpt lat="37.812687000" lon="-121.984020000"><ele>120.1</ele><time>2026-08-02T00:00:00Z</time></trkpt>
<trkpt lat="37.812695000" lon="-121.984116000"><ele>120.1</ele><time>2026-08-02T00:00:00Z</time></trkpt>
<trkpt lat="37.812683000" lon="-121.984240000"><ele>120.1</ele><time>2026-08-02T00:00:00Z</time></trkpt>
<trkpt lat="37.812730000" lon="-121.984344000"><ele>120.1</ele><time>2026-08-02T00:00:00Z</time></trkpt>
<trkpt lat="37.812798000" lon="-121.984406000"><ele>120.1</ele><time>2026-08-02T00:00:00Z</time></trkpt>
<trkpt lat="37.812870000" lon="-121.984450000"><ele>120.1</ele><time>2026-08-02T00:00:00Z</time></trkpt>
<trkpt lat="37.812940000" lon="-121.984510000"><ele>120.0</ele><time>2026-08-02T00:00:00Z</time></trkpt>
<trkpt lat="37.813007000" lon="-121.984566000"><ele>119.9</ele><time>2026-08-02T00:00:00Z</time></trkpt>
<trkpt lat="37.813084000" lon="-121.984620000"><ele>119.8</ele><time>2026-08-02T00:00:00Z</time></trkpt>
<trkpt lat="37.813140000" lon="-121.984710000"><ele>119.7</ele><time>2026-08-02T00:00:00Z</time></trkpt>
<trkpt lat="37.813194000" lon="-121.984800000"><ele>119.6</ele><time>2026-08-02T00:00:00Z</time></trkpt>
<trkpt lat="37.813248000" lon="-121.984886000"><ele>119.5</ele><time>2026-08-02T00:00:00Z</time></trkpt>
<trkpt lat="37.813297000" lon="-121.984980000"><ele>119.5</ele><time>2026-08-02T00:00:00Z</time></trkpt>
<trkpt lat="37.813347000" lon="-121.985070000"><ele>119.4</ele><time>2026-08-02T00:00:00Z</time></trkpt>
<trkpt lat="37.813390000" lon="-121.985160000"><ele>119.3</ele><time>2026-08-02T00:00:00Z</time></trkpt>
<trkpt lat="37.813446000" lon="-121.985245000"><ele>119.2</ele><time>2026-08-02T00:00:00Z</time></trkpt>
<trkpt lat="37.813507000" lon="-121.985310000"><ele>119.1</ele><time>2026-08-02T00:00:00Z</time></trkpt>
<trkpt lat="37.813576000" lon="-121.985374000"><ele>119.0</ele><time>2026-08-02T00:00:00Z</time></trkpt>
<trkpt lat="37.813637000" lon="-121.985450000"><ele>119.0</ele><time>2026-08-02T00:00:00Z</time></trkpt>
<trkpt lat="37.813705000" lon="-121.985510000"><ele>119.0</ele><time>2026-08-02T00:00:00Z</time></trkpt>
<trkpt lat="37.813786000" lon="-121.985565000"><ele>119.0</ele><time>2026-08-02T00:00:00Z</time></trkpt>
<trkpt lat="37.813873000" lon="-121.985590000"><ele>119.0</ele><time>2026-08-02T00:00:00Z</time></trkpt>
<trkpt lat="37.813960000" lon="-121.985540000"><ele>119.0</ele><time>2026-08-02T00:00:00Z</time></trkpt>
<trkpt lat="37.814030000" lon="-121.985460000"><ele>119.0</ele><time>2026-08-02T00:00:00Z</time></trkpt>
<trkpt lat="37.814056000" lon="-121.985360000"><ele>119.0</ele><time>2026-08-02T00:00:00Z</time></trkpt>
<trkpt lat="37.814075000" lon="-121.985250000"><ele>119.0</ele><time>2026-08-02T00:00:00Z</time></trkpt>
<trkpt lat="37.814110000" lon="-121.985146000"><ele>119.0</ele><time>2026-08-02T00:00:00Z</time></trkpt>
<trkpt lat="37.814170000" lon="-121.985070000"><ele>119.0</ele><time>2026-08-02T00:00:00Z</time></trkpt>
<trkpt lat="37.814255000" lon="-121.985110000"><ele>119.0</ele><time>2026-08-02T00:00:00Z</time></trkpt>
<trkpt lat="37.814340000" lon="-121.985120000"><ele>119.0</ele><time>2026-08-02T00:00:00Z</time></trkpt>
<trkpt lat="37.814420000" lon="-121.985170000"><ele>119.0</ele><time>2026-08-02T00:00:00Z</time></trkpt>
<trkpt lat="37.814500000" lon="-121.985214000"><ele>119.0</ele><time>2026-08-02T00:00:00Z</time></trkpt>
<trkpt lat="37.814580000" lon="-121.985270000"><ele>118.9</ele><time>2026-08-02T00:00:00Z</time></trkpt>
<trkpt lat="37.814655000" lon="-121.985330000"><ele>118.8</ele><time>2026-08-02T00:00:00Z</time></trkpt>
<trkpt lat="37.814740000" lon="-121.985360000"><ele>118.8</ele><time>2026-08-02T00:00:00Z</time></trkpt>
<trkpt lat="37.814820000" lon="-121.985390000"><ele>118.8</ele><time>2026-08-02T00:00:00Z</time></trkpt>
<trkpt lat="37.814907000" lon="-121.985410000"><ele>118.8</ele><time>2026-08-02T00:00:00Z</time></trkpt>
<trkpt lat="37.814987000" lon="-121.985435000"><ele>118.8</ele><time>2026-08-02T00:00:00Z</time></trkpt>
<trkpt lat="37.815070000" lon="-121.985490000"><ele>118.8</ele><time>2026-08-02T00:00:00Z</time></trkpt>
<trkpt lat="37.815147000" lon="-121.985530000"><ele>118.8</ele><time>2026-08-02T00:00:00Z</time></trkpt>
<trkpt lat="37.815230000" lon="-121.985530000"><ele>118.8</ele><time>2026-08-02T00:00:00Z</time></trkpt>
<trkpt lat="37.815296000" lon="-121.985450000"><ele>118.8</ele><time>2026-08-02T00:00:00Z</time></trkpt>
<trkpt lat="37.815300000" lon="-121.985344000"><ele>118.8</ele><time>2026-08-02T00:00:00Z</time></trkpt>
<trkpt lat="37.815296000" lon="-121.985240000"><ele>118.9</ele><time>2026-08-02T00:00:00Z</time></trkpt>
<trkpt lat="37.815330000" lon="-121.985330000"><ele>118.9</ele><time>2026-08-02T00:00:00Z</time></trkpt>
<trkpt lat="37.815315000" lon="-121.985435000"><ele>118.9</ele><time>2026-08-02T00:00:00Z</time></trkpt>
<trkpt lat="37.815266000" lon="-121.985520000"><ele>118.9</ele><time>2026-08-02T00:00:00Z</time></trkpt>
<trkpt lat="37.815180000" lon="-121.985530000"><ele>118.9</ele><time>2026-08-02T00:00:00Z</time></trkpt>
<trkpt lat="37.815100000" lon="-121.985490000"><ele>118.9</ele><time>2026-08-02T00:00:00Z</time></trkpt>
<trkpt lat="37.815020000" lon="-121.985440000"><ele>118.9</ele><time>2026-08-02T00:00:00Z</time></trkpt>
<trkpt lat="37.814945000" lon="-121.985400000"><ele>118.9</ele><time>2026-08-02T00:00:00Z</time></trkpt>
<trkpt lat="37.814870000" lon="-121.985344000"><ele>118.9</ele><time>2026-08-02T00:00:00Z</time></trkpt>
<trkpt lat="37.814785000" lon="-121.985306000"><ele>118.9</ele><time>2026-08-02T00:00:00Z</time></trkpt>
<trkpt lat="37.814713000" lon="-121.985250000"><ele>118.9</ele><time>2026-08-02T00:00:00Z</time></trkpt>
<trkpt lat="37.814636000" lon="-121.985214000"><ele>118.9</ele><time>2026-08-02T00:00:00Z</time></trkpt>
<trkpt lat="37.814556000" lon="-121.985170000"><ele>119.0</ele><time>2026-08-02T00:00:00Z</time></trkpt>
<trkpt lat="37.814472000" lon="-121.985130000"><ele>119.1</ele><time>2026-08-02T00:00:00Z</time></trkpt>
<trkpt lat="37.814390000" lon="-121.985085000"><ele>119.2</ele><time>2026-08-02T00:00:00Z</time></trkpt>
<trkpt lat="37.814310000" lon="-121.985040000"><ele>119.3</ele><time>2026-08-02T00:00:00Z</time></trkpt>
<trkpt lat="37.814228000" lon="-121.984980000"><ele>119.4</ele><time>2026-08-02T00:00:00Z</time></trkpt>
<trkpt lat="37.814180000" lon="-121.984880000"><ele>119.5</ele><time>2026-08-02T00:00:00Z</time></trkpt>
<trkpt lat="37.814170000" lon="-121.984764000"><ele>119.6</ele><time>2026-08-02T00:00:00Z</time></trkpt>
<trkpt lat="37.814205000" lon="-121.984660000"><ele>119.7</ele><time>2026-08-02T00:00:00Z</time></trkpt>
<trkpt lat="37.814200000" lon="-121.984540000"><ele>119.8</ele><time>2026-08-02T00:00:00Z</time></trkpt>
<trkpt lat="37.814137000" lon="-121.984460000"><ele>119.9</ele><time>2026-08-02T00:00:00Z</time></trkpt>
<trkpt lat="37.814070000" lon="-121.984406000"><ele>120.1</ele><time>2026-08-02T00:00:00Z</time></trkpt>
<trkpt lat="37.814003000" lon="-121.984330000"><ele>120.3</ele><time>2026-08-02T00:00:00Z</time></trkpt>
<trkpt lat="37.813940000" lon="-121.984245000"><ele>120.4</ele><time>2026-08-02T00:00:00Z</time></trkpt>
<trkpt lat="37.813873000" lon="-121.984170000"><ele>120.5</ele><time>2026-08-02T00:00:00Z</time></trkpt>
<trkpt lat="37.813800000" lon="-121.984100000"><ele>120.5</ele><time>2026-08-02T00:00:00Z</time></trkpt>
<trkpt lat="37.813717000" lon="-121.984050000"><ele>120.5</ele><time>2026-08-02T00:00:00Z</time></trkpt>
<trkpt lat="37.813637000" lon="-121.984024000"><ele>120.5</ele><time>2026-08-02T00:00:00Z</time></trkpt>
<trkpt lat="37.813587000" lon="-121.983940000"><ele>120.5</ele><time>2026-08-02T00:00:00Z</time></trkpt>
<trkpt lat="37.813675000" lon="-121.983960000"><ele>120.5</ele><time>2026-08-02T00:00:00Z</time></trkpt>
<trkpt lat="37.813755000" lon="-121.984020000"><ele>120.5</ele><time>2026-08-02T00:00:00Z</time></trkpt>
<trkpt lat="37.813830000" lon="-121.984080000"><ele>120.5</ele><time>2026-08-02T00:00:00Z</time></trkpt>
<trkpt lat="37.813908000" lon="-121.984146000"><ele>120.5</ele><time>2026-08-02T00:00:00Z</time></trkpt>
<trkpt lat="37.813980000" lon="-121.984215000"><ele>120.5</ele><time>2026-08-02T00:00:00Z</time></trkpt>
<trkpt lat="37.814045000" lon="-121.984290000"><ele>120.5</ele><time>2026-08-02T00:00:00Z</time></trkpt>
<trkpt lat="37.814117000" lon="-121.984360000"><ele>120.5</ele><time>2026-08-02T00:00:00Z</time></trkpt>
<trkpt lat="37.814200000" lon="-121.984406000"><ele>120.6</ele><time>2026-08-02T00:00:00Z</time></trkpt>
<trkpt lat="37.814285000" lon="-121.984380000"><ele>120.8</ele><time>2026-08-02T00:00:00Z</time></trkpt>
<trkpt lat="37.814316000" lon="-121.984290000"><ele>121.1</ele><time>2026-08-02T00:00:00Z</time></trkpt>
<trkpt lat="37.814350000" lon="-121.984190000"><ele>121.4</ele><time>2026-08-02T00:00:00Z</time></trkpt>
<trkpt lat="37.814423000" lon="-121.984120000"><ele>121.5</ele><time>2026-08-02T00:00:00Z</time></trkpt>
<trkpt lat="37.814495000" lon="-121.984055000"><ele>121.8</ele><time>2026-08-02T00:00:00Z</time></trkpt>
<trkpt lat="37.814550000" lon="-121.983970000"><ele>122.1</ele><time>2026-08-02T00:00:00Z</time></trkpt>
<trkpt lat="37.814636000" lon="-121.983980000"><ele>122.3</ele><time>2026-08-02T00:00:00Z</time></trkpt>
<trkpt lat="37.814710000" lon="-121.984024000"><ele>122.5</ele><time>2026-08-02T00:00:00Z</time></trkpt>
<trkpt lat="37.814780000" lon="-121.984085000"><ele>122.6</ele><time>2026-08-02T00:00:00Z</time></trkpt>
<trkpt lat="37.814865000" lon="-121.984116000"><ele>122.8</ele><time>2026-08-02T00:00:00Z</time></trkpt>
<trkpt lat="37.814945000" lon="-121.984110000"><ele>122.9</ele><time>2026-08-02T00:00:00Z</time></trkpt>
<trkpt lat="37.815033000" lon="-121.984100000"><ele>123.0</ele><time>2026-08-02T00:00:00Z</time></trkpt>
<trkpt lat="37.815125000" lon="-121.984090000"><ele>123.0</ele><time>2026-08-02T00:00:00Z</time></trkpt>
<trkpt lat="37.815212000" lon="-121.984055000"><ele>123.0</ele><time>2026-08-02T00:00:00Z</time></trkpt>
<trkpt lat="37.815160000" lon="-121.983980000"><ele>123.0</ele><time>2026-08-02T00:00:00Z</time></trkpt>
<trkpt lat="37.815063000" lon="-121.983986000"><ele>123.0</ele><time>2026-08-02T00:00:00Z</time></trkpt>
<trkpt lat="37.814980000" lon="-121.983990000"><ele>123.0</ele><time>2026-08-02T00:00:00Z</time></trkpt>
<trkpt lat="37.814890000" lon="-121.984000000"><ele>123.0</ele><time>2026-08-02T00:00:00Z</time></trkpt>
<trkpt lat="37.814804000" lon="-121.983986000"><ele>123.0</ele><time>2026-08-02T00:00:00Z</time></trkpt>
<trkpt lat="37.814716000" lon="-121.983960000"><ele>123.0</ele><time>2026-08-02T00:00:00Z</time></trkpt>
<trkpt lat="37.814636000" lon="-121.983910000"><ele>123.0</ele><time>2026-08-02T00:00:00Z</time></trkpt>
<trkpt lat="37.814587000" lon="-121.983826000"><ele>123.1</ele><time>2026-08-02T00:00:00Z</time></trkpt>
<trkpt lat="37.814552000" lon="-121.983720000"><ele>123.2</ele><time>2026-08-02T00:00:00Z</time></trkpt>
<trkpt lat="37.814552000" lon="-121.983610000"><ele>123.3</ele><time>2026-08-02T00:00:00Z</time></trkpt>
<trkpt lat="37.814568000" lon="-121.983500000"><ele>123.4</ele><time>2026-08-02T00:00:00Z</time></trkpt>
<trkpt lat="37.814568000" lon="-121.983390000"><ele>123.4</ele><time>2026-08-02T00:00:00Z</time></trkpt>
<trkpt lat="37.814564000" lon="-121.983284000"><ele>123.4</ele><time>2026-08-02T00:00:00Z</time></trkpt>
<trkpt lat="37.814560000" lon="-121.983180000"><ele>123.4</ele><time>2026-08-02T00:00:00Z</time></trkpt>
<trkpt lat="37.814560000" lon="-121.983070000"><ele>123.4</ele><time>2026-08-02T00:00:00Z</time></trkpt>
<trkpt lat="37.814540000" lon="-121.982950000"><ele>123.4</ele><time>2026-08-02T00:00:00Z</time></trkpt>
<trkpt lat="37.814520000" lon="-121.982834000"><ele>123.4</ele><time>2026-08-02T00:00:00Z</time></trkpt>
<trkpt lat="37.814520000" lon="-121.982720000"><ele>123.4</ele><time>2026-08-02T00:00:00Z</time></trkpt>
<trkpt lat="37.814507000" lon="-121.982610000"><ele>123.3</ele><time>2026-08-02T00:00:00Z</time></trkpt>
<trkpt lat="37.814480000" lon="-121.982510000"><ele>123.2</ele><time>2026-08-02T00:00:00Z</time></trkpt>
<trkpt lat="37.814457000" lon="-121.982414000"><ele>123.1</ele><time>2026-08-02T00:00:00Z</time></trkpt>
<trkpt lat="37.814423000" lon="-121.982310000"><ele>123.0</ele><time>2026-08-02T00:00:00Z</time></trkpt>
<trkpt lat="37.814392000" lon="-121.982210000"><ele>123.0</ele><time>2026-08-02T00:00:00Z</time></trkpt>
<trkpt lat="37.814358000" lon="-121.982090000"><ele>123.0</ele><time>2026-08-02T00:00:00Z</time></trkpt>
<trkpt lat="37.814323000" lon="-121.981995000"><ele>123.0</ele><time>2026-08-02T00:00:00Z</time></trkpt>
<trkpt lat="37.814323000" lon="-121.981880000"><ele>123.0</ele><time>2026-08-02T00:00:00Z</time></trkpt>
<trkpt lat="37.814384000" lon="-121.981960000"><ele>123.0</ele><time>2026-08-02T00:00:00Z</time></trkpt>
<trkpt lat="37.814396000" lon="-121.982056000"><ele>123.0</ele><time>2026-08-02T00:00:00Z</time></trkpt>
<trkpt lat="37.814420000" lon="-121.982160000"><ele>123.0</ele><time>2026-08-02T00:00:00Z</time></trkpt>
<trkpt lat="37.814453000" lon="-121.982260000"><ele>123.0</ele><time>2026-08-02T00:00:00Z</time></trkpt>
<trkpt lat="37.814480000" lon="-121.982370000"><ele>123.0</ele><time>2026-08-02T00:00:00Z</time></trkpt>
<trkpt lat="37.814503000" lon="-121.982475000"><ele>123.0</ele><time>2026-08-02T00:00:00Z</time></trkpt>
<trkpt lat="37.814533000" lon="-121.982580000"><ele>123.1</ele><time>2026-08-02T00:00:00Z</time></trkpt>
<trkpt lat="37.814550000" lon="-121.982690000"><ele>123.2</ele><time>2026-08-02T00:00:00Z</time></trkpt>
<trkpt lat="37.814545000" lon="-121.982800000"><ele>123.3</ele><time>2026-08-02T00:00:00Z</time></trkpt>
<trkpt lat="37.814484000" lon="-121.982870000"><ele>123.4</ele><time>2026-08-02T00:00:00Z</time></trkpt>
<trkpt lat="37.814396000" lon="-121.982870000"><ele>123.5</ele><time>2026-08-02T00:00:00Z</time></trkpt>
<trkpt lat="37.814312000" lon="-121.982870000"><ele>123.5</ele><time>2026-08-02T00:00:00Z</time></trkpt>
<trkpt lat="37.814224000" lon="-121.982880000"><ele>123.6</ele><time>2026-08-02T00:00:00Z</time></trkpt>
<trkpt lat="37.814144000" lon="-121.982870000"><ele>123.7</ele><time>2026-08-02T00:00:00Z</time></trkpt>
<trkpt lat="37.814053000" lon="-121.982890000"><ele>123.8</ele><time>2026-08-02T00:00:00Z</time></trkpt>
<trkpt lat="37.813960000" lon="-121.982920000"><ele>123.9</ele><time>2026-08-02T00:00:00Z</time></trkpt>
<trkpt lat="37.813877000" lon="-121.982925000"><ele>124.0</ele><time>2026-08-02T00:00:00Z</time></trkpt>
<trkpt lat="37.813793000" lon="-121.982925000"><ele>124.0</ele><time>2026-08-02T00:00:00Z</time></trkpt>
<trkpt lat="37.813710000" lon="-121.982925000"><ele>124.1</ele><time>2026-08-02T00:00:00Z</time></trkpt>
<trkpt lat="37.813618000" lon="-121.982930000"><ele>124.2</ele><time>2026-08-02T00:00:00Z</time></trkpt>
<trkpt lat="37.813534000" lon="-121.982940000"><ele>124.3</ele><time>2026-08-02T00:00:00Z</time></trkpt>
<trkpt lat="37.813450000" lon="-121.982940000"><ele>124.4</ele><time>2026-08-02T00:00:00Z</time></trkpt>
<trkpt lat="37.813366000" lon="-121.982950000"><ele>124.5</ele><time>2026-08-02T00:00:00Z</time></trkpt>
<trkpt lat="37.813274000" lon="-121.982950000"><ele>124.7</ele><time>2026-08-02T00:00:00Z</time></trkpt>
<trkpt lat="37.813187000" lon="-121.982950000"><ele>124.9</ele><time>2026-08-02T00:00:00Z</time></trkpt>
<trkpt lat="37.813103000" lon="-121.982960000"><ele>125.1</ele><time>2026-08-02T00:00:00Z</time></trkpt>
<trkpt lat="37.813007000" lon="-121.982956000"><ele>125.3</ele><time>2026-08-02T00:00:00Z</time></trkpt>
<trkpt lat="37.812923000" lon="-121.982930000"><ele>125.5</ele><time>2026-08-02T00:00:00Z</time></trkpt>
<trkpt lat="37.812878000" lon="-121.982834000"><ele>125.5</ele><time>2026-08-02T00:00:00Z</time></trkpt>
<trkpt lat="37.812866000" lon="-121.982710000"><ele>125.5</ele><time>2026-08-02T00:00:00Z</time></trkpt>
<trkpt lat="37.812870000" lon="-121.982610000"><ele>125.5</ele><time>2026-08-02T00:00:00Z</time></trkpt>
<trkpt lat="37.812874000" lon="-121.982506000"><ele>125.3</ele><time>2026-08-02T00:00:00Z</time></trkpt>
<trkpt lat="37.812890000" lon="-121.982400000"><ele>125.0</ele><time>2026-08-02T00:00:00Z</time></trkpt>
<trkpt lat="37.812912000" lon="-121.982290000"><ele>124.6</ele><time>2026-08-02T00:00:00Z</time></trkpt>
<trkpt lat="37.812927000" lon="-121.982180000"><ele>124.3</ele><time>2026-08-02T00:00:00Z</time></trkpt>
<trkpt lat="37.812930000" lon="-121.982070000"><ele>123.9</ele><time>2026-08-02T00:00:00Z</time></trkpt>
<trkpt lat="37.812943000" lon="-121.981970000"><ele>123.5</ele><time>2026-08-02T00:00:00Z</time></trkpt>
<trkpt lat="37.812958000" lon="-121.981860000"><ele>123.2</ele><time>2026-08-02T00:00:00Z</time></trkpt>
<trkpt lat="37.812977000" lon="-121.981750000"><ele>122.8</ele><time>2026-08-02T00:00:00Z</time></trkpt>
<trkpt lat="37.812916000" lon="-121.981680000"><ele>122.5</ele><time>2026-08-02T00:00:00Z</time></trkpt>
<trkpt lat="37.812830000" lon="-121.981630000"><ele>122.2</ele><time>2026-08-02T00:00:00Z</time></trkpt>
<trkpt lat="37.812756000" lon="-121.981580000"><ele>121.9</ele><time>2026-08-02T00:00:00Z</time></trkpt>
<trkpt lat="37.812670000" lon="-121.981575000"><ele>121.7</ele><time>2026-08-02T00:00:00Z</time></trkpt>
<trkpt lat="37.812588000" lon="-121.981570000"><ele>121.7</ele><time>2026-08-02T00:00:00Z</time></trkpt>
<trkpt lat="37.812496000" lon="-121.981550000"><ele>121.6</ele><time>2026-08-02T00:00:00Z</time></trkpt>
<trkpt lat="37.812410000" lon="-121.981520000"><ele>121.5</ele><time>2026-08-02T00:00:00Z</time></trkpt>
<trkpt lat="37.812336000" lon="-121.981580000"><ele>121.5</ele><time>2026-08-02T00:00:00Z</time></trkpt>
<trkpt lat="37.812330000" lon="-121.981690000"><ele>121.4</ele><time>2026-08-02T00:00:00Z</time></trkpt>
<trkpt lat="37.812313000" lon="-121.981800000"><ele>121.3</ele><time>2026-08-02T00:00:00Z</time></trkpt>
<trkpt lat="37.812230000" lon="-121.981790000"><ele>121.2</ele><time>2026-08-02T00:00:00Z</time></trkpt>
<trkpt lat="37.812218000" lon="-121.981674000"><ele>121.1</ele><time>2026-08-02T00:00:00Z</time></trkpt>
<trkpt lat="37.812220000" lon="-121.981570000"><ele>121.1</ele><time>2026-08-02T00:00:00Z</time></trkpt>
<trkpt lat="37.812160000" lon="-121.981480000"><ele>121.1</ele><time>2026-08-02T00:00:00Z</time></trkpt>
<trkpt lat="37.812073000" lon="-121.981480000"><ele>121.0</ele><time>2026-08-02T00:00:00Z</time></trkpt>
<trkpt lat="37.811990000" lon="-121.981490000"><ele>120.8</ele><time>2026-08-02T00:00:00Z</time></trkpt>
<trkpt lat="37.811905000" lon="-121.981500000"><ele>120.7</ele><time>2026-08-02T00:00:00Z</time></trkpt>
<trkpt lat="37.811850000" lon="-121.981580000"><ele>120.6</ele><time>2026-08-02T00:00:00Z</time></trkpt>
<trkpt lat="37.811848000" lon="-121.981690000"><ele>120.5</ele><time>2026-08-02T00:00:00Z</time></trkpt>
<trkpt lat="37.811813000" lon="-121.981800000"><ele>120.5</ele><time>2026-08-02T00:00:00Z</time></trkpt>
<trkpt lat="37.811775000" lon="-121.981895000"><ele>120.4</ele><time>2026-08-02T00:00:00Z</time></trkpt>
<trkpt lat="37.811768000" lon="-121.982020000"><ele>120.3</ele><time>2026-08-02T00:00:00Z</time></trkpt>
<trkpt lat="37.811775000" lon="-121.982124000"><ele>120.2</ele><time>2026-08-02T00:00:00Z</time></trkpt>
<trkpt lat="37.811780000" lon="-121.982240000"><ele>120.1</ele><time>2026-08-02T00:00:00Z</time></trkpt>
<trkpt lat="37.811790000" lon="-121.982346000"><ele>120.0</ele><time>2026-08-02T00:00:00Z</time></trkpt>
<trkpt lat="37.811783000" lon="-121.982460000"><ele>120.0</ele><time>2026-08-02T00:00:00Z</time></trkpt>
<trkpt lat="37.811783000" lon="-121.982574000"><ele>119.9</ele><time>2026-08-02T00:00:00Z</time></trkpt>
<trkpt lat="37.811780000" lon="-121.982670000"><ele>119.9</ele><time>2026-08-02T00:00:00Z</time></trkpt>
<trkpt lat="37.811787000" lon="-121.982790000"><ele>119.9</ele><time>2026-08-02T00:00:00Z</time></trkpt>
<trkpt lat="37.811794000" lon="-121.982900000"><ele>119.9</ele><time>2026-08-02T00:00:00Z</time></trkpt>
<trkpt lat="37.811800000" lon="-121.983010000"><ele>119.8</ele><time>2026-08-02T00:00:00Z</time></trkpt>
<trkpt lat="37.811787000" lon="-121.983120000"><ele>119.7</ele><time>2026-08-02T00:00:00Z</time></trkpt>
<trkpt lat="37.811790000" lon="-121.983240000"><ele>119.6</ele><time>2026-08-02T00:00:00Z</time></trkpt>
<trkpt lat="37.811783000" lon="-121.983350000"><ele>119.5</ele><time>2026-08-02T00:00:00Z</time></trkpt>
<trkpt lat="37.811783000" lon="-121.983470000"><ele>119.5</ele><time>2026-08-02T00:00:00Z</time></trkpt>
<trkpt lat="37.811764000" lon="-121.983570000"><ele>119.5</ele><time>2026-08-02T00:00:00Z</time></trkpt>
<trkpt lat="37.811770000" lon="-121.983670000"><ele>119.5</ele><time>2026-08-02T00:00:00Z</time></trkpt>
<trkpt lat="37.811780000" lon="-121.983790000"><ele>119.5</ele><time>2026-08-02T00:00:00Z</time></trkpt>
<trkpt lat="37.811780000" lon="-121.983910000"><ele>119.4</ele><time>2026-08-02T00:00:00Z</time></trkpt>
<trkpt lat="37.811775000" lon="-121.984020000"><ele>119.3</ele><time>2026-08-02T00:00:00Z</time></trkpt>
<trkpt lat="37.811770000" lon="-121.984120000"><ele>119.2</ele><time>2026-08-02T00:00:00Z</time></trkpt>
<trkpt lat="37.811783000" lon="-121.984230000"><ele>119.2</ele><time>2026-08-02T00:00:00Z</time></trkpt>
<trkpt lat="37.811802000" lon="-121.984340000"><ele>119.2</ele><time>2026-08-02T00:00:00Z</time></trkpt>
<trkpt lat="37.811836000" lon="-121.984436000"><ele>119.3</ele><time>2026-08-02T00:00:00Z</time></trkpt>
<trkpt lat="37.811890000" lon="-121.984530000"><ele>119.4</ele><time>2026-08-02T00:00:00Z</time></trkpt>
<trkpt lat="37.811960000" lon="-121.984610000"><ele>119.5</ele><time>2026-08-02T00:00:00Z</time></trkpt>
<trkpt lat="37.812035000" lon="-121.984665000"><ele>119.5</ele><time>2026-08-02T00:00:00Z</time></trkpt>
<trkpt lat="37.812122000" lon="-121.984700000"><ele>119.5</ele><time>2026-08-02T00:00:00Z</time></trkpt>
<trkpt lat="37.812206000" lon="-121.984726000"><ele>119.5</ele><time>2026-08-02T00:00:00Z</time></trkpt>
<trkpt lat="37.812294000" lon="-121.984740000"><ele>119.6</ele><time>2026-08-02T00:00:00Z</time></trkpt>
<trkpt lat="37.812370000" lon="-121.984790000"><ele>119.6</ele><time>2026-08-02T00:00:00Z</time></trkpt>
<trkpt lat="37.812443000" lon="-121.984850000"><ele>119.6</ele><time>2026-08-02T00:00:00Z</time></trkpt>
<trkpt lat="37.812515000" lon="-121.984910000"><ele>119.5</ele><time>2026-08-02T00:00:00Z</time></trkpt>
<trkpt lat="37.812590000" lon="-121.984985000"><ele>119.5</ele><time>2026-08-02T00:00:00Z</time></trkpt>
<trkpt lat="37.812664000" lon="-121.985060000"><ele>119.3</ele><time>2026-08-02T00:00:00Z</time></trkpt>
<trkpt lat="37.812710000" lon="-121.985150000"><ele>119.1</ele><time>2026-08-02T00:00:00Z</time></trkpt>
<trkpt lat="37.812717000" lon="-121.985270000"><ele>119.0</ele><time>2026-08-02T00:00:00Z</time></trkpt>
<trkpt lat="37.812740000" lon="-121.985374000"><ele>118.9</ele><time>2026-08-02T00:00:00Z</time></trkpt>
<trkpt lat="37.812805000" lon="-121.985460000"><ele>118.8</ele><time>2026-08-02T00:00:00Z</time></trkpt>
<trkpt lat="37.812878000" lon="-121.985520000"><ele>118.7</ele><time>2026-08-02T00:00:00Z</time></trkpt>
<trkpt lat="37.812958000" lon="-121.985560000"><ele>118.6</ele><time>2026-08-02T00:00:00Z</time></trkpt>
<trkpt lat="37.813040000" lon="-121.985560000"><ele>118.5</ele><time>2026-08-02T00:00:00Z</time></trkpt>
<trkpt lat="37.813126000" lon="-121.985600000"><ele>118.5</ele><time>2026-08-02T00:00:00Z</time></trkpt>
<trkpt lat="37.813170000" lon="-121.985700000"><ele>118.5</ele><time>2026-08-02T00:00:00Z</time></trkpt>
<trkpt lat="37.813206000" lon="-121.985800000"><ele>118.5</ele><time>2026-08-02T00:00:00Z</time></trkpt>
<trkpt lat="37.813248000" lon="-121.985910000"><ele>118.5</ele><time>2026-08-02T00:00:00Z</time></trkpt>
<trkpt lat="37.813290000" lon="-121.986015000"><ele>118.5</ele><time>2026-08-02T00:00:00Z</time></trkpt>
<trkpt lat="37.813347000" lon="-121.986100000"><ele>118.4</ele><time>2026-08-02T00:00:00Z</time></trkpt>
<trkpt lat="37.813416000" lon="-121.986170000"><ele>118.3</ele><time>2026-08-02T00:00:00Z</time></trkpt>
<trkpt lat="37.813490000" lon="-121.986230000"><ele>118.2</ele><time>2026-08-02T00:00:00Z</time></trkpt>
<trkpt lat="37.813557000" lon="-121.986305000"><ele>118.1</ele><time>2026-08-02T00:00:00Z</time></trkpt>
<trkpt lat="37.813630000" lon="-121.986370000"><ele>118.0</ele><time>2026-08-02T00:00:00Z</time></trkpt>
<trkpt lat="37.813690000" lon="-121.986440000"><ele>118.1</ele><time>2026-08-02T00:00:00Z</time></trkpt>
<trkpt lat="37.813760000" lon="-121.986520000"><ele>118.1</ele><time>2026-08-02T00:00:00Z</time></trkpt>
<trkpt lat="37.813824000" lon="-121.986590000"><ele>118.1</ele><time>2026-08-02T00:00:00Z</time></trkpt>
<trkpt lat="37.813885000" lon="-121.986664000"><ele>118.1</ele><time>2026-08-02T00:00:00Z</time></trkpt>
<trkpt lat="37.813970000" lon="-121.986640000"><ele>118.2</ele><time>2026-08-02T00:00:00Z</time></trkpt>
<trkpt lat="37.814030000" lon="-121.986565000"><ele>118.3</ele><time>2026-08-02T00:00:00Z</time></trkpt>
<trkpt lat="37.814087000" lon="-121.986470000"><ele>118.3</ele><time>2026-08-02T00:00:00Z</time></trkpt>
<trkpt lat="37.814137000" lon="-121.986390000"><ele>118.3</ele><time>2026-08-02T00:00:00Z</time></trkpt>
<trkpt lat="37.814228000" lon="-121.986380000"><ele>118.3</ele><time>2026-08-02T00:00:00Z</time></trkpt>
<trkpt lat="37.814316000" lon="-121.986430000"><ele>118.3</ele><time>2026-08-02T00:00:00Z</time></trkpt>
<trkpt lat="37.814392000" lon="-121.986470000"><ele>118.3</ele><time>2026-08-02T00:00:00Z</time></trkpt>
<trkpt lat="37.814480000" lon="-121.986520000"><ele>118.2</ele><time>2026-08-02T00:00:00Z</time></trkpt>
<trkpt lat="37.814560000" lon="-121.986565000"><ele>118.2</ele><time>2026-08-02T00:00:00Z</time></trkpt>
<trkpt lat="37.814636000" lon="-121.986620000"><ele>118.2</ele><time>2026-08-02T00:00:00Z</time></trkpt>
<trkpt lat="37.814720000" lon="-121.986660000"><ele>118.2</ele><time>2026-08-02T00:00:00Z</time></trkpt>
<trkpt lat="37.814810000" lon="-121.986690000"><ele>118.1</ele><time>2026-08-02T00:00:00Z</time></trkpt>
<trkpt lat="37.814900000" lon="-121.986720000"><ele>118.0</ele><time>2026-08-02T00:00:00Z</time></trkpt>
<trkpt lat="37.814987000" lon="-121.986740000"><ele>118.0</ele><time>2026-08-02T00:00:00Z</time></trkpt>
<trkpt lat="37.815067000" lon="-121.986755000"><ele>118.0</ele><time>2026-08-02T00:00:00Z</time></trkpt>
<trkpt lat="37.815155000" lon="-121.986780000"><ele>118.0</ele><time>2026-08-02T00:00:00Z</time></trkpt>
<trkpt lat="37.815243000" lon="-121.986786000"><ele>118.0</ele><time>2026-08-02T00:00:00Z</time></trkpt>
<trkpt lat="37.815340000" lon="-121.986790000"><ele>118.0</ele><time>2026-08-02T00:00:00Z</time></trkpt>
<trkpt lat="37.815426000" lon="-121.986810000"><ele>118.0</ele><time>2026-08-02T00:00:00Z</time></trkpt>
<trkpt lat="37.815517000" lon="-121.986824000"><ele>118.1</ele><time>2026-08-02T00:00:00Z</time></trkpt>
<trkpt lat="37.815600000" lon="-121.986820000"><ele>118.2</ele><time>2026-08-02T00:00:00Z</time></trkpt>
<trkpt lat="37.815690000" lon="-121.986824000"><ele>118.2</ele><time>2026-08-02T00:00:00Z</time></trkpt>
<trkpt lat="37.815773000" lon="-121.986824000"><ele>118.2</ele><time>2026-08-02T00:00:00Z</time></trkpt>
<trkpt lat="37.815857000" lon="-121.986824000"><ele>118.2</ele><time>2026-08-02T00:00:00Z</time></trkpt>
<trkpt lat="37.815930000" lon="-121.986770000"><ele>118.3</ele><time>2026-08-02T00:00:00Z</time></trkpt>
<trkpt lat="37.815937000" lon="-121.986770000"><ele>118.3</ele><time>2026-08-02T00:00:00Z</time></trkpt>
</trkseg>
</trk>
</gpx>
